AtcoCode,NaptanCode,PlateCode,CleardownCode,CommonName,CommonNameLang,ShortCommonName,ShortCommonNameLang,Landmark,LandmarkLang,Street,StreetLang,Crossing,CrossingLang,Indicator,IndicatorLang,Bearing,NptgLocalityCode,LocalityName,ParentLocalityName,GrandParentLocalityName,Town,TownLang,Suburb,SuburbLang,LocalityCentre,GridType,Easting,Northing,Longitude,Latitude,StopType,BusStopType,TimingStatus,DefaultWaitTime,Notes,NotesLang,AdministrativeAreaCode,CreationDateTime,ModificationDateTime,RevisionNumber,Modification,Status
0180BAA01315,bthmtpw,,,Ralph Allen School Grounds,en,,,,,,,,,W-Bound,en,W,E0034992,Claverton Down,Bath,,,,,,0,U,377205,162796,-2.32882,51.36376,BCT,MKD,OTH,,,,1,2013-03-11T16:46:19,2013-03-11T16:46:19,,new,act
0180BAA01316,bthmtwa,,,Sainsburys,en,,,,,,,,,NE-Bound,en,NE,E0035029,Kingsmead,Bath,,,,,,0,U,374264,164751,-2.3712,51.38122,BCT,MKD,OTH,,,,1,2013-03-11T16:46:19,2013-03-11T16:46:19,,new,act
0180BAA01317,bthmtwd,,,Dorchester Street,en,,,,,Dorchester Street,en,,,Bk,en,W,N0078123,Bath City Centre,Bath,,,,,,0,U,375116,164378,-2.35893,51.3779,BCT,MKD,OTH,,,,1,2013-03-11T16:46:22,2013-03-11T16:46:22,,new,act
0180BAA01318,bthmtwg,,,Dorchester Street,en,,,,,Dorchester Street,en,,,Bl,en,W,N0078123,Bath City Centre,Bath,,,,,,0,U,375092,164381,-2.35928,51.37793,BCT,MKD,OTH,,,,1,2013-03-11T16:46:22,2013-03-11T16:46:22,,new,act
0180BAA01319,bthmtwj,,,Bus Station,en,,,,,Dorchester Street,en,,,Bay 1,en,,N0078123,Bath City Centre,Bath,,,,,,0,U,375074,164376,-2.35954,51.37788,BCS,MKD,,,,,1,2013-03-11T16:46:18,2013-03-11T16:46:18,,new,act
0180BAA01320,bthmtwm,,,Bus Station,en,,,,,Dorchester Street,en,,,Bay 2,en,,N0078123,Bath City Centre,Bath,,,,,,0,U,375077,164376,-2.35949,51.37788,BCS,MKD,,,,,1,2013-03-11T16:46:18,2013-03-11T16:46:18,,new,act
0180BAA01321,bthmtwp,,,Bus Station,en,,,,,Dorchester Street,en,,,Bay 3,en,,N0078123,Bath City Centre,Bath,,,,,,0,U,375080,164375,-2.35945,51.37787,BCS,MKD,,,,,1,2013-03-11T16:46:18,2013-03-11T16:46:18,,new,act
0180BAA01322,bthmtwt,,,Bus Station,en,,,,,,,,,Bay 4,en,,N0078123,Bath City Centre,Bath,,,,,,0,U,375082,164375,-2.35942,51.37787,BCS,MKD,,,,,1,2013-03-11T16:46:18,2013-03-11T16:46:18,,new,act
0180BAA01323,bthmwad,,,Bus Station,en,,,,,,,,,Bay 5,en,,N0078123,Bath City Centre,Bath,,,,,,0,U,375085,164375,-2.35938,51.37787,BCS,MKD,,,,,1,2013-03-11T16:46:18,2013-03-11T16:46:18,,new,act
0180BAA01324,bthmwag,,,Bus Station,en,,,,,,,,,Bay 6,en,,N0078123,Bath City Centre,Bath,,,,,,0,U,375088,164374,-2.35933,51.37786,BCS,MKD,,,,,1,2013-03-11T16:46:18,2013-03-11T16:46:18,,new,act
0180BAA01325,bthmwaj,,,Bus Station,en,,,,,,,,,Bay 7,en,,N0078123,Bath City Centre,Bath,,,,,,0,U,375091,164373,-2.35929,51.37786,BCS,MKD,,,,,1,2013-03-11T16:46:18,2013-03-11T16:46:18,,new,act
0180BAA01326,bthmwam,,,Bus Station,en,,,,,,,,,Bay 8,en,,N0078123,Bath City Centre,Bath,,,,,,0,U,375094,164373,-2.35925,51.37786,BCS,MKD,,,,,1,2013-03-11T16:46:18,2013-03-11T16:46:18,,new,act
0180BAA01327,bthmwap,,,Bus Station,en,,,,,,,,,Bay 9,en,,N0078123,Bath City Centre,Bath,,,,,,0,U,375097,164372,-2.35921,51.37785,BCS,MKD,,,,,1,2013-03-11T16:46:18,2013-03-11T16:46:18,,new,act
0180BAA01328,bthmwat,,,Bus Station,en,,,,,,,,,Bay 10,en,,N0078123,Bath City Centre,Bath,,,,,,0,U,375100,164372,-2.35916,51.37785,BCS,MKD,,,,,1,2013-03-11T16:46:18,2013-03-11T16:46:18,,new,act
0180BAA01329,bthmwaw,,,Bus Station,en,,,,,,,,,Bay 11,en,,N0078123,Bath City Centre,Bath,,,,,,0,U,375103,164371,-2.35912,51.37784,BCS,MKD,,,,,1,2013-03-11T16:46:18,2013-03-11T16:46:18,,new,act
0180BAA01330,bthmwda,,,Bus Station,en,,,,,,,,,Bay 12,en,,N0078123,Bath City Centre,Bath,,,,,,0,U,375106,164371,-2.35908,51.37784,BCS,MKD,,,,,1,2013-03-11T16:46:18,2013-03-11T16:46:18,,new,act
0180BAA01331,bthmwdg,,,Bus Station,en,,,,,,,,,Bay 13,en,,N0078123,Bath City Centre,Bath,,,,,,0,U,375109,164370,-2.35903,51.37783,BCS,MKD,,,,,1,2013-03-11T16:46:18,2013-03-11T16:46:18,,new,act
0180BAA01332,bthmwdj,,,Bus Station,en,,,,,,,,,Bay 14,en,,N0078123,Bath City Centre,Bath,,,,,,0,U,375112,164370,-2.35899,51.37783,BCS,MKD,,,,,1,2013-03-11T16:46:18,2013-03-11T16:46:18,,new,act
0180BAA01333,bthmwdm,,,Bus Station,en,,,,,,,,,Bay 15,en,,N0078123,Bath City Centre,Bath,,,,,,0,U,375115,164369,-2.35895,51.37782,BCS,MKD,,,,,1,2013-03-11T16:46:18,2013-03-11T16:46:18,,new,act
0180BAA01334,bthmwdp,,,Bus Station,en,,,,,,,,,Bay 16,en,,N0078123,Bath City Centre,Bath,,,,,,0,U,375118,164369,-2.3589,51.37782,BCS,MKD,,,,,1,2013-03-11T16:46:18,2013-03-11T16:46:18,,new,act
0180BAA01335,bthmwdt,,,Mount Road,en,,,,,The Hollow,en,,,SW-Bound,en,SW,E0035155,Whiteway,Bath,,,,,,0,U,372495,163827,-2.39653,51.37283,BCT,MKD,OTH,,,,1,2013-03-11T16:46:19,2013-03-11T16:46:19,,new,act
0180BAA01336,bthmwdw,,,Kelston View,en,,,,,The Hollow,en,,,NE-Bound,en,NE,E0035155,Whiteway,Bath,,,,,,0,U,372565,163953,-2.39554,51.37396,BCT,MKD,OTH,,,,1,2013-03-11T16:46:19,2013-03-11T16:46:19,,new,act
0180BAA01337,bthmwga,,,Oak Street,en,,,,,Lower Bristol Road,en,,,E-Bound,en,E,E0035029,Kingsmead,Bath,,,,,,0,U,374658,164446,-2.36552,51.37849,BCT,MKD,OTH,,,,1,2013-03-11T16:46:19,2013-03-11T16:46:19,,new,act
0180BAA01338,bthmwgd,,,Oak Street,en,,,,,Lower Bristol Road,en,,,NW-Bound,en,NW,E0035068,Oldfield Park,Bath,,,,,,0,U,374639,164437,-2.36579,51.37841,BCT,MKD,OTH,,,,1,2013-03-11T16:46:19,2013-03-11T16:46:19,,new,act
0180BAA01342,bthmwgt,,,Dorchester Street,en,,,,,Dorchester Street,en,,,Bm,en,E,N0078123,Bath City Centre,Bath,,,,,,0,U,375089,164396,-2.35932,51.37806,BCT,MKD,OTH,,,,1,2013-03-11T16:46:22,2013-03-11T16:46:22,,new,act
0180BAA01343,bthmwgw,,,Dorchester Street,en,,,,,Dorchester Street,en,,,Bn,en,E,N0078123,Bath City Centre,Bath,,,,,,0,U,375104,164393,-2.35911,51.37804,BCT,MKD,OTH,,,,1,2013-03-11T16:46:22,2013-03-11T16:46:22,,new,act
0180BAA01344,bthmwja,,,Dorchester Street,en,,,,,Dorchester Street,en,,,Bp,en,E,N0078123,Bath City Centre,Bath,,,,,,0,U,375117,164391,-2.35892,51.37802,BCT,MKD,OTH,,,,1,2013-03-11T16:46:22,2013-03-11T16:46:22,,new,act
0180BAA01346,bthmwjg,,,Manvers Street,en,,,,,Manvers Street,en,,,Bf,en,N,N0078123,Bath City Centre,Bath,,,,,,0,U,375243,164475,-2.35711,51.37878,BCT,MKD,OTH,,,,1,2013-03-11T16:46:20,2013-03-11T16:46:20,,new,act
0180BAA01347,bthmwjm,,,Manvers Street,en,,,,,Manvers Street,en,,,Bg,en,N,N0078123,Bath City Centre,Bath,,,,,,0,U,375240,164429,-2.35715,51.37837,BCT,MKD,OTH,,,,1,2013-03-11T16:46:20,2013-03-11T16:46:20,,new,act
0180BAA01348,bthmwjp,,,Quarry Road,en,,,,,Bathwick Hill,en,,,E-Bound,en,E,N0060721,University of Bath,Bath,,,,,,0,U,376756,164436,-2.33537,51.37849,BCT,MKD,OTH,,,,1,2013-03-11T16:46:22,2013-03-11T16:46:22,,new,act
0180BAA01349,bthmwjt,,,Sainsbury's,en,,,,,Frome Road,en,,,NW-Bound,en,NW,E0035066,Odd Down,Bath,,,,,,0,U,374218,162050,-2.37167,51.35693,BCT,MKD,OTH,,,,1,2013-03-11T16:46:18,2013-03-11T16:46:18,,new,act
0180BAA01355,bthmwmt,,,Western Riverside,en,,,,,,,,,SE-Bound,en,SE,E0035068,Oldfield Park,Bath,,,,,,0,U,374127,164795,-2.37317,51.38161,BCT,MKD,OTH,,,,1,2013-03-11T16:46:22,2013-03-11T16:46:22,,new,act
0180BAA01356,bthmwmw,,,University of Bath,en,,,,,,,,,B,en,SE,N0060721,University of Bath,Bath,,,,,,0,U,377452,164476,-2.32538,51.37888,BCT,MKD,OTH,,,,1,2013-03-11T16:46:19,2013-03-11T16:46:19,,new,act
0180BAA01357,bthmwpa,,,University of Bath,en,,,,,,,,,C,en,S,N0060721,University of Bath,Bath,,,,,,0,U,377478,164468,-2.325,51.37881,BCT,MKD,OTH,,,,1,2013-03-11T16:46:19,2013-03-11T16:46:19,,new,act
0180BAC01277,bthmtpg,,,St James's Parade,en,,,,,St James's Parade,en,,,Wy,en,SE,N0078123,Bath City Centre,Bath,,,,,,0,U,374902,164634,-2.36203,51.38019,BCT,MKD,OTH,,,,1,2013-03-11T16:46:19,2013-03-11T16:46:19,,new,act
0180BAC01278,bthmtpj,,,Bus Station,en,,,,,,,,,,,,N0078123,Bath City Centre,Bath,,,,,,0,U,375056,164349,-2.35979,51.37764,BCS,MKD,,,,,1,2013-03-11T16:46:19,2013-03-11T16:46:19,,new,act
0180BAC01279,bthmtpm,,,Dorchester Street,en,,,,,Dorchester Street,en,,,Bq,en,E,N0078123,Bath City Centre,Bath,,,,,,0,U,375202,164382,-2.3577,51.37794,BCT,MKD,OTH,,,,1,2013-03-11T16:46:22,2013-03-11T16:46:22,,new,act
0180BAC01280,bthmtpt,,,Recycling Centre,en,,,,,A367,en,,,NE-Bound,en,NE,E0035066,Odd Down,Bath,,,,,,0,U,372864,161294,-2.39104,51.35007,BCT,MKD,OTH,,,,1,2013-03-11T16:46:16,2013-03-11T16:46:16,,new,act
0180BAC23422,bthmjdw,,,King Edward's School,en,,,,,North Road,en,,,SE-Bound,en,,E0034971,Bathwick,Bath,,,,,,0,U,376207,165289,-2.34332,51.38614,BCT,HAR,OTH,,,,1,2013-03-11T16:46:19,2013-03-11T16:46:19,,new,act
0180BAC23435,bthmjgm,,,Windsor Villas,en,,,,,Upper Bristol Road,en,,,NE-Bound,en,NE,E0035043,Lower Weston,Bath,,,,,,0,U,373437,165112,-2.3831,51.38443,BCT,MKD,OTH,,,,1,2013-03-11T16:46:22,2013-03-11T16:46:22,,new,act
0180BAC23439,bthmjgt,,,Entry Hill top,en,,,,,Entry Hill,en,,,N-Bound,en,N,N0060724,Fox Hill,Bath,,,,,,0,U,374762,162254,-2.36387,51.35879,BCT,MKD,OTH,,,,1,2013-03-11T16:46:19,2013-03-11T16:46:19,,new,act
0180BAC23440,bthmjgw,,,Burleigh Gardens,en,,,,,South Lea Road,en,,,W-Bound,en,W,N0060729,Newbridge,Bath,,,,,,0,U,372453,165865,-2.3973,51.39115,BCT,MKD,OTH,,,,1,2013-03-11T16:46:19,2013-03-11T16:46:19,,new,act
0180BAC23452,bthmjpj,,,St Marks School,en,,,,,Spring Lane,en,,,NW-Bound,en,,E0035036,Larkhall,Bath,,,,,,0,U,375805,166731,-2.34919,51.39909,BCT,HAR,OTH,,,,1,2013-03-11T16:46:18,2013-03-11T16:46:18,,new,act
0180BAC23453,bthmjpm,,,St Marks School,en,,,,,Spring Lane,en,,,SE-Bound,en,,E0035036,Larkhall,Bath,,,,,,0,U,375803,166745,-2.34922,51.39921,BCT,HAR,OTH,,,,1,2013-03-11T16:46:18,2013-03-11T16:46:18,,new,act
0180BAC23454,bthmjpt,,,North Parade,en,,,,,North Parade,en,,,Cd,en,W,N0078123,Bath City Centre,Bath,,,,,,0,U,375298,164694,-2.35634,51.38075,BCT,MKD,OTH,,,,1,2013-03-11T16:46:18,2013-03-11T16:46:18,,new,act
0180BAC23460,bthmjtm,,,The Beeches,en,,,,,Wellsway,en,,,NE-Bound,en,NE,E0035066,Odd Down,Bath,,,,,,0,U,373852,162169,-2.37693,51.35798,BCT,MKD,OTH,,,,1,2013-03-11T16:46:18,2013-03-11T16:46:18,,new,act
0180BAC23461,bthmjtp,,,The Beeches,en,,,,,Wellsway,en,,,SW-Bound,en,SW,E0035066,Odd Down,Bath,,,,,,0,U,373859,162159,-2.37683,51.35789,BCT,MKD,OTH,,,,1,2013-03-11T16:46:18,2013-03-11T16:46:18,,new,act
0180BAC23463,bthmjtw,,,Windsor Bridge Road,en,,,,,Windsor Bridge Road,en,,,N-Bound,en,N,E0035004,East Twerton,Bath,,,,,,0,U,373569,164963,-2.38119,51.38309,BCT,MKD,OTH,,,,1,2013-03-11T16:46:18,2013-03-11T16:46:18,,new,act
0180BAC23466,bthmjwd,,,Royal Crescent,en,,,,,Brock Street,en,,,W-Bound,en,W,N0078123,Bath City Centre,Bath,,,,,,0,U,374575,165323,-2.36677,51.38637,BCT,MKD,OTH,,,,1,2013-03-11T16:46:18,2013-03-11T16:46:18,,new,act
0180BAC23467,bthmjwg,,,Cameley Green,en,,,,,Shaws Way,en,,,E-Bound,en,E,E0035130,Twerton,Bath,,,,,,0,U,371773,164489,-2.40696,51.37874,BCT,MKD,OTH,,,,1,2013-03-11T16:46:18,2013-03-11T16:46:18,,new,act
0180BAC23468,bthmjwj,,,Garrick Road,en,,,,,Sheridan Road,en,,,N-Bound,en,N,E0035130,Twerton,Bath,,,,,,0,U,371764,164204,-2.40707,51.37618,BCT,MKD,OTH,,,,1,2013-03-11T16:46:18,2013-03-11T16:46:18,,new,act
0180BAC23469,bthmjwm,,,Sheridan Road,en,,,,,Poolemead Road,en,,,N-Bound,en,N,E0035130,Twerton,Bath,,,,,,0,U,371912,164063,-2.40493,51.37492,BCT,MKD,OTH,,,,1,2013-03-11T16:46:18,2013-03-11T16:46:18,,new,act
0180BAC23470,bthmjwp,,,Outside 23,en,,,,,Kelston View,en,,,E-Bound,en,E,E0035155,Whiteway,Bath,,,,,,0,U,372362,164195,-2.39847,51.37613,BCT,MKD,OTH,,,,1,2013-03-11T16:46:18,2013-03-11T16:46:18,,new,act
0180BAC23471,bthmjwt,,,Highland Road,en,,,,,Shophouse Road,en,,,NW-Bound,en,NW,E0035130,Twerton,Bath,,,,,,0,U,372852,164440,-2.39145,51.37836,BCT,MKD,OTH,,,,1,2013-03-11T16:46:18,2013-03-11T16:46:18,,new,act
0180BAC23472,bthmpad,,,Teddington Close,en,,,,,Southdown Road,en,,,SW-Bound,en,SW,E0035130,Twerton,Bath,,,,,,0,U,373049,163878,-2.38858,51.37331,BCT,MKD,OTH,,,,1,2013-03-11T16:46:18,2013-03-11T16:46:18,,new,act
0180BAC23481,bthmpaw,,,St Gregory's School,en,,,,,Combe Hill Lane,en,,,S-Bound,en,,E0035066,Odd Down,Bath,,,,,,0,U,373505,161714,-2.38187,51.35387,BCT,HAR,OTH,,,,1,2013-03-11T16:46:14,2013-03-11T16:46:14,,new,act
0180BAC30005,bthjtdp,,,Laura Place,en,,,,,Great Pulteney Street,en,,,NE-Bound,en,NE,E0034971,Bathwick,Bath,,,,,,0,U,375339,165048,-2.35578,51.38394,BCT,MKD,OTH,,,,1,2013-03-11T16:46:19,2013-03-11T16:46:19,,new,act
0180BAC30007,bthjtmw,,,Holburne Museum,en,,,,,Great Pulteney Street,en,,,E-Bound,en,E,E0034971,Bathwick,Bath,,,,,,0,U,375589,165203,-2.35219,51.38534,BCT,MKD,OTH,,,,1,2013-03-11T16:46:19,2013-03-11T16:46:19,,new,act
0180BAC30008,bthjwat,,,Forester Road,en,,,,,Beckford Road,en,,,NE-Bound,en,NE,E0034971,Bathwick,Bath,,,,,,0,U,375717,165404,-2.35037,51.38715,BCT,MKD,OTH,,,,1,2013-03-11T16:46:19,2013-03-11T16:46:19,,new,act
0180BAC30009,bthjwmw,,,North Road,en,,,,,Warminster Road,en,,,NE-Bound,en,NE,E0034971,Bathwick,Bath,,,,,,0,U,376003,165453,-2.34626,51.38761,BCT,MKD,OTH,,,,1,2013-03-11T16:46:19,2013-03-11T16:46:19,,new,act
0180BAC30011,bthmagt,,,Minster Way,en,,,,,Warminster Road,en,,,NE-Bound,en,NE,E0034971,Bathwick,Bath,,,,,,0,U,376241,165615,-2.34285,51.38907,BCT,MKD,OTH,,,,1,2013-03-11T16:46:19,2013-03-11T16:46:19,,new,act
0180BAC30025,bthmagw,,,Minster Way,en,,,,,Warminster Road,en,,,SW-Bound,en,SW,E0034971,Bathwick,Bath,,,,,,0,U,376247,165600,-2.34276,51.38894,BCT,MKD,OTH,,,,1,2013-03-11T16:46:19,2013-03-11T16:46:19,,new,act
0180BAC30027,bthjwjp,,,North Road,en,,,,,Beckford Road,en,,,W-Bound,en,W,E0034971,Bathwick,Bath,,,,,,0,U,375900,165428,-2.34774,51.38738,BCT,MKD,OTH,,,,1,2013-03-11T16:46:19,2013-03-11T16:46:19,,new,act
0180BAC30029,bthjwaj,,,Forester Road,en,,,,,Beckford Road,en,,,SW-Bound,en,SW,E0034971,Bathwick,Bath,,,,,,0,U,375692,165371,-2.35072,51.38686,BCT,MKD,OTH,,,,1,2013-03-11T16:46:19,2013-03-11T16:46:19,,new,act
0180BAC30031,bthjtpa,,,Holburne Museum,en,,,,,Great Pulteney Street,en,,,W-Bound,en,W,E0034971,Bathwick,Bath,,,,,,0,U,375598,165191,-2.35206,51.38523,BCT,MKD,OTH,,,,1,2013-03-11T16:46:19,2013-03-11T16:46:19,,new,act
0180BAC30032,bthjtdw,,,Laura Place,en,,,,,Great Pulteney Street,en,,,SW-Bound,en,SW,E0034971,Bathwick,Bath,,,,,,0,U,375349,165036,-2.35563,51.38383,BCT,MKD,OTH,,,,1,2013-03-11T16:46:19,2013-03-11T16:46:19,,new,act
0180BAC30035,bthmdgm,,,University of Bath,en,,,,,,,,,E-Bound,en,E,N0060721,University of Bath,Bath,,,,,,0,U,377466,164499,-2.32518,51.37909,BCT,MKD,OTH,,,,1,2013-03-11T16:46:19,2013-03-11T16:46:19,,new,act
0180BAC30037,bthmdjm,,,The Avenue,en,,,,,Norwood Avenue,en,,,S-Bound,en,S,N0060721,University of Bath,Bath,,,,,,0,U,377518,164163,-2.32441,51.37607,BCT,CUS,OTH,,,,1,2013-03-11T16:46:19,2013-03-11T16:46:19,,new,act
0180BAC30038,bthmdjd,,,The Avenue,en,,,,,Norwood Avenue,en,,,NE-Bound,en,NE,N0060721,University of Bath,Bath,,,,,,0,U,377496,164146,-2.32472,51.37592,BCT,MKD,OTH,,,,1,2013-03-11T16:46:19,2013-03-11T16:46:19,,new,act
0180BAC30039,bthmdam,,,Oakley,en,,,,,Oakley,en,,,NW-Bound,en,NW,E0034992,Claverton Down,Bath,,,,,,0,U,377192,163980,-2.32908,51.37441,BCT,MKD,OTH,,,,1,2013-03-11T16:46:19,2013-03-11T16:46:19,,new,act
0180BAC30040,bthmdat,,,Oakley,en,,,,,Claverton Down Road,en,,,SE-Bound,en,SE,E0034992,Claverton Down,Bath,,,,,,0,U,377253,163961,-2.3282,51.37424,BCT,MKD,OTH,,,,1,2013-03-11T16:46:19,2013-03-11T16:46:19,,new,act
0180BAC30041,bthmawa,,,Bathwick Hill,en,,,,,Bathwick Hill,en,,,NW-Bound,en,NW,E0034971,Bathwick,Bath,,,,,,0,U,376980,164250,-2.33214,51.37683,BCT,MKD,OTH,,,,1,2013-03-11T16:46:19,2013-03-11T16:46:19,,new,act
0180BAC30042,bthmawj,,,Bathwick Hill,en,,,,,Bathwick Hill,en,,,SE-Bound,en,SE,E0034971,Bathwick,Bath,,,,,,0,U,377022,164225,-2.33154,51.37661,BCT,MKD,OTH,,,,1,2013-03-11T16:46:19,2013-03-11T16:46:19,,new,act
0180BAC30043,bthmapw,,,Woodland Place,en,,,,,Bathwick Hill,en,,,W-Bound,en,W,E0034971,Bathwick,Bath,,,,,,0,U,376818,164326,-2.33447,51.37751,BCT,MKD,OTH,,,,1,2013-03-11T16:46:19,2013-03-11T16:46:19,,new,act
0180BAC30044,bthmatd,,,Woodland Place,en,,,,,Bathwick Hill,en,,,E-Bound,en,E,E0034971,Bathwick,Bath,,,,,,0,U,376861,164318,-2.33386,51.37744,BCT,MKD,OTH,,,,1,2013-03-11T16:46:19,2013-03-11T16:46:19,,new,act
0180BAC30045,bthmapm,,,Smallcombe House,en,,,,,Bathwick Hill,en,,,E-Bound,en,E,E0034971,Bathwick,Bath,,,,,,0,U,376602,164367,-2.33758,51.37787,BCT,MKD,OTH,,,,1,2013-03-11T16:46:19,2013-03-11T16:46:19,,new,act
0180BAC30046,bthmapj,,,Smallcombe House,en,,,,,Bathwick Hill,en,,,W-Bound,en,W,E0034971,Bathwick,Bath,,,,,,0,U,376574,164359,-2.33798,51.37779,BCT,MKD,OTH,,,,1,2013-03-11T16:46:19,2013-03-11T16:46:19,,new,act
0180BAC30047,bthmamg,,,Youth Hostel,en,,,,,Bathwick Hill,en,,,NW-Bound,en,NW,E0034971,Bathwick,Bath,,,,,,0,U,376405,164457,-2.34042,51.37867,BCT,MKD,OTH,,,,1,2013-03-11T16:46:19,2013-03-11T16:46:19,,new,act
0180BAC30048,bthmamp,,,Youth Hostel,en,,,,,Bathwick Hill,en,,,SE-Bound,en,SE,E0034971,Bathwick,Bath,,,,,,0,U,376433,164448,-2.34001,51.37859,BCT,MKD,OTH,,,,1,2013-03-11T16:46:19,2013-03-11T16:46:19,,new,act
0180BAC30049,bthmagj,,,White Lodge,en,,,,,Bathwick Hill,en,,,NW-Bound,en,NW,E0034971,Bathwick,Bath,,,,,,0,U,376176,164597,-2.34372,51.37992,BCT,MKD,OTH,,,,1,2013-03-11T16:46:19,2013-03-11T16:46:19,,new,act
0180BAC30050,bthmagp,,,White Lodge,en,,,,,Bathwick Hill,en,,,SE-Bound,en,SE,E0034971,Bathwick,Bath,,,,,,0,U,376246,164579,-2.34271,51.37976,BCT,MKD,OTH,,,,1,2013-03-11T16:46:19,2013-03-11T16:46:19,,new,act
0180BAC30051,bthjwta,,,Cleveland Walk,en,,,,,Bathwick Hill,en,,,N-Bound,en,N,E0034971,Bathwick,Bath,,,,,,0,U,376039,164705,-2.34569,51.38088,BCT,MKD,OTH,,,,1,2013-03-11T16:46:19,2013-03-11T16:46:19,,new,act
0180BAC30052,bthjwtd,,,Cleveland Walk,en,,,,,,,,,SE-Bound,en,SE,E0034971,Bathwick,Bath,,,,,,0,U,376054,164720,-2.34548,51.38102,BCT,MKD,OTH,,,,1,2013-03-11T16:46:19,2013-03-11T16:46:19,,new,act
0180BAC30053,bthjwja,,,Sydney Buildings,en,,,,,Bathwick Hill,en,,,SE-Bound,en,SE,E0034971,Bathwick,Bath,,,,,,0,U,375867,164907,-2.34818,51.38269,BCT,MKD,OTH,,,,1,2013-03-11T16:46:19,2013-03-11T16:46:19,,new,act
0180BAC30054,bthjwaw,,,Bathwick Terrace,en,,,,,Bathwick Hill,en,,,NW-Bound,en,NW,E0034971,Bathwick,Bath,,,,,,0,U,375721,164972,-2.35028,51.38327,BCT,MKD,OTH,,,,1,2013-03-11T16:46:19,2013-03-11T16:46:19,,new,act
0180BAC30055,bthjtwj,,,St Marys Church,en,,,,,Bathwick Hill,en,,,SE-Bound,en,SE,E0034971,Bathwick,Bath,,,,,,0,U,375676,165046,-2.35093,51.38393,BCT,MKD,OTH,,,,1,2013-03-11T16:46:19,2013-03-11T16:46:19,,new,act
0180BAC30056,bthjtjw,,,Edward Street,en,,,,,Edward Street,en,,,N-Bound,en,N,E0034971,Bathwick,Bath,,,,,,0,U,375536,165122,-2.35295,51.38461,BCT,MKD,OTH,,,,1,2013-03-11T16:46:19,2013-03-11T16:46:19,,new,act
0180BAC30057,bthjtmd,,,Edward Street,en,,,,,Edward Street,en,,,S-Bound,en,S,E0034971,Bathwick,Bath,,,,,,0,U,375544,165131,-2.35284,51.38469,BCT,MKD,OTH,,,,1,2013-03-11T16:46:19,2013-03-11T16:46:19,,new,act
0180BAC30058,bthmatj,,,Copseland,en,,,,,Widcombe Hill,en,,,W-Bound,en,W,E0035160,Widcombe,Bath,,,,,,0,U,376886,164036,-2.33348,51.3749,BCT,MKD,OTH,,,,1,2013-03-11T16:46:16,2013-03-11T16:46:16,,new,act
0180BAC30059,bthmamd,,,Macaulay Buildings,en,,,,,Widcombe Hill,en,,,E-Bound,en,E,E0035160,Widcombe,Bath,,,,,,0,U,376377,163907,-2.34078,51.37372,BCT,MKD,OTH,,,,1,2013-03-11T16:46:19,2013-03-11T16:46:19,,new,act
0180BAC30060,bthmama,,,Macaulay Buildings,en,,,,,Widcombe Hill,en,,,W-Bound,en,W,E0035160,Widcombe,Bath,,,,,,0,U,376398,163894,-2.34048,51.3736,BCT,MKD,OTH,,,,1,2013-03-11T16:46:19,2013-03-11T16:46:19,,new,act
0180BAC30061,bthjwdt,,,The Tyning,en,,,,,Widcombe Hill,en,,,E-Bound,en,E,E0035160,Widcombe,Bath,,,,,,0,U,375793,164076,-2.34918,51.37522,BCT,MKD,OTH,,,,1,2013-03-11T16:46:19,2013-03-11T16:46:19,,new,act
0180BAC30062,bthjwdp,,,The Tyning,en,,,,,Widcombe Hill,en,,,NW-Bound,en,NW,E0035160,Widcombe,Bath,,,,,,0,U,375748,164085,-2.34983,51.37529,BCT,MKD,OTH,,,,1,2013-03-11T16:46:19,2013-03-11T16:46:19,,new,act
0180BAC30063,bthmada,,,Widcombe Hall,en,,,,,,,,,E-Bound,en,E,E0035160,Widcombe,Bath,,,,,,0,U,376085,164005,-2.34498,51.37459,BCT,MKD,OTH,,,,1,2013-03-11T16:46:19,2013-03-11T16:46:19,,new,act
0180BAC30064,bthjwtw,,,Widcombe Hall,en,,,,,Widcombe Hill,en,,,W-Bound,en,W,E0035160,Widcombe,Bath,,,,,,0,U,376084,163995,-2.345,51.3745,BCT,CUS,OTH,,,,1,2013-03-11T16:46:19,2013-03-11T16:46:19,,new,act
0180BAC30065,bthjtgj,,,Widcombe Parade,en,,,,,Claverton Street,en,,,W-Bound,en,W,E0035160,Widcombe,Bath,,,,,,0,U,375377,164224,-2.35517,51.37653,BCT,MKD,OTH,,,,1,2013-03-11T16:46:19,2013-03-11T16:46:19,,new,act
0180BAC30067,bthjtwa,,,Pulteney Gardens,en,,,,,Pulteney Road,en,,,S-Bound,en,S,E0035160,Widcombe,Bath,,,,,,0,U,375662,164560,-2.3511,51.37956,BCT,MKD,OTH,,,,1,2013-03-11T16:46:19,2013-03-11T16:46:19,,new,act
0180BAC30068,bthjtpm,,,Pulteney Gardens,en,,,,,Pulteney Road,en,,,N-Bound,en,N,E0035160,Widcombe,Bath,,,,,,0,U,375644,164613,-2.35136,51.38004,BCT,MKD,OTH,,,,1,2013-03-11T16:46:19,2013-03-11T16:46:19,,new,act
0180BAC30069,bthjtjt,,,Bathwick Street,en,,,,,Bathwick Street,en,,,SE-Bound,en,SE,E0034971,Bathwick,Bath,,,,,,0,U,375531,165437,-2.35304,51.38744,BCT,MKD,OTH,,,,1,2013-03-11T16:46:19,2013-03-11T16:46:19,,new,act
0180BAC30070,bthjtgp,,,Henrietta Court,en,,,,,Bathwick Street,en,,,NW-Bound,en,NW,E0034971,Bathwick,Bath,,,,,,0,U,375405,165540,-2.35486,51.38836,BCT,MKD,OTH,,,,1,2013-03-11T16:46:16,2013-03-11T16:46:16,,new,act
0180BAC30072,bthjtaw,,,St Johns Road,en,,,,,St John's Road,en,,,NE-Bound,en,NE,E0034971,Bathwick,Bath,,,,,,0,U,375273,165408,-2.35675,51.38717,BCT,MKD,OTH,,,,1,2013-03-11T16:46:19,2013-03-11T16:46:19,,new,act
0180BAC30076,bthjtpg,,,Rockliffe Road,en,,,,,Rockliffe Road,en,,,E-Bound,en,E,E0034971,Bathwick,Bath,,,,,,0,U,375614,165702,-2.35187,51.38983,BCT,MKD,OTH,,,,1,2013-03-11T16:46:19,2013-03-11T16:46:19,,new,act
0180BAC30077,bthjwdg,,,Forester Avenue,en,,,,,Forester Road,en,,,S-Bound,en,S,E0034971,Bathwick,Bath,,,,,,0,U,375727,165641,-2.35024,51.38928,BCT,MKD,OTH,,,,1,2013-03-11T16:46:19,2013-03-11T16:46:19,,new,act
0180BAC30078,bthjwap,,,Powlett Road,en,,,,,Forester Road,en,,,S-Bound,en,S,E0034971,Bathwick,Bath,,,,,,0,U,375713,165476,-2.35043,51.3878,BCT,MKD,OTH,,,,1,2013-03-11T16:46:19,2013-03-11T16:46:19,,new,act
0180BAC30079,bthmdma,,,Rainbow Wood Farm,en,,,,,Claverton Down Road,en,,,E-Bound,en,E,E0034992,Claverton Down,Bath,,,,,,0,U,377654,163771,-2.32243,51.37255,BCT,MKD,OTH,,,,1,2013-03-11T16:46:19,2013-03-11T16:46:19,,new,act
0180BAC30080,bthmdjw,,,Rainbow Wood Fm,en,,,,,Claverton Down Road,en,,,W-Bound,en,W,E0034992,Claverton Down,Bath,,,,,,0,U,377619,163776,-2.32293,51.37259,BCT,CUS,OTH,,,,1,2013-03-11T16:46:19,2013-03-11T16:46:19,,new,act
0180BAC30081,bthmdpg,,,Brassknocker Hill,en,,,,,,,,,W-Bound,en,W,E0034992,Claverton Down,Bath,,,,,,0,U,377838,163036,-2.31974,51.36595,BCT,MKD,OTH,,,,1,2013-03-11T16:46:19,2013-03-11T16:46:19,,new,act
0180BAC30082,bthmdmj,,,Flatwoods Road,en,,,,,Claverton Down Road,en,,,E-Bound,en,E,E0034992,Claverton Down,Bath,,,,,,0,U,377683,162983,-2.32196,51.36547,BCT,MKD,OTH,,,,1,2013-03-11T16:46:19,2013-03-11T16:46:19,,new,act
0180BAC30083,bthmdmp,,,Flatwoods Road,en,,,,,Claverton Down Road,en,,,W-Bound,en,W,E0034992,Claverton Down,Bath,,,,,,0,U,377689,162974,-2.32188,51.36538,BCT,CUS,OTH,,,,1,2013-03-11T16:46:19,2013-03-11T16:46:19,,new,act
0180BAC30084,bthmawp,,,Ralph Allen School,en,,,,,Claverton Down Road,en,,,W-Bound,en,W,E0034996,Combe Down,Bath,,,,,,0,U,377051,162799,-2.33103,51.36379,BCT,MKD,OTH,,,,1,2013-03-11T16:46:19,2013-03-11T16:46:19,,new,act
0180BAC30085,bthmawm,,,Ralph Allen School,en,,,,,Claverton Down Road,en,,,E-Bound,en,E,E0034996,Combe Down,Bath,,,,,,0,U,377049,162808,-2.33106,51.36387,BCT,CUS,OTH,,,,1,2013-03-11T16:46:19,2013-03-11T16:46:19,,new,act
0180BAC30086,bthmapg,,,Shaft Road,en,,,,,North Road,en,,,E-Bound,en,E,E0034996,Combe Down,Bath,,,,,,0,U,376589,162729,-2.33766,51.36314,BCT,MKD,OTH,,,,1,2013-03-11T16:46:19,2013-03-11T16:46:19,,new,act
0180BAC30087,bthmamw,,,Shaft Road,en,,,,,North Road,en,,,W-Bound,en,W,E0034996,Combe Down,Bath,,,,,,0,U,376489,162703,-2.33909,51.3629,BCT,MKD,OTH,,,,1,2013-03-11T16:46:19,2013-03-11T16:46:19,,new,act
0180BAC30088,bthmajd,,,Tyning Road,en,,,,,North Road,en,,,W-Bound,en,W,E0034996,Combe Down,Bath,,,,,,0,U,376262,162666,-2.34235,51.36256,BCT,MKD,OTH,,,,1,2013-03-11T16:46:19,2013-03-11T16:46:19,,new,act
0180BAC30091,bthjwdw,,,The Firs,en,,,,,North Road,en,,,SW-Bound,en,SW,E0034996,Combe Down,Bath,,,,,,0,U,375812,162515,-2.34881,51.36118,BCT,MKD,OTH,,,,1,2013-03-11T16:46:19,2013-03-11T16:46:19,,new,act
0180BAC30092,bthjwdm,,,Stonehouse Lane,en,,,,,North Road,en,,,NE-Bound,en,NE,E0034996,Combe Down,Bath,,,,,,0,U,375743,162489,-2.34979,51.36094,BCT,MKD,OTH,,,,1,2013-03-11T16:46:19,2013-03-11T16:46:19,,new,act
0180BAC30093,bthjtjd,,,Foxhill Hutments,en,,,,,Bradford Road,en,,,E-Bound,en,E,N0060724,Fox Hill,Bath,,,,,,0,U,375487,162394,-2.35346,51.36008,BCT,MKD,OTH,,,,1,2013-03-11T16:46:19,2013-03-11T16:46:19,,new,act
0180BAC30094,bthjtgt,,,Foxhill Hutments,en,,,,,Bradford Road,en,,,W-Bound,en,W,N0060724,Fox Hill,Bath,,,,,,0,U,375407,162356,-2.35461,51.35973,BCT,MKD,OTH,,,,1,2013-03-11T16:46:19,2013-03-11T16:46:19,,new,act
0180BAC30095,bthjwtm,,,Hadley Arms,en,,,,,The Avenue,en,,,SW-Bound,en,SW,E0034996,Combe Down,Bath,,,,,,0,U,376078,162635,-2.34499,51.36227,BCT,MKD,OTH,,,,1,2013-03-11T16:46:15,2013-03-11T16:46:15,,new,act
0180BAC30096,bthjwtg,,,Hadley Arms,en,,,,,The Avenue,en,,,N-Bound,en,N,E0034996,Combe Down,Bath,,,,,,0,U,376062,162618,-2.34522,51.36212,BCT,MKD,OTH,,,,1,2013-03-11T16:46:15,2013-03-11T16:46:15,,new,act
0180BAC30097,bthjwmj,,,Co-op,en,,,,,The Avenue,en,,,NE-Bound,en,NE,E0034996,Combe Down,Bath,,,,,,0,U,375964,162393,-2.34661,51.36009,BCT,MKD,OTH,,,,1,2013-03-11T16:46:18,2013-03-11T16:46:18,,new,act
0180BAC30098,bthjwjt,,,Combe Down School,en,,,,,Church Road,en,,,W-Bound,en,W,E0034996,Combe Down,Bath,,,,,,0,U,375928,162295,-2.34712,51.35921,BCT,MKD,OTH,,,,1,2013-03-11T16:46:18,2013-03-11T16:46:18,,new,act
0180BAC30099,bthjwad,,,Rock Hall Lane,en,,,,,Combe Road,en,,,SE-Bound,en,SE,E0034996,Combe Down,Bath,,,,,,0,U,375683,162300,-2.35064,51.35924,BCT,MKD,OTH,,,,1,2013-03-11T16:46:18,2013-03-11T16:46:18,,new,act
0180BAC30100,bthjtwt,,,Rock Hall Lane,en,,,,,Combe Road,en,,,NW-Bound,en,NW,E0034996,Combe Down,Bath,,,,,,0,U,375680,162291,-2.35069,51.35916,BCT,MKD,OTH,,,,1,2013-03-11T16:46:18,2013-03-11T16:46:18,,new,act
0180BAC30101,bthjtmg,,,Prior Park Cottages,en,,,,,Prior Park Road,en,,,S-Bound,en,S,E0035160,Widcombe,Bath,,,,,,0,U,375542,164146,-2.3528,51.37583,BCT,MKD,OTH,,,,1,2013-03-11T16:46:18,2013-03-11T16:46:18,,new,act
0180BAC30102,bthjtwp,,,Bewdley Road,en,,,,,Prior Park Road,en,,,NW-Bound,en,NW,E0035160,Widcombe,Bath,,,,,,0,U,375677,163905,-2.35084,51.37367,BCT,MKD,OTH,,,,1,2013-03-11T16:46:18,2013-03-11T16:46:18,,new,act
0180BAC30103,bthjwag,,,Bewdley Road,en,,,,,Prior Park Road,en,,,SE-Bound,en,SE,E0035160,Widcombe,Bath,,,,,,0,U,375687,163910,-2.3507,51.37372,BCT,CUS,OTH,,,,1,2013-03-11T16:46:18,2013-03-11T16:46:18,,new,act
0180BAC30104,bthjwga,,,Perrymead,en,,,,,,,,,S-Bound,en,S,E0035160,Widcombe,Bath,,,,,,0,U,375803,163746,-2.34902,51.37225,BCT,MKD,OTH,,,,1,2013-03-11T16:46:18,2013-03-11T16:46:18,,new,act
0180BAC30105,bthjwgj,,,Perrymead,en,,,,,Church Street,en,,,W-Bound,en,W,E0035160,Widcombe,Bath,,,,,,0,U,375826,163745,-2.34869,51.37224,BCT,MKD,OTH,,,,1,2013-03-11T16:46:18,2013-03-11T16:46:18,,new,act
0180BAC30106,bthjwpg,,,Middle Hill Lodge,en,,,,,Ralph Allen Drive,en,,,S-Bound,en,S,E0035077,Perrymead,Bath,,,,,,0,U,376010,163472,-2.34603,51.36979,BCT,MKD,OTH,,,,1,2013-03-11T16:46:18,2013-03-11T16:46:18,,new,act
0180BAC30107,bthjwpa,,,Middle Hill Lodge,en,,,,,Ralph Allen Drive,en,,,NW-Bound,en,NW,E0035077,Perrymead,Bath,,,,,,0,U,376001,163476,-2.34616,51.36983,BCT,CUS,OTH,,,,1,2013-03-11T16:46:18,2013-03-11T16:46:18,,new,act
0180BAC30109,bthjwpt,,,Prior Park Gardens,en,,,,,,,,,S-Bound,en,S,E0035077,Perrymead,Bath,,,,,,0,U,376024,163047,-2.3458,51.36597,BCT,MKD,OTH,,,,1,2013-03-11T16:46:18,2013-03-11T16:46:18,,new,act
0180BAC30110,bthjwpd,,,Prior Park College,en,,,,,Ralph Allen Drive,en,,,N-Bound,en,N,E0034996,Combe Down,Bath,,,,,,0,U,376003,162939,-2.34609,51.365,BCT,MKD,OTH,,,,1,2013-03-11T16:46:18,2013-03-11T16:46:18,,new,act
0180BAC30111,bthjwpw,,,Prior Park College,en,,,,,Ralph Allen Drive,en,,,S-Bound,en,S,E0034996,Combe Down,Bath,,,,,,0,U,376027,162905,-2.34574,51.3647,BCT,MKD,OTH,,,,1,2013-03-11T16:46:18,2013-03-11T16:46:18,,new,act
0180BAC30113,bthmadj,,,Masons Arms,en,,,,,North Road,en,,,E-Bound,en,E,E0034996,Combe Down,Bath,,,,,,0,U,376103,162669,-2.34464,51.36258,BCT,MKD,OTH,,,,1,2013-03-11T16:46:18,2013-03-11T16:46:18,,new,act
0180BAC30114,bthjtad,,,Foxhill House,en,,,,,Fox Hill,en,,,N-Bound,en,N,N0060724,Fox Hill,Bath,,,,,,0,U,375236,162347,-2.35707,51.35964,BCT,MKD,OTH,,,,1,2013-03-11T16:46:18,2013-03-11T16:46:18,,new,act
0180BAC30115,bthjtat,,,Bradford Park,en,,,,,Fox Hill,en,,,N-Bound,en,N,N0060724,Fox Hill,Bath,,,,,,0,U,375265,162585,-2.35667,51.36179,BCT,MKD,OTH,,,,1,2013-03-11T16:46:18,2013-03-11T16:46:18,,new,act
0180BAC30116,bthjtda,,,Queen's Drive,en,,,,,Fox Hill,en,,,N-Bound,en,N,N0060724,Fox Hill,Bath,,,,,,0,U,375277,162749,-2.35651,51.36326,BCT,MKD,OTH,,,,1,2013-03-11T16:46:18,2013-03-11T16:46:18,,new,act
0180BAC30117,bthjpjp,,,Meare Road,en,,,,,Queen's Drive,en,,,W-Bound,en,W,N0060724,Fox Hill,Bath,,,,,,0,U,375155,162783,-2.35826,51.36356,BCT,MKD,OTH,,,,1,2013-03-11T16:46:18,2013-03-11T16:46:18,,new,act
0180BAC30118,bthjpat,,,Kewstoke Road,en,,,,,Queen's Drive,en,,,S-Bound,en,S,N0060724,Fox Hill,Bath,,,,,,0,U,375072,162596,-2.35944,51.36188,BCT,MKD,OTH,,,,1,2013-03-11T16:46:18,2013-03-11T16:46:18,,new,act
0180BAC30119,bthjpdg,,,Quantocks,en,,,,,Hawthorn Grove,en,,,E-Bound,en,E,N0060724,Fox Hill,Bath,,,,,,0,U,375104,162416,-2.35897,51.36026,BCT,MKD,OTH,,,,1,2013-03-11T16:46:18,2013-03-11T16:46:18,,new,act
0180BAC30120,bthjpwj,,,Foxhill House,en,,,,,Bradford Road,en,,,W-Bound,en,W,N0060724,Fox Hill,Bath,,,,,,0,U,375219,162294,-2.35731,51.35917,BCT,MKD,OTH,,,,1,2013-03-11T16:46:18,2013-03-11T16:46:18,,new,act
0180BAC30121,bthjpaw,,,Bradford Road Shops,en,,,,,Bradford Road,en,,,E-Bound,en,E,N0060724,Fox Hill,Bath,,,,,,0,U,375079,162278,-2.35932,51.35902,BCT,MKD,OTH,,,,1,2013-03-11T16:46:18,2013-03-11T16:46:18,,new,act
0180BAC30122,bthjpap,,,Bradford Road Shops,en,,,,,Bradford Road,en,,,W-Bound,en,W,N0060724,Fox Hill,Bath,,,,,,0,U,375075,162265,-2.35937,51.3589,BCT,MKD,OTH,,,,1,2013-03-11T16:46:18,2013-03-11T16:46:18,,new,act
0180BAC30123,bthjmpd,,,Entry Hill,en,,,,,Bradford Road,en,,,W-Bound,en,W,N0060724,Fox Hill,Bath,,,,,,0,U,374827,162208,-2.36293,51.35838,BCT,MKD,OTH,,,,1,2013-03-11T16:46:18,2013-03-11T16:46:18,,new,act
0180BAC30124,bthjmjd,,,Bradford Road,en,,,,,Southstoke Road,en,,,N-Bound,en,N,N0060724,Fox Hill,Bath,,,,,,0,U,374786,162161,-2.36352,51.35795,BCT,MKD,OTH,,,,1,2013-03-11T16:46:18,2013-03-11T16:46:18,,new,act
0180BAC30125,bthjmjm,,,Cross Keys,en,,,,,Southstoke Road,en,,,N-Bound,en,N,E0035066,Odd Down,Bath,,,,,,0,U,374790,161912,-2.36344,51.35571,BCT,MKD,OTH,,,,1,2013-03-11T16:46:14,2013-03-11T16:46:14,,new,act
0180BAC30126,bthjmgd,,,Cross Keys,en,,,,,Southstoke Road,en,,,NW-Bound,en,NW,E0035066,Odd Down,Bath,,,,,,0,U,374752,161868,-2.36398,51.35532,BCT,MKD,OTH,,,,1,2013-03-11T16:46:14,2013-03-11T16:46:14,,new,act
0180BAC30127,bthjgpd,,,Glasshouse,en,,,,,Bradford Road,en,,,NE-Bound,en,NE,E0035066,Odd Down,Bath,,,,,,0,U,374510,162087,-2.36747,51.35727,BCT,MKD,OTH,,,,1,2013-03-11T16:46:18,2013-03-11T16:46:18,,new,act
0180BAC30128,bthjmdw,,,Entry Hill,en,,,,,Bradford Road,en,,,E-Bound,en,E,N0060724,Fox Hill,Bath,,,,,,0,U,374735,162188,-2.36425,51.35819,BCT,MKD,OTH,,,,1,2013-03-11T16:46:18,2013-03-11T16:46:18,,new,act
0180BAC30131,bthjdwg,,,Sainsbury's,en,,,,,Frome Road,en,,,SE-Bound,en,SE,E0035066,Odd Down,Bath,,,,,,0,U,374230,162060,-2.37149,51.35702,BCT,MKD,OTH,,,,1,2013-03-11T16:46:18,2013-03-11T16:46:18,,new,act
0180BAC30132,bthjdjd,,,Fosseway School,en,,,,,Frome Road,en,,,SE-Bound,en,SE,E0035066,Odd Down,Bath,,,,,,0,U,373997,162183,-2.37485,51.35811,BCT,MKD,OTH,,,,1,2013-03-11T16:46:15,2013-03-11T16:46:15,,new,act
0180BAC30133,bthjgdm,,,Glasshouse,en,,,,,Midford Road,en,,,NW-Bound,en,NW,E0035066,Odd Down,Bath,,,,,,0,U,374390,162104,-2.3692,51.35742,BCT,MKD,OTH,,,,1,2013-03-11T16:46:18,2013-03-11T16:46:18,,new,act
0180BAC30134,bthjgjd,,,Glasshouse,en,,,,,Midford Road,en,,,SE-Bound,en,SE,E0035066,Odd Down,Bath,,,,,,0,U,374395,162117,-2.36913,51.35754,BCT,MKD,OTH,,,,1,2013-03-11T16:46:18,2013-03-11T16:46:18,,new,act
0180BAC30135,bthjdwt,,,St Martins Hospital,en,,,,,Midford Road,en,,,NW-Bound,en,NW,E0035066,Odd Down,Bath,,,,,,0,U,374264,162222,-2.37102,51.35848,BCT,MKD,OTH,,,,1,2013-03-11T16:46:18,2013-03-11T16:46:18,,new,act
0180BAC30136,bthjdwj,,,St Martins Hospital,en,,,,,Midford Road,en,,,SE-Bound,en,SE,E0035066,Odd Down,Bath,,,,,,0,U,374222,162271,-2.37162,51.35892,BCT,MKD,OTH,,,,1,2013-03-11T16:46:18,2013-03-11T16:46:18,,new,act
0180BAC30137,bthjdtj,,,Odd Down Corner,en,,,,,Midford Road,en,,,N-Bound,en,N,E0035066,Odd Down,Bath,,,,,,0,U,374142,162366,-2.37278,51.35977,BCT,MKD,OTH,,,,1,2013-03-11T16:46:18,2013-03-11T16:46:18,,new,act
0180BAC30138,bthjdpg,,,Midford Road,en,,,,,Wellsway,en,,,SW-Bound,en,SW,E0035066,Odd Down,Bath,,,,,,0,U,374102,162353,-2.37335,51.35965,BCT,MKD,OTH,,,,1,2013-03-11T16:46:18,2013-03-11T16:46:18,,new,act
0180BAC30139,bthjdwa,,,Odd Down Corner,en,,,,,Wellsway,en,,,SW-Bound,en,SW,E0035066,Odd Down,Bath,,,,,,0,U,374185,162448,-2.37217,51.36051,BCT,MKD,OTH,,,,1,2013-03-11T16:46:18,2013-03-11T16:46:18,,new,act
0180BAC30140,bthjgmd,,,Wayside,en,,,,,Wellsway,en,,,NE-Bound,en,NE,N0078121,Bloomfield,Bath,,,,,,0,U,374348,162695,-2.36985,51.36273,BCT,MKD,OTH,,,,1,2013-03-11T16:46:17,2013-03-11T16:46:17,,new,act
0180BAC30141,bthjgmt,,,Wayside,en,,,,,Wellsway,en,,,SW-Bound,en,SW,N0078121,Bloomfield,Bath,,,,,,0,U,374439,162776,-2.36854,51.36347,BCT,MKD,OTH,,,,1,2013-03-11T16:46:17,2013-03-11T16:46:17,,new,act
0180BAC30142,bthjgpw,,,Wellsway,en,,,,,Wellsway,en,,,NE-Bound,en,NE,N0078121,Bloomfield,Bath,,,,,,0,U,374562,163004,-2.36679,51.36552,BCT,MKD,OTH,,,,1,2013-03-11T16:46:17,2013-03-11T16:46:17,,new,act
0180BAC30143,bthjgwg,,,Wellsway,en,,,,,Wellsway,en,,,S-Bound,en,S,N0078121,Bloomfield,Bath,,,,,,0,U,374603,163080,-2.36621,51.36621,BCT,MKD,OTH,,,,1,2013-03-11T16:46:17,2013-03-11T16:46:17,,new,act
0180BAC30144,bthjmag,,,Devonshire Bldgs,en,,,,,Wellsway,en,,,N-Bound,en,N,N0078121,Bloomfield,Bath,,,,,,0,U,374617,163476,-2.36604,51.36977,BCT,MKD,OTH,,,,1,2013-03-11T16:46:17,2013-03-11T16:46:17,,new,act
0180BAC30145,bthjmam,,,Devonshire Bldgs,en,,,,,Wellsway,en,,,S-Bound,en,S,N0078121,Bloomfield,Bath,,,,,,0,U,374629,163448,-2.36586,51.36952,BCT,MKD,OTH,,,,1,2013-03-11T16:46:17,2013-03-11T16:46:17,,new,act
0180BAC30146,bthjgtp,,,Kipling Avenue,en,,,,,Wellsway,en,,,N-Bound,en,N,N0078122,Bear Flat,Bath,,,,,,0,U,374589,163756,-2.36646,51.37229,BCT,MKD,OTH,,,,1,2013-03-11T16:46:17,2013-03-11T16:46:17,,new,act
0180BAC30147,bthjgtg,,,Bear Flat,en,,,,,Wellsway,en,,,stop A,en,N,N0078122,Bear Flat,Bath,,,,,,0,U,374578,163943,-2.36663,51.37397,BCT,MKD,OTH,,,,1,2013-03-11T16:46:17,2013-03-11T16:46:17,,new,act
0180BAC30148,bthjgjp,,,Oldfield Road,en,,,,,Wells Road,en,,,N-Bound,en,N,E0035068,Oldfield Park,Bath,,,,,,0,U,374431,164090,-2.36875,51.37528,BCT,MKD,OTH,,,,1,2013-03-11T16:46:17,2013-03-11T16:46:17,,new,act
0180BAC30149,bthjgma,,,Oldfield Road,en,,,,,Wells Road,en,,,S-Bound,en,S,E0035068,Oldfield Park,Bath,,,,,,0,U,374438,164064,-2.36865,51.37505,BCT,MKD,OTH,,,,1,2013-03-11T16:46:17,2013-03-11T16:46:17,,new,act
0180BAC30150,bthjmdp,,,St Mary's Buildings,en,,,,,Wells Road,en,,,E-Bound,en,E,E0035068,Oldfield Park,Bath,,,,,,0,U,374714,164302,-2.3647,51.3772,BCT,MKD,OTH,,,,1,2013-03-11T16:46:17,2013-03-11T16:46:17,,new,act
0180BAC30151,bthjmaw,,,St Mary's Buildings,en,,,,,Wells Road,en,,,W-Bound,en,W,E0035068,Oldfield Park,Bath,,,,,,0,U,374652,164279,-2.36559,51.37699,BCT,MKD,OTH,,,,1,2013-03-11T16:46:17,2013-03-11T16:46:17,,new,act
0180BAC30152,bthjgwa,,,Bear Flat,en,,,,,Wellsway,en,,,stop B,en,S,N0078122,Bear Flat,Bath,,,,,,0,U,374595,163898,-2.36638,51.37356,BCT,MKD,OTH,,,,1,2013-03-11T16:46:17,2013-03-11T16:46:17,,new,act
0180BAC30153,bthjgwd,,,Bear Flat,en,,,,,Wellsway,en,,,stop C,en,S,N0078122,Bear Flat,Bath,,,,,,0,U,374599,163855,-2.36632,51.37318,BCT,MKD,OTH,,,,1,2013-03-11T16:46:17,2013-03-11T16:46:17,,new,act
0180BAC30155,bthjgtd,,,Bloomfield Road Bottom,en,,,,,Bloomfield Road,en,,,N-Bound,en,N,N0078122,Bear Flat,Bath,,,,,,0,U,374580,163792,-2.36659,51.37261,BCT,MKD,OTH,,,,1,2013-03-11T16:46:17,2013-03-11T16:46:17,,new,act
0180BAC30156,bthjgpj,,,St Lukes Church,en,,,,,Bloomfield Road,en,,,S-Bound,en,S,N0078121,Bloomfield,Bath,,,,,,0,U,374523,163445,-2.36739,51.36949,BCT,MKD,OTH,,,,1,2013-03-11T16:46:17,2013-03-11T16:46:17,,new,act
0180BAC30157,bthjgpg,,,St Lukes Church,en,,,,,Bloomfield Road,en,,,N-Bound,en,N,N0078121,Bloomfield,Bath,,,,,,0,U,374514,163446,-2.36751,51.36949,BCT,MKD,OTH,,,,1,2013-03-11T16:46:17,2013-03-11T16:46:17,,new,act
0180BAC30158,bthjgjm,,,Hatfield Road,en,,,,,Bloomfield Road,en,,,SW-Bound,en,SW,N0078121,Bloomfield,Bath,,,,,,0,U,374414,163234,-2.36894,51.36758,BCT,MKD,OTH,,,,1,2013-03-11T16:46:17,2013-03-11T16:46:17,,new,act
0180BAC30159,bthjgmg,,,Hatfield Road,en,,,,,Bloomfield Road,en,,,NE-Bound,en,NE,N0078121,Bloomfield,Bath,,,,,,0,U,374454,163305,-2.36837,51.36822,BCT,MKD,OTH,,,,1,2013-03-11T16:46:17,2013-03-11T16:46:17,,new,act
0180BAC30160,bthjdmw,,,Bloomfield Road,en,,,,,Bloomfield Road,en,,,o/s 227,en,W,N0078121,Bloomfield,Bath,,,,,,0,U,374100,162983,-2.37343,51.36531,BCT,CUS,OTH,,,,1,2013-03-11T16:46:17,2013-03-11T16:46:17,,new,act
0180BAC30161,bthjdmt,,,Bloomfield Road,en,,,,,Bloomfield Road,en,,,o/s 228,en,E,N0078121,Bloomfield,Bath,,,,,,0,U,374098,162994,-2.37346,51.36541,BCT,MKD,OTH,,,,1,2013-03-11T16:46:17,2013-03-11T16:46:17,,new,act
0180BAC30162,bthjdap,,,Bloomfield Crescent,en,,,,,Bloomfield Road,en,,,NE-Bound,en,NE,E0035066,Odd Down,Bath,,,,,,0,U,373890,162898,-2.37644,51.36454,BCT,MKD,OTH,,,,1,2013-03-11T16:46:18,2013-03-11T16:46:18,,new,act
0180BAC30163,bthjawd,,,Old Quarry,en,,,,,Bloomfield Drive,en,,,W-Bound,en,W,E0035066,Odd Down,Bath,,,,,,0,U,373826,162872,-2.37736,51.3643,BCT,MKD,OTH,,,,1,2013-03-11T16:46:18,2013-03-11T16:46:18,,new,act
0180BAC30164,bthjagm,,,Bloomfield Rise North,en,,,,,Bloomfield Drive,en,,,W-Bound,en,W,E0035066,Odd Down,Bath,,,,,,0,U,373640,162828,-2.38001,51.3639,BCT,MKD,OTH,,,,1,2013-03-11T16:46:18,2013-03-11T16:46:18,,new,act
0180BAC30165,bthjadw,,,Bloomfield Rise North,en,,,,,Bloomfield Drive,en,,,E-Bound,en,E,E0035066,Odd Down,Bath,,,,,,0,U,373595,162825,-2.38066,51.36387,BCT,MKD,OTH,,,,1,2013-03-11T16:46:18,2013-03-11T16:46:18,,new,act
0180BAC30167,bthdwpg,,,Frome Road,en,,,,,Bloomfield Drive,en,,,N-Bound,en,N,E0035066,Odd Down,Bath,,,,,,0,U,373457,162603,-2.38262,51.36187,BCT,MKD,OTH,,,,1,2013-03-11T16:46:18,2013-03-11T16:46:18,,new,act
0180BAC30168,bthdwpt,,,Frome Road,en,,,,,Bloomfield Drive,en,,,S-Bound,en,S,E0035066,Odd Down,Bath,,,,,,0,U,373463,162591,-2.38253,51.36176,BCT,MKD,OTH,,,,1,2013-03-11T16:46:18,2013-03-11T16:46:18,,new,act
0180BAC30169,bthjawt,,,Bloomfield Drive,en,,,,,Bloomfield Road,en,,,S-Bound,en,S,E0035066,Odd Down,Bath,,,,,,0,U,373851,162803,-2.37699,51.36368,BCT,MKD,OTH,,,,1,2013-03-11T16:46:18,2013-03-11T16:46:18,,new,act
0180BAC30170,bthjatp,,,Somerdale Avenue,en,,,,,Bloomfield Road,en,,,S-Bound,en,S,E0035066,Odd Down,Bath,,,,,,0,U,373807,162644,-2.37761,51.36225,BCT,MKD,OTH,,,,1,2013-03-11T16:46:18,2013-03-11T16:46:18,,new,act
0180BAC30171,bthjapt,,,Somerdale Avenue,en,,,,,Bloomfield Road,en,,,N-Bound,en,N,E0035066,Odd Down,Bath,,,,,,0,U,373786,162605,-2.37791,51.3619,BCT,MKD,OTH,,,,1,2013-03-11T16:46:18,2013-03-11T16:46:18,,new,act
0180BAC30172,bthjamw,,,Noads Corner,en,,,,,Bloomfield Road,en,,,N-Bound,en,N,E0035066,Odd Down,Bath,,,,,,0,U,373729,162447,-2.37872,51.36048,BCT,MKD,OTH,,,,1,2013-03-11T16:46:17,2013-03-11T16:46:17,,new,act
0180BAC30173,bthjamt,,,Noads Corner,en,,,,,Bloomfield Road,en,,,S-Bound,en,S,E0035066,Odd Down,Bath,,,,,,0,U,373731,162427,-2.37869,51.3603,BCT,MKD,OTH,,,,1,2013-03-11T16:46:18,2013-03-11T16:46:18,,new,act
0180BAC30174,bthjatw,,,Frome Road,en,,,,,Frome Road,en,,,o/s 67,en,NW,E0035066,Odd Down,Bath,,,,,,0,U,373790,162343,-2.37783,51.35954,BCT,MKD,OTH,,,,1,2013-03-11T16:46:17,2013-03-11T16:46:17,,new,act
0180BAC30176,bthjdat,,,Red Lion,en,,,,,Frome Road,en,,,SE-Bound,en,SE,E0035066,Odd Down,Bath,,,,,,0,U,373902,162262,-2.37622,51.35882,BCT,MKD,OTH,,,,1,2013-03-11T16:46:17,2013-03-11T16:46:17,,new,act
0180BAC30177,bthjdam,,,Red Lion,en,,,,,Wellsway,en,,,NW-Bound,en,NW,E0035066,Odd Down,Bath,,,,,,0,U,373882,162264,-2.37651,51.35884,BCT,MKD,OTH,,,,1,2013-03-11T16:46:17,2013-03-11T16:46:17,,new,act
0180BAC30178,bthjdmg,,,Midford Road,en,,,,,Wellsway,en,,,NE-Bound,en,NE,E0035066,Odd Down,Bath,,,,,,0,U,374082,162355,-2.37364,51.35967,BCT,MKD,OTH,,,,1,2013-03-11T16:46:18,2013-03-11T16:46:18,,new,act
0180BAC30179,bthjapa,,,Oolite Grove,en,,,,,Wellsway,en,,,NE-Bound,en,NE,E0035066,Odd Down,Bath,,,,,,0,U,373737,162072,-2.37857,51.3571,BCT,MKD,OTH,,,,1,2013-03-11T16:46:18,2013-03-11T16:46:18,,new,act
0180BAC30180,bthjajt,,,Oolite Grove,en,,,,,Wellsway,en,,,SW-Bound,en,SW,E0035066,Odd Down,Bath,,,,,,0,U,373711,162027,-2.37894,51.3567,BCT,MKD,OTH,,,,1,2013-03-11T16:46:18,2013-03-11T16:46:18,,new,act
0180BAC30181,bthjdaj,,,Banwell Road,en,,,,,Banwell Road,en,,,o/s 33,en,E,E0035066,Odd Down,Bath,,,,,,0,U,373882,161903,-2.37648,51.35559,BCT,MKD,OTH,,,,1,2013-03-11T16:46:18,2013-03-11T16:46:18,,new,act
0180BAC30182,bthjdjm,,,Lympsham Green,en,,,,,Cranmore Place,en,,,SE-Bound,en,SE,E0035066,Odd Down,Bath,,,,,,0,U,373993,161961,-2.37489,51.35612,BCT,MKD,OTH,,,,1,2013-03-11T16:46:18,2013-03-11T16:46:18,,new,act
0180BAC30183,bthjdmd,,,Cranmore Place,en,,,,,Cranmore Place,en,,,o/s 70,en,W,E0035066,Odd Down,Bath,,,,,,0,U,374026,161837,-2.37441,51.355,BCT,MKD,OTH,,,,1,2013-03-11T16:46:18,2013-03-11T16:46:18,,new,act
0180BAC30185,bthjamp,,,Abingdon Place,en,,,,,Banwell Road,en,,,NW-Bound,en,NW,E0035066,Odd Down,Bath,,,,,,0,U,373731,161919,-2.37865,51.35573,BCT,MKD,OTH,,,,1,2013-03-11T16:46:18,2013-03-11T16:46:18,,new,act
0180BAC30186,bthjmgm,,,Hawthorn Grove,en,,,,,Entry Hill,en,,,S-Bound,en,S,N0060724,Fox Hill,Bath,,,,,,0,U,374762,162333,-2.36387,51.3595,BCT,MKD,OTH,,,,1,2013-03-11T16:46:18,2013-03-11T16:46:18,,new,act
0180BAC30187,bthdwtg,,,Mendip Gardens,en,,,,,Wellsway,en,,,NE-Bound,en,NE,E0035066,Odd Down,Bath,,,,,,0,U,373490,161836,-2.38209,51.35497,BCT,MKD,OTH,,,,1,2013-03-11T16:46:18,2013-03-11T16:46:18,,new,act
0180BAC30188,bthdwtm,,,Mendip Gardens,en,,,,,Wellsway,en,,,SW-Bound,en,SW,E0035066,Odd Down,Bath,,,,,,0,U,373546,161882,-2.38129,51.35539,BCT,MKD,OTH,,,,1,2013-03-11T16:46:18,2013-03-11T16:46:18,,new,act
0180BAC30189,bthdwpj,,,Combe Hay Lane,en,,,,,Roman Road,en,,,SW-Bound,en,SW,E0035066,Odd Down,Bath,,,,,,0,U,373439,161756,-2.38282,51.35425,BCT,MKD,OTH,,,,1,2013-03-11T16:46:18,2013-03-11T16:46:18,,new,act
0180BAC30190,bthdwtj,,,Wansdyke Inn,en,,,,,Upper Bloomfield Road,en,,,NE-Bound,en,NE,E0035066,Odd Down,Bath,,,,,,0,U,373496,162033,-2.38202,51.35674,BCT,MKD,OTH,,,,1,2013-03-11T16:46:18,2013-03-11T16:46:18,,new,act
0180BAC30191,bthjagp,,,Noads Corner,en,,,,,Upper Bloomfield Road,en,,,NE-Bound,en,NE,E0035066,Odd Down,Bath,,,,,,0,U,373644,162292,-2.37991,51.35908,BCT,MKD,OTH,,,,1,2013-03-11T16:46:17,2013-03-11T16:46:17,,new,act
0180BAC30192,bthjagt,,,Noads Corner,en,,,,,Frome Road,en,,,NW-Bound,en,NW,E0035066,Odd Down,Bath,,,,,,0,U,373651,162433,-2.37982,51.36035,BCT,MKD,OTH,,,,1,2013-03-11T16:46:17,2013-03-11T16:46:17,,new,act
0180BAC30193,bthjagw,,,Noads Corner,en,,,,,Frome Road,en,,,SE-Bound,en,SE,E0035066,Odd Down,Bath,,,,,,0,U,373653,162445,-2.37979,51.36045,BCT,CUS,OTH,,,,1,2013-03-11T16:46:17,2013-03-11T16:46:17,,new,act
0180BAC30194,bthjadg,,,Barrow Road,en,,,,,Frome Road,en,,,SE-Bound,en,SE,E0035066,Odd Down,Bath,,,,,,0,U,373526,162529,-2.38162,51.3612,BCT,MKD,OTH,,,,1,2013-03-11T16:46:18,2013-03-11T16:46:18,,new,act
0180BAC30195,bthdwma,,,Barrow Road,en,,,,,Frome Road,en,,,W-Bound,en,W,E0035066,Odd Down,Bath,,,,,,0,U,373427,162566,-2.38305,51.36153,BCT,MKD,OTH,,,,1,2013-03-11T16:46:18,2013-03-11T16:46:18,,new,act
0180BAC30196,bthdwdw,,,Somerdale View,en,,,,,Rush Hill,en,,,NW-Bound,en,NW,E0035093,Rush Hill,Bath,,,,,,0,U,373275,162641,-2.38524,51.3622,BCT,MKD,OTH,,,,1,2013-03-11T16:46:18,2013-03-11T16:46:18,,new,act
0180BAC30197,bthdwdp,,,Somerdale View,en,,,,,Rush Hill,en,,,SE-Bound,en,SE,E0035093,Rush Hill,Bath,,,,,,0,U,373232,162678,-2.38586,51.36253,BCT,MKD,OTH,,,,1,2013-03-11T16:46:18,2013-03-11T16:46:18,,new,act
0180BAC30198,bthdpwp,,,Culverhay School,en,,,,,,,,,NW-Bound,en,NW,E0035093,Rush Hill,Bath,,,,,,0,U,372806,162892,-2.39199,51.36443,BCT,MKD,OTH,,,,1,2013-03-11T16:46:18,2013-03-11T16:46:18,,new,act
0180BAC30199,bthdpwj,,,Culverhay School,en,,,,,Rush Hill,en,,,E-Bound,en,E,E0035093,Rush Hill,Bath,,,,,,0,U,372809,162906,-2.39195,51.36456,BCT,MKD,OTH,,,,1,2013-03-11T16:46:18,2013-03-11T16:46:18,,new,act
0180BAC30200,bthdptw,,,Padleigh Turn,en,,,,,Englishcombe Lane,en,,,NE-Bound,en,NE,N0060723,Kingsway,Bath,,,,,,0,U,372749,163087,-2.39283,51.36618,BCT,MKD,OTH,,,,1,2013-03-11T16:46:18,2013-03-11T16:46:18,,new,act
0180BAC30201,bthdpta,,,Padleigh Turn,en,,,,,Englishcombe Lane,en,,,SW-Bound,en,SW,N0060723,Kingsway,Bath,,,,,,0,U,372686,163040,-2.39373,51.36576,BCT,MKD,OTH,,,,1,2013-03-11T16:46:18,2013-03-11T16:46:18,,new,act
0180BAC30202,bthdtdp,,,Southdown Road,en,,,,,Englishcombe Lane,en,,,NE-Bound,en,NE,E0035105,Southdown,Bath,,,,,,0,U,372913,163194,-2.39048,51.36715,BCT,MKD,OTH,,,,1,2013-03-11T16:46:18,2013-03-11T16:46:18,,new,act
0180BAC30203,bthdtpj,,,Kingsway Post Office,en,,,,,Englishcombe Lane,en,,,SW-Bound,en,SW,N0060723,Kingsway,Bath,,,,,,0,U,373085,163254,-2.38801,51.3677,BCT,MKD,OTH,,,,1,2013-03-11T16:46:18,2013-03-11T16:46:18,,new,act
0180BAC30204,bthdwjt,,,Stirtingale Road Botttom,en,,,,,Stirtingale Road,en,,,N-Bound,en,N,N0060723,Kingsway,Bath,,,,,,0,U,373412,163300,-2.38332,51.36813,BCT,MKD,OTH,,,,1,2013-03-11T16:46:18,2013-03-11T16:46:18,,new,act
0180BAC30205,bthdwjw,,,Stirtingale Avenue,en,,,,,Stirtingale Road,en,,,S-Bound,en,S,N0060723,Kingsway,Bath,,,,,,0,U,373414,163258,-2.38329,51.36775,BCT,MKD,OTH,,,,1,2013-03-11T16:46:18,2013-03-11T16:46:18,,new,act
0180BAC30206,bthdwjd,,,Stirtingale Road,en,,,,,Stirtingale Road,en,,,W-Bound,en,W,N0060723,Kingsway,Bath,,,,,,0,U,373357,163175,-2.3841,51.367,BCT,MKD,OTH,,,,1,2013-03-11T16:46:18,2013-03-11T16:46:18,,new,act
0180BAC30207,bthdwdt,,,Ambleside Road,en,,,,,Stirtingale Road,en,,,W-Bound,en,W,N0060723,Kingsway,Bath,,,,,,0,U,373247,163139,-2.38568,51.36668,BCT,MKD,OTH,,,,1,2013-03-11T16:46:18,2013-03-11T16:46:18,,new,act
0180BAC30208,bthdwda,,,Ambleside Road,en,,,,,Stirtingale Road,en,,,E-Bound,en,E,N0060723,Kingsway,Bath,,,,,,0,U,373215,163136,-2.38614,51.36665,BCT,MKD,OTH,,,,1,2013-03-11T16:46:18,2013-03-11T16:46:18,,new,act
0180BAC30209,bthdtpm,,,Georgian View,en,,,,,Ambleside Road,en,,,N-Bound,en,N,N0060723,Kingsway,Bath,,,,,,0,U,373122,163074,-2.38747,51.36609,BCT,MKD,OTH,,,,1,2013-03-11T16:46:18,2013-03-11T16:46:18,,new,act
0180BAC30210,bthdtwd,,,Georgian View,en,,,,,Ambleside Road,en,,,S-Bound,en,S,N0060723,Kingsway,Bath,,,,,,0,U,373130,163067,-2.38735,51.36602,BCT,CUS,OTH,,,,1,2013-03-11T16:46:18,2013-03-11T16:46:18,,new,act
0180BAC30211,bthdtpt,,,Edgeworth Road,en,,,,,Ambleside Road,en,,,W-Bound,en,W,N0060723,Kingsway,Bath,,,,,,0,U,373120,162908,-2.38748,51.36459,BCT,MKD,OTH,,,,1,2013-03-11T16:46:18,2013-03-11T16:46:18,,new,act
0180BAC30212,bthdtjp,,,Ambleside Road,en,,,,,Ambleside Road,en,,,NW-Bound,en,NW,N0060723,Kingsway,Bath,,,,,,0,U,373012,162941,-2.38904,51.36488,BCT,MKD,OTH,,,,1,2013-03-11T16:46:18,2013-03-11T16:46:18,,new,act
0180BAC30213,bthdtjg,,,Marsden Road,en,,,,,Georgian View,en,,,SE-Bound,en,SE,N0060723,Kingsway,Bath,,,,,,0,U,373006,163040,-2.38913,51.36577,BCT,MKD,OTH,,,,1,2013-03-11T16:46:18,2013-03-11T16:46:18,,new,act
0180BAC30214,bthdwmt,,,Englishcombe Lane,en,,,,,Oak Avenue,en,,,N-Bound,en,N,E0035125,The Oval,Bath,,,,,,0,U,373431,163387,-2.38305,51.36891,BCT,MKD,OTH,,,,1,2013-03-11T16:46:18,2013-03-11T16:46:18,,new,act
0180BAC30215,bthdwmw,,,Englishcombe Lane,en,,,,,Oak Avenue,en,,,S-Bound,en,S,E0035125,The Oval,Bath,,,,,,0,U,373439,163387,-2.38294,51.36891,BCT,CUS,OTH,,,,1,2013-03-11T16:46:18,2013-03-11T16:46:18,,new,act
0180BAC30216,bthjada,,,Cedar Grove,en,,,,,The Oval,en,,,E-Bound,en,E,E0035125,The Oval,Bath,,,,,,0,U,373517,163457,-2.38182,51.36955,BCT,MKD,OTH,,,,1,2013-03-11T16:46:18,2013-03-11T16:46:18,,new,act
0180BAC30217,bthdwtw,,,Cedar Grove,en,,,,,The Oval,en,,,W-Bound,en,W,E0035125,The Oval,Bath,,,,,,0,U,373516,163448,-2.38184,51.36947,BCT,CUS,OTH,,,,1,2013-03-11T16:46:18,2013-03-11T16:46:18,,new,act
0180BAC30218,bthjagj,,,Moorfields Road top,en,,,,,Moorfields Road,en,,,E-Bound,en,E,E0035125,The Oval,Bath,,,,,,0,U,373611,163517,-2.38048,51.37009,BCT,MKD,OTH,,,,1,2013-03-11T16:46:18,2013-03-11T16:46:18,,new,act
0180BAC30219,bthjagd,,,Moorfields Road top,en,,,,,Moorfields Road,en,,,W-Bound,en,W,E0035125,The Oval,Bath,,,,,,0,U,373610,163508,-2.38049,51.37001,BCT,CUS,OTH,,,,1,2013-03-11T16:46:18,2013-03-11T16:46:18,,new,act
0180BAC30220,bthjamg,,,Pitman House,en,,,,,Moorfields Road,en,,,W-Bound,en,W,E0035053,Moorlands,Bath,,,,,,0,U,373720,163529,-2.37893,51.3702,BCT,MKD,OTH,,,,1,2013-03-11T16:46:18,2013-03-11T16:46:18,,new,act
0180BAC30221,bthjama,,,Pitman House,en,,,,,Moorfields Road,en,,,E-Bound,en,E,E0035053,Moorlands,Bath,,,,,,0,U,373715,163537,-2.379,51.37028,BCT,MKD,OTH,,,,1,2013-03-11T16:46:18,2013-03-11T16:46:18,,new,act
0180BAC30222,bthjdgd,,,Moorlands School,en,,,,,Moorfields Road,en,,,E-Bound,en,E,E0035053,Moorlands,Bath,,,,,,0,U,373924,163567,-2.376,51.37056,BCT,MKD,OTH,,,,1,2013-03-11T16:46:18,2013-03-11T16:46:18,,new,act
0180BAC30223,bthjdga,,,Moorlands School,en,,,,,Moorfields Road,en,,,W-Bound,en,W,E0035053,Moorlands,Bath,,,,,,0,U,373903,163559,-2.3763,51.37048,BCT,MKD,OTH,,,,1,2013-03-11T16:46:18,2013-03-11T16:46:18,,new,act
0180BAC30224,bthjdtw,,,Chantry Mead Road,en,,,,,Chantry Mead Road,en,,,SW-Bound,en,SW,E0035053,Moorlands,Bath,,,,,,0,U,374186,163516,-2.37223,51.37011,BCT,MKD,OTH,,,,1,2013-03-11T16:46:18,2013-03-11T16:46:18,,new,act
0180BAC30225,bthjdtp,,,Chantry Mead Road,en,,,,,Chantry Mead Road,en,,,NE-Bound,en,NE,E0035053,Moorlands,Bath,,,,,,0,U,374173,163511,-2.37242,51.37006,BCT,CUS,OTH,,,,1,2013-03-11T16:46:18,2013-03-11T16:46:18,,new,act
0180BAC30226,bthjdwd,,,Cotswold Road Top,en,,,,,Cotswold Road,en,,,SE-Bound,en,SE,E0035053,Moorlands,Bath,,,,,,0,U,374188,163607,-2.37221,51.37093,BCT,MKD,OTH,,,,1,2013-03-11T16:46:18,2013-03-11T16:46:18,,new,act
0180BAC30227,bthjdjt,,,Willow Green,en,,,,,Hillside Road,en,,,W-Bound,en,W,E0035053,Moorlands,Bath,,,,,,0,U,374006,163648,-2.37483,51.37129,BCT,MKD,OTH,,,,1,2013-03-11T16:46:18,2013-03-11T16:46:18,,new,act
0180BAC30228,bthjdjw,,,Willow Green,en,,,,,Hillside Road,en,,,E-Bound,en,E,E0035053,Moorlands,Bath,,,,,,0,U,374007,163658,-2.37481,51.37138,BCT,MKD,OTH,,,,1,2013-03-11T16:46:18,2013-03-11T16:46:18,,new,act
0180BAC30229,bthjapm,,,Hillside Hall,en,,,,,Hillside Road,en,,,NW-Bound,en,NW,E0035053,Moorlands,Bath,,,,,,0,U,373756,163826,-2.37843,51.37288,BCT,MKD,OTH,,,,1,2013-03-11T16:46:18,2013-03-11T16:46:18,,new,act
0180BAC30230,bthjapw,,,Hillside Hall,en,,,,,Hillside Road,en,,,SE-Bound,en,SE,E0035053,Moorlands,Bath,,,,,,0,U,373773,163828,-2.37819,51.3729,BCT,MKD,OTH,,,,1,2013-03-11T16:46:18,2013-03-11T16:46:18,,new,act
0180BAC30231,bthjatd,,,Beckhampton Road,en,,,,,Beckhampton Road,en,,,N-Bound,en,N,E0035068,Oldfield Park,Bath,,,,,,0,U,373787,164073,-2.378,51.3751,BCT,MKD,OTH,,,,1,2013-03-11T16:46:18,2013-03-11T16:46:18,,new,act
0180BAC30233,bthjatm,,,Beckhampton Road,en,,,,,Beckhampton Road,en,,,S-Bound,en,S,E0035068,Oldfield Park,Bath,,,,,,0,U,373806,164107,-2.37773,51.37541,BCT,MKD,OTH,,,,1,2013-03-11T16:46:18,2013-03-11T16:46:18,,new,act
0180BAC30234,bthjawp,,,Shaftesbury Road,en,,,,,Third Avenue,en,,,S-Bound,en,S,E0035068,Oldfield Park,Bath,,,,,,0,U,373846,164229,-2.37717,51.3765,BCT,MKD,OTH,,,,1,2013-03-11T16:46:18,2013-03-11T16:46:18,,new,act
0180BAC30235,bthjawj,,,Shaftesbury Road,en,,,,,Third Avenue,en,,,N-Bound,en,N,E0035068,Oldfield Park,Bath,,,,,,0,U,373835,164236,-2.37733,51.37657,BCT,MKD,OTH,,,,1,2013-03-11T16:46:18,2013-03-11T16:46:18,,new,act
0180BAC30236,bthjdgm,,,Second Avenue,en,,,,,King Edward Road,en,,,SE-Bound,en,SE,E0035068,Oldfield Park,Bath,,,,,,0,U,373946,164097,-2.37572,51.37532,BCT,MKD,OTH,,,,1,2013-03-11T16:46:18,2013-03-11T16:46:18,,new,act
0180BAC30237,bthjdgj,,,Second Avenue,en,,,,,King Edward Road,en,,,NW-Bound,en,NW,E0035068,Oldfield Park,Bath,,,,,,0,U,373927,164096,-2.376,51.37531,BCT,MKD,OTH,,,,1,2013-03-11T16:46:18,2013-03-11T16:46:18,,new,act
0180BAC30238,bthjdpw,,,St Catherines Nursing Home,en,,,,,Oldfield Road,en,,,E-Bound,en,E,E0035068,Oldfield Park,Bath,,,,,,0,U,374118,164046,-2.37325,51.37487,BCT,MKD,OTH,,,,1,2013-03-11T16:46:18,2013-03-11T16:46:18,,new,act
0180BAC30239,bthjdpd,,,St Catherines Nursing Home,en,,,,,Oldfield Road,en,,,W-Bound,en,W,E0035068,Oldfield Park,Bath,,,,,,0,U,374107,164040,-2.3734,51.37482,BCT,MKD,OTH,,,,1,2013-03-11T16:46:18,2013-03-11T16:46:18,,new,act
0180BAC30240,bthjgdg,,,Wells Road,en,,,,,Oldfield Road,en,,,E-Bound,en,E,E0035068,Oldfield Park,Bath,,,,,,0,U,374368,163998,-2.36965,51.37445,BCT,MKD,OTH,,,,1,2013-03-11T16:46:18,2013-03-11T16:46:18,,new,act
0180BAC30241,bthjgdp,,,Wells Road,en,,,,,Oldfield Road,en,,,W-Bound,en,W,E0035068,Oldfield Park,Bath,,,,,,0,U,374386,163985,-2.36939,51.37434,BCT,MKD,OTH,,,,1,2013-03-11T16:46:18,2013-03-11T16:46:18,,new,act
0180BAC30244,bthjgmw,,,Green Tree,en,,,,,Lower Bristol Road,en,,,E-Bound,en,E,E0035068,Oldfield Park,Bath,,,,,,0,U,374492,164480,-2.36791,51.37879,BCT,MKD,OTH,,,,1,2013-03-11T16:46:18,2013-03-11T16:46:18,,new,act
0180BAC30245,bthjgmp,,,Green Tree,en,,,,,Westmoreland Road,en,,,S-Bound,en,S,E0035068,Oldfield Park,Bath,,,,,,0,U,374444,164444,-2.36859,51.37847,BCT,MKD,OTH,,,,1,2013-03-11T16:46:18,2013-03-11T16:46:18,,new,act
0180BAC30246,bthjgaj,,,Hayesfield School,en,,,,,Lower Oldfield Park,en,,,W-Bound,en,W,E0035068,Oldfield Park,Bath,,,,,,0,U,374275,164298,-2.37101,51.37714,BCT,MKD,OTH,,,,1,2013-03-11T16:46:18,2013-03-11T16:46:18,,new,act
0180BAC30247,bthjgag,,,Hayesfield School,en,,,,,Lower Oldfield Park,en,,,E-Bound,en,E,E0035068,Oldfield Park,Bath,,,,,,0,U,374265,164309,-2.37115,51.37724,BCT,MKD,OTH,,,,1,2013-03-11T16:46:18,2013-03-11T16:46:18,,new,act
0180BAC30248,bthjdmj,,,Lower Oldfield Park,en,,,,,Lower Oldfield Park,en,,,W-Bound,en,W,E0035068,Oldfield Park,Bath,,,,,,0,U,374073,164352,-2.37392,51.37762,BCT,MKD,OTH,,,,1,2013-03-11T16:46:18,2013-03-11T16:46:18,,new,act
0180BAC30249,bthjdtd,,,Lower Oldfield Park,en,,,,,Lower Oldfield Park,en,,,E-Bound,en,E,E0035068,Oldfield Park,Bath,,,,,,0,U,374102,164353,-2.3735,51.37763,BCT,MKD,OTH,,,,1,2013-03-11T16:46:18,2013-03-11T16:46:18,,new,act
0180BAC30250,bthjdad,,,Livingstone Road,en,,,,,Livingstone Road,en,,,SW-Bound,en,SW,E0035068,Oldfield Park,Bath,,,,,,0,U,373861,164425,-2.37697,51.37827,BCT,MKD,OTH,,,,1,2013-03-11T16:46:18,2013-03-11T16:46:18,,new,act
0180BAC30251,bthjawm,,,Livingstone Road,en,,,,,Livingstone Road,en,,,NE-Bound,en,NE,E0035068,Oldfield Park,Bath,,,,,,0,U,373841,164417,-2.37725,51.37819,BCT,MKD,OTH,,,,1,2013-03-11T16:46:18,2013-03-11T16:46:18,,new,act
0180BAC30252,bthjapd,,,Moorland Road,en,,,,,Livingstone Road,en,,,NE-Bound,en,NE,E0035068,Oldfield Park,Bath,,,,,,0,U,373737,164332,-2.37874,51.37743,BCT,MKD,OTH,,,,1,2013-03-11T16:46:18,2013-03-11T16:46:18,,new,act
0180BAC30253,bthjamj,,,The Triangle North,en,,,,,Triangle North,en,,,E-Bound,en,E,E0035068,Oldfield Park,Bath,,,,,,0,U,373727,164478,-2.3789,51.37874,BCT,MKD,OTH,,,,1,2013-03-11T16:46:18,2013-03-11T16:46:18,,new,act
0180BAC30255,bthjadm,,,West Avenue,en,,,,,West Avenue,en,,,SW-Bound,en,SW,E0035068,Oldfield Park,Bath,,,,,,0,U,373539,164479,-2.38158,51.37874,BCT,MKD,OTH,,,,1,2013-03-11T16:46:18,2013-03-11T16:46:18,,new,act
0180BAC30256,bthdwmp,,,Millmead Road,en,,,,,Millmead Road,en,,,S-Bound,en,S,E0035068,Oldfield Park,Bath,,,,,,0,U,373428,164469,-2.38318,51.37864,BCT,MKD,OTH,,,,1,2013-03-11T16:46:18,2013-03-11T16:46:18,,new,act
0180BAC30257,bthdwmg,,,Millmead Road,en,,,,,Millmead Road,en,,,N-Bound,en,N,E0035068,Oldfield Park,Bath,,,,,,0,U,373421,164474,-2.38328,51.37869,BCT,CUS,OTH,,,,1,2013-03-11T16:46:18,2013-03-11T16:46:18,,new,act
0180BAC30258,bthdwgm,,,Dartmouth Avenue Bottom,en,,,,,Dartmouth Avenue,en,,,NE-Bound,en,NE,E0035107,South Twerton,Bath,,,,,,0,U,373318,164221,-2.38474,51.37641,BCT,MKD,OTH,,,,1,2013-03-11T16:46:18,2013-03-11T16:46:18,,new,act
0180BAC30259,bthdwgj,,,Dartmouth Avenue Bottom,en,,,,,Dartmouth Avenue,en,,,SW-Bound,en,SW,E0035107,South Twerton,Bath,,,,,,0,U,373306,164188,-2.38491,51.37611,BCT,MKD,OTH,,,,1,2013-03-11T16:46:18,2013-03-11T16:46:18,,new,act
0180BAC30260,bthdwat,,,Dartmouth Avenue Top,en,,,,,Dartmouth Avenue,en,,,NE-Bound,en,NE,E0035107,South Twerton,Bath,,,,,,0,U,373192,164083,-2.38654,51.37516,BCT,MKD,OTH,,,,1,2013-03-11T16:46:18,2013-03-11T16:46:18,,new,act
0180BAC30261,bthdwap,,,Dartmouth Avenue Top,en,,,,,Dartmouth Avenue,en,,,SW-Bound,en,SW,E0035107,South Twerton,Bath,,,,,,0,U,373187,164063,-2.38661,51.37498,BCT,MKD,OTH,,,,1,2013-03-11T16:46:18,2013-03-11T16:46:18,,new,act
0180BAC30262,bthdtmp,,,Blackmore Drive,en,,,,,Lymore Avenue,en,,,SE-Bound,en,SE,E0035107,South Twerton,Bath,,,,,,0,U,373047,164231,-2.38863,51.37649,BCT,MKD,OTH,,,,1,2013-03-11T16:46:18,2013-03-11T16:46:18,,new,act
0180BAC30263,bthdtmj,,,Blackmore Drive,en,,,,,Lymore Avenue,en,,,NW-Bound,en,NW,E0035107,South Twerton,Bath,,,,,,0,U,373046,164216,-2.38865,51.37635,BCT,MKD,OTH,,,,1,2013-03-11T16:46:18,2013-03-11T16:46:18,,new,act
0180BAC30264,bthdtdg,,,Innox Road,en,,,,,The Hollow,en,,,SW-Bound,en,SW,E0035107,South Twerton,Bath,,,,,,0,U,372882,164143,-2.391,51.37569,BCT,MKD,OTH,,,,1,2013-03-11T16:46:18,2013-03-11T16:46:18,,new,act
0180BAC30265,bthdtdm,,,Innox Road,en,,,,,The Hollow,en,,,NE-Bound,en,NE,E0035107,South Twerton,Bath,,,,,,0,U,372895,164168,-2.39081,51.37591,BCT,MKD,OTH,,,,1,2013-03-11T16:46:18,2013-03-11T16:46:18,,new,act
0180BAC30266,bthdpma,,,Community Farm,en,,,,,Kelston View,en,,,NW-Bound,en,NW,E0035155,Whiteway,Bath,,,,,,0,U,372604,164010,-2.39498,51.37448,BCT,MKD,OTH,,,,1,2013-03-11T16:46:18,2013-03-11T16:46:18,,new,act
0180BAC30268,bthdpgw,,,Community Farm,en,,,,,Kelston View,en,,,SE-Bound,en,SE,E0035155,Whiteway,Bath,,,,,,0,U,372568,164070,-2.3955,51.37501,BCT,MKD,OTH,,,,1,2013-03-11T16:46:18,2013-03-11T16:46:18,,new,act
0180BAC30269,bthdmwt,,,East Close,en,,,,,East Way,en,,,NE-Bound,en,NE,E0035155,Whiteway,Bath,,,,,,0,U,372462,164093,-2.39703,51.37522,BCT,MKD,OTH,,,,1,2013-03-11T16:46:18,2013-03-11T16:46:18,,new,act
0180BAC30270,bthdmwp,,,East Close,en,,,,,East Way,en,,,SW-Bound,en,SW,E0035155,Whiteway,Bath,,,,,,0,U,372439,164056,-2.39736,51.37488,BCT,MKD,OTH,,,,1,2013-03-11T16:46:18,2013-03-11T16:46:18,,new,act
0180BAC30271,bthdmwa,,,East Way,en,,,,,,,,,SE-Bound,en,SE,E0035155,Whiteway,Bath,,,,,,0,U,372418,163993,-2.39765,51.37431,BCT,MKD,OTH,,,,1,2013-03-11T16:46:21,2013-03-11T16:46:21,,new,act
0180BAC30272,bthdmtm,,,East Way,en,,,,,Haycombe Drive,en,,,NW-Bound,en,NW,E0035155,Whiteway,Bath,,,,,,0,U,372388,164016,-2.39809,51.37452,BCT,MKD,OTH,,,,1,2013-03-11T16:46:21,2013-03-11T16:46:21,,new,act
0180BAC30273,bthdmwd,,,The Beehive,en,,,,,Haycombe Drive,en,,,SE-Bound,en,SE,E0035155,Whiteway,Bath,,,,,,0,U,372424,163818,-2.39755,51.37274,BCT,MKD,OTH,,,,1,2013-03-11T16:46:21,2013-03-11T16:46:21,,new,act
0180BAC30275,bthdmgw,,,Haycombe Cemetery,en,,,,,,,,,SW-Bound,en,SW,E0035105,Southdown,Bath,,,,,,0,U,372199,163543,-2.40076,51.37026,BCT,MKD,OTH,,,,1,2013-03-11T16:46:21,2013-03-11T16:46:21,,new,act
0180BAC30276,bthdmpw,,,Southdown Methodist Church,en,,,,,The Hollow,en,,,SW-Bound,en,SW,E0035105,Southdown,Bath,,,,,,0,U,372360,163675,-2.39846,51.37145,BCT,MKD,OTH,,,,1,2013-03-11T16:46:21,2013-03-11T16:46:21,,new,act
0180BAC30277,bthdmwj,,,The Beehive,en,,,,,The Hollow,en,,,NE-Bound,en,NE,E0035105,Southdown,Bath,,,,,,0,U,372438,163760,-2.39735,51.37222,BCT,MKD,OTH,,,,1,2013-03-11T16:46:21,2013-03-11T16:46:21,,new,act
0180BAC30278,bthdpap,,,Mount Road Shops,en,,,,,Mount Road,en,,,SE-Bound,en,SE,E0035105,Southdown,Bath,,,,,,0,U,372501,163700,-2.39644,51.37168,BCT,MKD,OTH,,,,1,2013-03-11T16:46:21,2013-03-11T16:46:21,,new,act
0180BAC30279,bthdpam,,,Mount Road Shops,en,,,,,Mount Road,en,,,NW-Bound,en,NW,E0035105,Southdown,Bath,,,,,,0,U,372502,163679,-2.39642,51.3715,BCT,MKD,OTH,,,,1,2013-03-11T16:46:21,2013-03-11T16:46:21,,new,act
0180BAC30280,bthdpjg,,,Wedmore Park,en,,,,,Mount Road,en,,,S-Bound,en,S,E0035105,Southdown,Bath,,,,,,0,U,372580,163502,-2.39529,51.36991,BCT,MKD,OTH,,,,1,2013-03-11T16:46:21,2013-03-11T16:46:21,,new,act
0180BAC30281,bthdpjd,,,Wedmore Park,en,,,,,Mount Road,en,,,NW-Bound,en,NW,E0035105,Southdown,Bath,,,,,,0,U,372584,163407,-2.39522,51.36905,BCT,MKD,OTH,,,,1,2013-03-11T16:46:21,2013-03-11T16:46:21,,new,act
0180BAC30282,bthdpmj,,,Roundhill,en,,,,,Mount Road,en,,,S-Bound,en,S,E0035105,Southdown,Bath,,,,,,0,U,372634,163292,-2.3945,51.36802,BCT,MKD,OTH,,,,1,2013-03-11T16:46:21,2013-03-11T16:46:21,,new,act
0180BAC30283,bthdpmw,,,Padleigh Turn,en,,,,,Mount Road,en,,,N-Bound,en,N,E0035105,Southdown,Bath,,,,,,0,U,372659,163140,-2.39412,51.36666,BCT,MKD,OTH,,,,1,2013-03-11T16:46:21,2013-03-11T16:46:21,,new,act
0180BAC30284,bthdtdj,,,Southdown Avenue,en,,,,,Southdown Road,en,,,N-Bound,en,N,E0035105,Southdown,Bath,,,,,,0,U,372891,163431,-2.39081,51.36928,BCT,MKD,OTH,,,,1,2013-03-11T16:46:21,2013-03-11T16:46:21,,new,act
0180BAC30285,bthdtgj,,,Jones Stores,en,,,,,Southdown Road,en,,,N-Bound,en,N,E0035105,Southdown,Bath,,,,,,0,U,372933,163679,-2.39023,51.37152,BCT,MKD,OTH,,,,1,2013-03-11T16:46:21,2013-03-11T16:46:21,,new,act
0180BAC30286,bthdtda,,,Sladebrook Road Bottom,en,,,,,Sladebrook Road,en,,,W-Bound,en,W,E0035107,South Twerton,Bath,,,,,,0,U,372865,163784,-2.39121,51.37246,BCT,MKD,OTH,,,,1,2013-03-11T16:46:21,2013-03-11T16:46:21,,new,act
0180BAC30287,bthdpmg,,,Sladebrook Road Top,en,,,,,Sladebrook Road,en,,,W-Bound,en,W,E0035105,Southdown,Bath,,,,,,0,U,372611,163698,-2.39486,51.37167,BCT,MKD,OTH,,,,1,2013-03-11T16:46:21,2013-03-11T16:46:21,,new,act
0180BAC30288,bthdtpw,,,Kingsway Post Office,en,,,,,Sladebrook Avenue,en,,,N-Bound,en,N,E0035105,Southdown,Bath,,,,,,0,U,373123,163320,-2.38747,51.3683,BCT,MKD,OTH,,,,1,2013-03-11T16:46:16,2013-03-11T16:46:16,,new,act
0180BAC30289,bthdwdg,,,Trowbridge House,en,,,,,Coronation Avenue,en,,,S-Bound,en,S,E0035105,Southdown,Bath,,,,,,0,U,373221,163550,-2.38608,51.37037,BCT,MKD,OTH,,,,1,2013-03-11T16:46:21,2013-03-11T16:46:21,,new,act
0180BAC30290,bthdwdm,,,Trowbridge House,en,,,,,Coronation Avenue,en,,,N-Bound,en,N,E0035105,Southdown,Bath,,,,,,0,U,373229,163597,-2.38597,51.37079,BCT,MKD,OTH,,,,1,2013-03-11T16:46:21,2013-03-11T16:46:21,,new,act
0180BAC30291,bthdwgw,,,Happy Garden,en,,,,,Coronation Avenue,en,,,SW-Bound,en,SW,E0035105,Southdown,Bath,,,,,,0,U,373328,163765,-2.38456,51.37231,BCT,MKD,OTH,,,,1,2013-03-11T16:46:21,2013-03-11T16:46:21,,new,act
0180BAC30292,bthdwgp,,,Happy Garden,en,,,,,Coronation Avenue,en,,,NE-Bound,en,NE,E0035105,Southdown,Bath,,,,,,0,U,373326,163783,-2.38459,51.37247,BCT,MKD,OTH,,,,1,2013-03-11T16:46:21,2013-03-11T16:46:21,,new,act
0180BAC30293,bthdwmj,,,Ascension Church,en,,,,,Lymore Terrace,en,,,SW-Bound,en,SW,E0035107,South Twerton,Bath,,,,,,0,U,373423,163897,-2.38321,51.3735,BCT,MKD,OTH,,,,1,2013-03-11T16:46:21,2013-03-11T16:46:21,,new,act
0180BAC30294,bthdwpa,,,Ascension Church,en,,,,,Claude Avenue,en,,,N-Bound,en,N,E0035107,South Twerton,Bath,,,,,,0,U,373447,164001,-2.38287,51.37444,BCT,MKD,OTH,,,,1,2013-03-11T16:46:21,2013-03-11T16:46:21,,new,act
0180BAC30295,bthdwpm,,,Bridge Road,en,,,,,Bridge Road,en,,,NE-Bound,en,NE,E0035107,South Twerton,Bath,,,,,,0,U,373458,164154,-2.38272,51.37581,BCT,MKD,OTH,,,,1,2013-03-11T16:46:21,2013-03-11T16:46:21,,new,act
0180BAC30296,bthdwta,,,Bridge Road,en,,,,,Bridge Road,en,,,SW-Bound,en,SW,E0035107,South Twerton,Bath,,,,,,0,U,373477,164171,-2.38245,51.37597,BCT,MKD,OTH,,,,1,2013-03-11T16:46:21,2013-03-11T16:46:21,,new,act
0180BAC30297,bthjadp,,,Cynthia Road,en,,,,,Cynthia Road,en,,,SE-Bound,en,SE,E0035068,Oldfield Park,Bath,,,,,,0,U,373572,164154,-2.38109,51.37582,BCT,MKD,OTH,,,,1,2013-03-11T16:46:21,2013-03-11T16:46:21,,new,act
0180BAC30298,bthjadt,,,Cynthia Road,en,,,,,Cynthia Road,en,,,NW-Bound,en,NW,E0035068,Oldfield Park,Bath,,,,,,0,U,373584,164136,-2.38091,51.37566,BCT,MKD,OTH,,,,1,2013-03-11T16:46:21,2013-03-11T16:46:21,,new,act
0180BAC30299,bthjajw,,,Moorland Road,en,,,,,Herbert Road,en,,,SW-Bound,en,SW,E0035068,Oldfield Park,Bath,,,,,,0,U,373718,164289,-2.37901,51.37704,BCT,MKD,OTH,,,,1,2013-03-11T16:46:18,2013-03-11T16:46:18,,new,act
0180BAC30300,bthjajm,,,Maybrick Road,en,,,,,Moorland Road,en,,,NW-Bound,en,NW,E0035068,Oldfield Park,Bath,,,,,,0,U,373696,164347,-2.37933,51.37756,BCT,MKD,OTH,,,,1,2013-03-11T16:46:21,2013-03-11T16:46:21,,new,act
0180BAC30301,bthjdma,,,Hayesfield Lower School,en,,,,,Brougham Hayes,en,,,N-Bound,en,N,E0035068,Oldfield Park,Bath,,,,,,0,U,374014,164694,-2.37479,51.38069,BCT,MKD,OTH,,,,1,2013-03-11T16:46:21,2013-03-11T16:46:21,,new,act
0180BAC30302,bthjdjp,,,Hayesfield Lower School,en,,,,,Brougham Hayes,en,,,SW-Bound,en,SW,E0035068,Oldfield Park,Bath,,,,,,0,U,374005,164658,-2.37492,51.38037,BCT,MKD,OTH,,,,1,2013-03-11T16:46:21,2013-03-11T16:46:21,,new,act
0180BAC30303,bthjdmp,,,Brougham Hayes,en,,,,,Lower Bristol Road,en,,,SE-Bound,en,SE,E0035068,Oldfield Park,Bath,,,,,,0,U,374094,164731,-2.37364,51.38103,BCT,MKD,OTH,,,,1,2013-03-11T16:46:21,2013-03-11T16:46:21,,new,act
0180BAC30304,bthjgap,,,Sainsburys,en,,,,,,,,,SE-Bound,en,SE,E0035068,Oldfield Park,Bath,,,,,,0,U,374289,164684,-2.37084,51.38062,BCT,MKD,OTH,,,,1,2013-03-11T16:46:21,2013-03-11T16:46:21,,new,act
0180BAC30305,bthjdwm,,,St James Cemetery,en,,,,,Lower Bristol Road,en,,,NW-Bound,en,NW,E0035068,Oldfield Park,Bath,,,,,,0,U,374231,164615,-2.37167,51.37999,BCT,MKD,OTH,,,,1,2013-03-11T16:46:21,2013-03-11T16:46:21,,new,act
0180BAC30306,bthjdgt,,,Brougham Hayes,en,,,,,Lower Bristol Road,en,,,W-Bound,en,W,E0035004,East Twerton,Bath,,,,,,0,U,373963,164764,-2.37553,51.38132,BCT,MKD,OTH,,,,1,2013-03-11T16:46:21,2013-03-11T16:46:21,,new,act
0180BAC30307,bthjapj,,,Bath Press,en,,,,,Lower Bristol Road,en,,,W-Bound,en,W,E0035004,East Twerton,Bath,,,,,,0,U,373791,164799,-2.378,51.38163,BCT,MKD,OTH,,,,1,2013-03-11T16:46:21,2013-03-11T16:46:21,,new,act
0180BAC30308,bthjajp,,,Bath Press,en,,,,,Lower Bristol Road,en,,,E-Bound,en,E,E0035004,East Twerton,Bath,,,,,,0,U,373726,164828,-2.37894,51.38189,BCT,MKD,OTH,,,,1,2013-03-11T16:46:21,2013-03-11T16:46:21,,new,act
0180BAC30310,bthdwpd,,,Bellotts Road,en,,,,,Lower Bristol Road,en,,,E-Bound,en,E,E0035004,East Twerton,Bath,,,,,,0,U,373447,164848,-2.38293,51.38205,BCT,MKD,OTH,,,,1,2013-03-11T16:46:21,2013-03-11T16:46:21,,new,act
0180BAC30311,bthdwmd,,,Bellotts Road,en,,,,,Lower Bristol Road,en,,,W-Bound,en,W,E0035004,East Twerton,Bath,,,,,,0,U,373415,164825,-2.38339,51.38184,BCT,MKD,OTH,,,,1,2013-03-11T16:46:21,2013-03-11T16:46:21,,new,act
0180BAC30312,bthdtwt,,,Lansdown View,en,,,,,Lower Bristol Road,en,,,SW-Bound,en,SW,E0035130,Twerton,Bath,,,,,,0,U,373157,164715,-2.38709,51.38084,BCT,MKD,OTH,,,,1,2013-03-11T16:46:21,2013-03-11T16:46:21,,new,act
0180BAC30313,bthdtwg,,,Lansdown View,en,,,,,Lower Bristol Road,en,,,E-Bound,en,E,E0035130,Twerton,Bath,,,,,,0,U,373138,164718,-2.38736,51.38087,BCT,MKD,OTH,,,,1,2013-03-11T16:46:21,2013-03-11T16:46:21,,new,act
0180BAC30314,bthdpwm,,,Twerton Arch,en,,,,,High Street,en,,,W-Bound,en,W,E0035130,Twerton,Bath,,,,,,0,U,372800,164625,-2.39221,51.38002,BCT,MKD,OTH,,,,1,2013-03-11T16:46:21,2013-03-11T16:46:21,,new,act
0180BAC30315,bthdpgj,,,Twerton Parade,en,,,,,Clyde Gardens,en,,,NW-Bound,en,NW,E0035130,Twerton,Bath,,,,,,0,U,372526,164653,-2.39615,51.38025,BCT,MKD,OTH,,,,1,2013-03-11T16:46:21,2013-03-11T16:46:21,,new,act
0180BAC30316,bthdpaw,,,Twerton Parade,en,,,,,High Street,en,,,SE-Bound,en,SE,E0035130,Twerton,Bath,,,,,,0,U,372517,164679,-2.39628,51.38049,BCT,MKD,OTH,,,,1,2013-03-11T16:46:21,2013-03-11T16:46:21,,new,act
0180BAC30317,bthdmjw,,,Walwyn Close,en,,,,,Newton Road,en,,,E-Bound,en,E,E0035130,Twerton,Bath,,,,,,0,U,372262,164772,-2.39995,51.38131,BCT,MKD,OTH,,,,1,2013-03-11T16:46:21,2013-03-11T16:46:21,,new,act
0180BAC30318,bthdmjp,,,Walwyn Close,en,,,,,Newton Road,en,,,W-Bound,en,W,E0035130,Twerton,Bath,,,,,,0,U,372224,164765,-2.4005,51.38125,BCT,MKD,OTH,,,,1,2013-03-11T16:46:21,2013-03-11T16:46:21,,new,act
0180BAC30319,bthdmag,,,Twerton School,en,,,,,Newton Road,en,,,E-Bound,en,E,E0035130,Twerton,Bath,,,,,,0,U,371980,164784,-2.40401,51.38141,BCT,MKD,OTH,,,,1,2013-03-11T16:46:21,2013-03-11T16:46:21,,new,act
0180BAC30320,bthdjwp,,,Twerton School,en,,,,,Newton Road,en,,,W-Bound,en,W,E0035130,Twerton,Bath,,,,,,0,U,371932,164759,-2.4047,51.38118,BCT,MKD,OTH,,,,1,2013-03-11T16:46:21,2013-03-11T16:46:21,,new,act
0180BAC30321,bthdjpw,,,Day Crescent,en,,,,,Newton Road,en,,,NE-Bound,en,NE,E0035130,Twerton,Bath,,,,,,0,U,371754,164671,-2.40725,51.38038,BCT,MKD,OTH,,,,1,2013-03-11T16:46:21,2013-03-11T16:46:21,,new,act
0180BAC30322,bthdjta,,,Day Crescent,en,,,,,Newton Road,en,,,SW-Bound,en,SW,E0035130,Twerton,Bath,,,,,,0,U,371778,164682,-2.4069,51.38048,BCT,MKD,OTH,,,,1,2013-03-11T16:46:21,2013-03-11T16:46:21,,new,act
0180BAC30324,bthdjwg,,,Shaws Way West,en,,,,,Shaws Way,en,,,NE-Bound,en,NE,E0035130,Twerton,Bath,,,,,,0,U,371892,164513,-2.40525,51.37896,BCT,MKD,OTH,,,,1,2013-03-11T16:46:21,2013-03-11T16:46:21,,new,act
0180BAC30325,bthdjwj,,,Shaws Way West,en,,,,,Shaws Way,en,,,SW-Bound,en,SW,E0035130,Twerton,Bath,,,,,,0,U,371896,164506,-2.40519,51.3789,BCT,MKD,OTH,,,,1,2013-03-11T16:46:21,2013-03-11T16:46:21,,new,act
0180BAC30326,bthdmdm,,,Shaws Way East,en,,,,,Shaws Way,en,,,E-Bound,en,E,E0035130,Twerton,Bath,,,,,,0,U,372070,164570,-2.4027,51.37949,BCT,MKD,OTH,,,,1,2013-03-11T16:46:21,2013-03-11T16:46:21,,new,act
0180BAC30327,bthdmaw,,,Shaws Way East,en,,,,,Shaws Way,en,,,W-Bound,en,W,E0035130,Twerton,Bath,,,,,,0,U,372059,164560,-2.40286,51.3794,BCT,MKD,OTH,,,,1,2013-03-11T16:46:21,2013-03-11T16:46:21,,new,act
0180BAC30328,bthdmat,,,Linley Close,en,,,,,Poolemead Road,en,,,NE-Bound,en,NE,E0035130,Twerton,Bath,,,,,,0,U,372019,164433,-2.40342,51.37825,BCT,MKD,OTH,,,,1,2013-03-11T16:46:21,2013-03-11T16:46:21,,new,act
0180BAC30329,bthdmam,,,Linley Close,en,,,,,Poolemead Road,en,,,SW-Bound,en,SW,E0035130,Twerton,Bath,,,,,,0,U,372001,164401,-2.40368,51.37796,BCT,MKD,OTH,,,,1,2013-03-11T16:46:21,2013-03-11T16:46:21,,new,act
0180BAC30330,bthdjwm,,,Wedgewood Road,en,,,,,Wedgwood Road,en,,,W-Bound,en,W,E0035130,Twerton,Bath,,,,,,0,U,371915,164192,-2.40489,51.37608,BCT,MKD,OTH,,,,1,2013-03-11T16:46:21,2013-03-11T16:46:21,,new,act
0180BAC30331,bthdmad,,,Wedgewood Road,en,,,,,Wedgwood Road,en,,,E-Bound,en,E,E0035130,Twerton,Bath,,,,,,0,U,371960,164239,-2.40425,51.3765,BCT,MKD,OTH,,,,1,2013-03-11T16:46:21,2013-03-11T16:46:21,,new,act
0180BAC30332,bthdmgj,,,North Way,en,,,,,Kelston View,en,,,E-Bound,en,E,E0035155,Whiteway,Bath,,,,,,0,U,372160,164211,-2.40138,51.37626,BCT,MKD,OTH,,,,1,2013-03-11T16:46:21,2013-03-11T16:46:21,,new,act
0180BAC30333,bthdmgm,,,North Way,en,,,,,Kelston View,en,,,W-Bound,en,W,E0035155,Whiteway,Bath,,,,,,0,U,372161,164201,-2.40136,51.37617,BCT,MKD,OTH,,,,1,2013-03-11T16:46:21,2013-03-11T16:46:21,,new,act
0180BAC30334,bthdmjm,,,Whiteway Circle,en,,,,,St Michaels Road,en,,,W-Bound,en,W,E0035155,Whiteway,Bath,,,,,,0,U,372224,164079,-2.40045,51.37508,BCT,MKD,OTH,,,,1,2013-03-11T16:46:21,2013-03-11T16:46:21,,new,act
0180BAC30335,bthdmtg,,,Combe Drive,en,,,,,Haycombe Drive,en,,,SW-Bound,en,SW,E0035155,Whiteway,Bath,,,,,,0,U,372377,163805,-2.39823,51.37262,BCT,MKD,OTH,,,,1,2013-03-11T16:46:21,2013-03-11T16:46:21,,new,act
0180BAC30336,bthdmjd,,,Rosewarn Close,en,,,,,Haycombe Drive,en,,,W-Bound,en,W,E0035155,Whiteway,Bath,,,,,,0,U,372215,163772,-2.40055,51.37232,BCT,MKD,OTH,,,,1,2013-03-11T16:46:21,2013-03-11T16:46:21,,new,act
0180BAC30337,bthdmaj,,,Kelston View,en,,,,,Haycombe Drive,en,,,SW-Bound,en,SW,E0035155,Whiteway,Bath,,,,,,0,U,371990,163947,-2.4038,51.37388,BCT,MKD,OTH,,,,1,2013-03-11T16:46:21,2013-03-11T16:46:21,,new,act
0180BAC30338,bthdmda,,,Wedgwood Road,en,,,,,Wedgwood Road,en,,,E-Bound,en,E,E0035155,Whiteway,Bath,,,,,,0,U,372064,164194,-2.40275,51.3761,BCT,MKD,OTH,,,,1,2013-03-11T16:46:21,2013-03-11T16:46:21,,new,act
0180BAC30339,bthjgta,,,Midland Bridge Road,en,,,,,Midland Bridge Road,en,,,Gf,en,E,N0078123,Bath City Centre,Bath,,,,,,0,U,374559,164759,-2.36696,51.3813,BCT,MKD,OTH,,,,1,2013-03-11T16:46:21,2013-03-11T16:46:21,,new,act
0180BAC30340,bthjmjw,,,Avon Street,en,,,,,Avon Street,en,,,Wi,en,N,N0078123,Bath City Centre,Bath,,,,,,0,U,374814,164525,-2.36328,51.37921,BCT,MKD,OTH,,,,1,2013-03-11T16:46:20,2013-03-11T16:46:20,,new,act
0180BAC30341,bthjmwp,,,St James's Parade,en,,,,,St James's Parade,en,,,We,en,NW,N0078123,Bath City Centre,Bath,,,,,,0,U,374980,164526,-2.3609,51.37923,BCT,MKD,OTH,,,,1,2013-03-11T16:46:19,2013-03-11T16:46:19,,new,act
0180BAC30342,bthjmtg,,,Westgate Buildings,en,,,,,Westgate Buildings,en,,,Wa,en,N,N0078123,Bath City Centre,Bath,,,,,,0,U,374874,164701,-2.36243,51.3808,BCT,MKD,OTH,,,,1,2013-03-11T16:46:21,2013-03-11T16:46:21,,new,act
0180BAC30343,bthjmtd,,,Westgate Buildings,en,,,,,Westgate Buildings,en,,,Wb,en,N,N0078123,Bath City Centre,Bath,,,,,,0,U,374871,164713,-2.36248,51.3809,BCT,MKD,OTH,,,,1,2013-03-11T16:46:21,2013-03-11T16:46:21,,new,act
0180BAC30344,bthjmta,,,Westgate Buildings,en,,,,,Westgate Buildings,en,,,Wc,en,N,N0078123,Bath City Centre,Bath,,,,,,0,U,374867,164729,-2.36254,51.38105,BCT,MKD,OTH,,,,1,2013-03-11T16:46:21,2013-03-11T16:46:21,,new,act
0180BAC30345,bthjmpw,,,Westgate Buildings,en,,,,,Westgate Buildings,en,,,Wd,en,N,N0078123,Bath City Centre,Bath,,,,,,0,U,374866,164742,-2.36255,51.38116,BCT,MKD,OTH,,,,1,2013-03-11T16:46:21,2013-03-11T16:46:21,,new,act
0180BAC30346,bthjmat,,,Monmouth Place,en,,,,,Monmouth Place,en,,,Gd,en,W,E0035029,Kingsmead,Bath,,,,,,0,U,374646,164916,-2.36572,51.38272,BCT,MKD,OTH,,,,1,2013-03-11T16:46:21,2013-03-11T16:46:21,,new,act
0180BAC30347,bthjgmj,,,Nile Street,en,,,,,Upper Bristol Road,en,,,W-Bound,en,W,E0035029,Kingsmead,Bath,,,,,,0,U,374442,164997,-2.36866,51.38344,BCT,MKD,OTH,,,,1,2013-03-11T16:46:21,2013-03-11T16:46:21,,new,act
0180BAC30348,bthjgtj,,,James Street West,en,,,,,James Street West,en,,,Gc,en,E,N0078123,Bath City Centre,Bath,,,,,,0,U,374577,164828,-2.36671,51.38192,BCT,MKD,OTH,,,,1,2013-03-11T16:46:21,2013-03-11T16:46:21,,new,act
0180BAC30349,bthjmdj,,,James Street West,en,,,,,James Street West,en,,,Ge,en,NW,N0078123,Bath City Centre,Bath,,,,,,0,U,374664,164764,-2.36545,51.38135,BCT,MKD,OTH,,,,1,2013-03-11T16:46:21,2013-03-11T16:46:21,,new,act
0180BAC30350,bthjmdt,,,James Street West,en,,,,,James Street West,en,,,Wf,en,SE,N0078123,Bath City Centre,Bath,,,,,,0,U,374733,164737,-2.36446,51.38111,BCT,MKD,OTH,,,,1,2013-03-11T16:46:21,2013-03-11T16:46:21,,new,act
0180BAC30351,bthjgam,,,Nile Street,en,,,,,Upper Bristol Road,en,,,E-Bound,en,E,E0035029,Kingsmead,Bath,,,,,,0,U,374279,165058,-2.37101,51.38398,BCT,MKD,OTH,,,,1,2013-03-11T16:46:21,2013-03-11T16:46:21,,new,act
0180BAC30352,bthjdpm,,,Comfortable Place,en,,,,,Upper Bristol Road,en,,,W-Bound,en,W,E0035043,Lower Weston,Bath,,,,,,0,U,374103,165109,-2.37354,51.38443,BCT,MKD,OTH,,,,1,2013-03-11T16:46:21,2013-03-11T16:46:21,,new,act
0180BAC30353,bthjdta,,,Comfortable Place,en,,,,,Upper Bristol Road,en,,,E-Bound,en,E,E0035043,Lower Weston,Bath,,,,,,0,U,374126,165111,-2.37321,51.38445,BCT,MKD,OTH,,,,1,2013-03-11T16:46:21,2013-03-11T16:46:21,,new,act
0180BAC30355,bthjatj,,,Park Lane,en,,,,,,,,,E-Bound,en,E,E0035043,Lower Weston,Bath,,,,,,0,U,373805,165239,-2.37783,51.38558,BCT,MKD,OTH,,,,1,2013-03-11T16:46:22,2013-03-11T16:46:22,,new,act
0180BAC30356,bthjapg,,,Park Lane,en,,,,,Upper Bristol Road,en,,,W-Bound,en,W,E0035043,Lower Weston,Bath,,,,,,0,U,373738,165227,-2.37879,51.38547,BCT,MKD,OTH,,,,1,2013-03-11T16:46:22,2013-03-11T16:46:22,,new,act
0180BAC30357,bthdwtp,,,Windsor Villas,en,,,,,Upper Bristol Road,en,,,SW-Bound,en,SW,E0035043,Lower Weston,Bath,,,,,,0,U,373507,165122,-2.38209,51.38452,BCT,MKD,OTH,,,,1,2013-03-11T16:46:22,2013-03-11T16:46:22,,new,act
0180BAC30358,bthdwga,,,The Weston,en,,,,,Upper Bristol Road,en,,,E-Bound,en,E,E0035043,Lower Weston,Bath,,,,,,0,U,373263,165113,-2.3856,51.38443,BCT,MKD,OTH,,,,1,2013-03-11T16:46:22,2013-03-11T16:46:22,,new,act
0180BAC30359,bthdwad,,,The Weston,en,,,,,Newbridge Road,en,,,W-Bound,en,W,E0035043,Lower Weston,Bath,,,,,,0,U,373159,165118,-2.38709,51.38447,BCT,MKD,OTH,,,,1,2013-03-11T16:46:22,2013-03-11T16:46:22,,new,act
0180BAC30360,bthdtgw,,,Clarence Place,en,,,,,Locksbrook Road,en,,,W-Bound,en,W,E0035039,Locksbrook,Bath,,,,,,0,U,372974,164930,-2.38974,51.38277,BCT,MKD,OTH,,,,1,2013-03-11T16:46:22,2013-03-11T16:46:22,,new,act
0180BAC30362,bthdptg,,,Dolphin Inn,en,,,,,Locksbrook Road,en,,,W-Bound,en,W,E0035039,Locksbrook,Bath,,,,,,0,U,372717,164909,-2.39343,51.38257,BCT,MKD,OTH,,,,1,2013-03-11T16:46:22,2013-03-11T16:46:22,,new,act
0180BAC30363,bthdpmp,,,Osborne Road,en,,,,,Brassmill Lane,en,,,W-Bound,en,W,E0035039,Locksbrook,Bath,,,,,,0,U,372638,164890,-2.39456,51.38239,BCT,MKD,OTH,,,,1,2013-03-11T16:46:22,2013-03-11T16:46:22,,new,act
0180BAC30364,bthdmpm,,,Avon Park,en,,,,,Brassmill Lane,en,,,NW-Bound,en,NW,E0035039,Locksbrook,Bath,,,,,,0,U,372357,165015,-2.39861,51.3835,BCT,MKD,OTH,,,,1,2013-03-11T16:46:22,2013-03-11T16:46:22,,new,act
0180BAC30365,bthdmjt,,,Brassmill Lane Trading Estate,en,,,,,Rudmore Park,en,,,NW-Bound,en,NW,N0060729,Newbridge,Bath,,,,,,0,U,372252,165177,-2.40013,51.38495,BCT,MKD,OTH,,,,1,2013-03-11T16:46:22,2013-03-11T16:46:22,,new,act
0180BAC30366,bthdmdp,,,Selbourne Close,en,,,,,Brassmill Lane,en,,,NW-Bound,en,NW,N0060729,Newbridge,Bath,,,,,,0,U,372086,165423,-2.40254,51.38716,BCT,MKD,OTH,,,,1,2013-03-11T16:46:22,2013-03-11T16:46:22,,new,act
0180BAC30367,bthdmdg,,,Caravan Park,en,,,,,Brassmill Lane,en,,,N-Bound,en,N,N0060729,Newbridge,Bath,,,,,,0,U,372063,165563,-2.40288,51.38841,BCT,MKD,OTH,,,,1,2013-03-11T16:46:22,2013-03-11T16:46:22,,new,act
0180BAC30368,bthdmgp,,,Newbridge Gardens,en,,,,,Newbridge Road,en,,,SE-Bound,en,SE,N0060729,Newbridge,Bath,,,,,,0,U,372167,165559,-2.40138,51.38838,BCT,MKD,OTH,,,,1,2013-03-11T16:46:22,2013-03-11T16:46:22,,new,act
0180BAC30369,bthdmjg,,,Newbridge Gardens,en,,,,,Newbridge Road,en,,,NW-Bound,en,NW,N0060729,Newbridge,Bath,,,,,,0,U,372218,165493,-2.40064,51.38779,BCT,MKD,OTH,,,,1,2013-03-11T16:46:22,2013-03-11T16:46:22,,new,act
0180BAC30371,bthdmpt,,,Rudmore Park,en,,,,,Homelea Park East,en,,,S-Bound,en,S,N0060729,Newbridge,Bath,,,,,,0,U,372359,165380,-2.39861,51.38678,BCT,MKD,OTH,,,,1,2013-03-11T16:46:22,2013-03-11T16:46:22,,new,act
0180BAC30372,bthdmtw,,,Rudmore Park,en,,,,,Newbridge Road,en,,,NW-Bound,en,NW,N0060729,Newbridge,Bath,,,,,,0,U,372408,165313,-2.3979,51.38618,BCT,MKD,OTH,,,,1,2013-03-11T16:46:22,2013-03-11T16:46:22,,new,act
0180BAC30373,bthdpgd,,,Charmouth Road,en,,,,,Newbridge Road,en,,,SE-Bound,en,SE,N0060729,Newbridge,Bath,,,,,,0,U,372553,165190,-2.39581,51.38508,BCT,MKD,OTH,,,,1,2013-03-11T16:46:22,2013-03-11T16:46:22,,new,act
0180BAC30374,bthdpmd,,,Charmouth Road,en,,,,,Newbridge Road,en,,,NW-Bound,en,NW,N0060729,Newbridge,Bath,,,,,,0,U,372610,165122,-2.39498,51.38448,BCT,MKD,OTH,,,,1,2013-03-11T16:46:22,2013-03-11T16:46:22,,new,act
0180BAC30375,bthdtdw,,,Horstmann Close,en,,,,,Newbridge Road,en,,,W-Bound,en,W,N0060729,Newbridge,Bath,,,,,,0,U,372918,165090,-2.39055,51.3842,BCT,MKD,OTH,,,,1,2013-03-11T16:46:22,2013-03-11T16:46:22,,new,act
0180BAC30376,bthdtgt,,,Horstmann Close,en,,,,,Newbridge Road,en,,,E-Bound,en,E,N0060729,Newbridge,Bath,,,,,,0,U,372955,165104,-2.39002,51.38433,BCT,MKD,OTH,,,,1,2013-03-11T16:46:22,2013-03-11T16:46:22,,new,act
0180BAC30378,bthdtpa,,,Chelsea Road,en,,,,,Newbridge Road,en,,,E-Bound,en,E,E0035043,Lower Weston,Bath,,,,,,0,U,373068,165113,-2.3884,51.38442,BCT,MKD,OTH,,,,1,2013-03-11T16:46:22,2013-03-11T16:46:22,,new,act
0180BAC30379,bthdtwm,,,The Weston,en,,,,,Newbridge Hill,en,,,E-Bound,en,E,E0035043,Lower Weston,Bath,,,,,,0,U,373152,165155,-2.3872,51.3848,BCT,MKD,OTH,,,,1,2013-03-11T16:46:22,2013-03-11T16:46:22,,new,act
0180BAC30380,bthdtmw,,,Chelsea Road,en,,,,,Newbridge Hill,en,,,NW-Bound,en,NW,E0035043,Lower Weston,Bath,,,,,,0,U,373060,165250,-2.38852,51.38565,BCT,MKD,OTH,,,,1,2013-03-11T16:46:22,2013-03-11T16:46:22,,new,act
0180BAC30381,bthdtpg,,,Chelsea Road,en,,,,,Newbridge Hill,en,,,SE-Bound,en,SE,E0035043,Lower Weston,Bath,,,,,,0,U,373082,165242,-2.38821,51.38558,BCT,MKD,OTH,,,,1,2013-03-11T16:46:22,2013-03-11T16:46:22,,new,act
0180BAC30382,bthdtam,,,Neston House,en,,,,,Newbridge Hill,en,,,NW-Bound,en,NW,N0060729,Newbridge,Bath,,,,,,0,U,372857,165395,-2.39145,51.38694,BCT,MKD,OTH,,,,1,2013-03-11T16:46:22,2013-03-11T16:46:22,,new,act
0180BAC30383,bthdtaw,,,Neston House,en,,,,,,,,,SE-Bound,en,SE,N0060729,Newbridge,Bath,,,,,,0,U,372872,165403,-2.39124,51.38702,BCT,MKD,OTH,,,,1,2013-03-11T16:46:22,2013-03-11T16:46:22,,new,act
0180BAC30384,bthdptd,,,Evelyn Road,en,,,,,Newbridge Hill,en,,,W-Bound,en,W,N0060729,Newbridge,Bath,,,,,,0,U,372697,165476,-2.39376,51.38766,BCT,MKD,OTH,,,,1,2013-03-11T16:46:22,2013-03-11T16:46:22,,new,act
0180BAC30385,bthdpjw,,,Penn Lea Road,en,,,,,Newbridge Hill,en,,,E-Bound,en,E,N0060729,Newbridge,Bath,,,,,,0,U,372597,165508,-2.3952,51.38795,BCT,MKD,OTH,,,,1,2013-03-11T16:46:13,2013-03-11T16:46:13,,new,act
0180BAC30386,bthdpja,,,Penn Lea Road,en,,,,,Penn Lea Road,en,,,NE-Bound,en,NE,N0060729,Newbridge,Bath,,,,,,0,U,372573,165561,-2.39555,51.38842,BCT,MKD,OTH,,,,1,2013-03-11T16:46:13,2013-03-11T16:46:13,,new,act
0180BAC30387,bthdpjt,,,Manor Park,en,,,,,Penn Lea Road,en,,,S-Bound,en,S,N0060729,Newbridge,Bath,,,,,,0,U,372597,165752,-2.39522,51.39014,BCT,MKD,OTH,,,,1,2013-03-11T16:46:22,2013-03-11T16:46:22,,new,act
0180BAC30388,bthdpjm,,,Manor Park,en,,,,,Penn Lea Road,en,,,N-Bound,en,N,N0060729,Newbridge,Bath,,,,,,0,U,372588,165749,-2.39535,51.39011,BCT,CUS,OTH,,,,1,2013-03-11T16:46:22,2013-03-11T16:46:22,,new,act
0180BAC30389,bthdpdj,,,South Lea Road,en,,,,,South Lea Road,en,,,S-Bound,en,S,N0060729,Newbridge,Bath,,,,,,0,U,372520,165854,-2.39633,51.39105,BCT,MKD,OTH,,,,1,2013-03-11T16:46:22,2013-03-11T16:46:22,,new,act
0180BAC30391,bthdpat,,,South Lea Road,en,,,,,South Lea Road,en,,,N-Bound,en,N,N0060729,Newbridge,Bath,,,,,,0,U,372509,165851,-2.39649,51.39103,BCT,MKD,OTH,,,,1,2013-03-11T16:46:22,2013-03-11T16:46:22,,new,act
0180BAC30392,bthdmpg,,,Meadow View Close,en,,,,,West Lea Road,en,,,S-Bound,en,S,N0060729,Newbridge,Bath,,,,,,0,U,372324,165913,-2.39915,51.39157,BCT,MKD,OTH,,,,1,2013-03-11T16:46:22,2013-03-11T16:46:22,,new,act
0180BAC30393,bthdmpj,,,Meadow View Close,en,,,,,West Lea Road,en,,,N-Bound,en,N,N0060729,Newbridge,Bath,,,,,,0,U,372325,165934,-2.39914,51.39176,BCT,MKD,OTH,,,,1,2013-03-11T16:46:22,2013-03-11T16:46:22,,new,act
0180BAC30394,bthdmta,,,West Lea Road Top,en,,,,,West Lea Road,en,,,NE-Bound,en,NE,N0060729,Newbridge,Bath,,,,,,0,U,372362,166065,-2.39862,51.39294,BCT,MKD,OTH,,,,1,2013-03-11T16:46:22,2013-03-11T16:46:22,,new,act
0180BAC30395,bthdmtp,,,West Lea Road Top,en,,,,,West Lea Road,en,,,SW-Bound,en,SW,N0060729,Newbridge,Bath,,,,,,0,U,372393,166088,-2.39818,51.39315,BCT,MKD,OTH,,,,1,2013-03-11T16:46:22,2013-03-11T16:46:22,,new,act
0180BAC30396,bthdpdm,,,Chandler Close,en,,,,,Penn Hill Road,en,,,E-Bound,en,E,N0060729,Newbridge,Bath,,,,,,0,U,372524,166249,-2.3963,51.39461,BCT,MKD,OTH,,,,1,2013-03-11T16:46:22,2013-03-11T16:46:22,,new,act
0180BAC30397,bthdpdt,,,Chandler Close,en,,,,,Penn Hill Road,en,,,W-Bound,en,W,N0060729,Newbridge,Bath,,,,,,0,U,372525,166240,-2.39629,51.39452,BCT,MKD,OTH,,,,1,2013-03-11T16:46:22,2013-03-11T16:46:22,,new,act
0180BAC30398,bthdpwa,,,Southlands,en,,,,,Penn Hill Road,en,,,SW-Bound,en,SW,E0035148,Weston,Bath,,,,,,0,U,372749,166326,-2.39308,51.39531,BCT,MKD,OTH,,,,1,2013-03-11T16:46:21,2013-03-11T16:46:21,,new,act
0180BAC30399,bthdpwg,,,Southlands,en,,,,,Penn Hill Road,en,,,NE-Bound,en,NE,E0035148,Weston,Bath,,,,,,0,U,372766,166350,-2.39283,51.39553,BCT,MKD,OTH,,,,1,2013-03-11T16:46:21,2013-03-11T16:46:21,,new,act
0180BAC30400,bthdpwt,,,Crown and Anchor,en,,,,,High Street,en,,,NW-Bound,en,NW,E0035148,Weston,Bath,,,,,,0,U,372794,166460,-2.39244,51.39652,BCT,MKD,OTH,,,,1,2013-03-11T16:46:21,2013-03-11T16:46:21,,new,act
0180BAC30401,bthdtad,,,Crown and Anchor,en,,,,,High Street,en,,,SE-Bound,en,SE,E0035148,Weston,Bath,,,,,,0,U,372841,166447,-2.39176,51.3964,BCT,MKD,OTH,,,,1,2013-03-11T16:46:21,2013-03-11T16:46:21,,new,act
0180BAC30402,bthdpdw,,,Free Church,en,,,,,,,,,N-Bound,en,N,E0035148,Weston,Bath,,,,,,0,U,372543,166652,-2.39606,51.39823,BCT,MKD,OTH,,,,1,2013-03-11T16:46:21,2013-03-11T16:46:21,,new,act
0180BAC30403,bthdpgt,,,Nelson Villas,en,,,,,Lansdown Lane,en,,,S-Bound,en,S,E0035148,Weston,Bath,,,,,,0,U,372568,166693,-2.39571,51.3986,BCT,MKD,OTH,,,,1,2013-03-11T16:46:21,2013-03-11T16:46:21,,new,act
0180BAC30404,bthdpgp,,,Haviland Grove,en,,,,,Lansdown Lane,en,,,S-Bound,en,S,E0035137,Upper Weston,Bath,,,,,,0,U,372569,167049,-2.39572,51.4018,BCT,MKD,OTH,,,,1,2013-03-11T16:46:22,2013-03-11T16:46:22,,new,act
0180BAC30405,bthdpgm,,,Haviland Grove,en,,,,,Lansdown Lane,en,,,N-Bound,en,N,E0035137,Upper Weston,Bath,,,,,,0,U,372557,167005,-2.39589,51.4014,BCT,MKD,OTH,,,,1,2013-03-11T16:46:22,2013-03-11T16:46:22,,new,act
0180BAC30406,bthdpga,,,Greenacres,en,,,,,Lansdown Lane,en,,,NW-Bound,en,NW,E0035137,Upper Weston,Bath,,,,,,0,U,372544,167188,-2.39609,51.40305,BCT,MKD,OTH,,,,1,2013-03-11T16:46:22,2013-03-11T16:46:22,,new,act
0180BAC30407,bthdpdg,,,Beresford Gardens,en,,,,,Lansdown Lane,en,,,N-Bound,en,N,E0035137,Upper Weston,Bath,,,,,,0,U,372519,167365,-2.39646,51.40464,BCT,MKD,OTH,,,,1,2013-03-11T16:46:22,2013-03-11T16:46:22,,new,act
0180BAC30408,bthdmwm,,,Napier Road,en,,,,,Napier Road,en,,,W-Bound,en,W,E0035137,Upper Weston,Bath,,,,,,0,U,372436,167418,-2.39766,51.40511,BCT,MKD,OTH,,,,1,2013-03-11T16:46:21,2013-03-11T16:46:21,,new,act
0180BAC30409,bthdmja,,,Falconer Road,en,,,,,Falconer Road,en,,,S-Bound,en,S,E0035137,Upper Weston,Bath,,,,,,0,U,372205,167379,-2.40098,51.40475,BCT,MKD,OTH,,,,1,2013-03-11T16:46:21,2013-03-11T16:46:21,,new,act
0180BAC30410,bthdpda,,,Leighton Road,en,,,,,Leighton Road,en,,,E-Bound,en,E,E0035137,Upper Weston,Bath,,,,,,0,U,372518,167227,-2.39647,51.4034,BCT,MKD,OTH,,,,1,2013-03-11T16:46:21,2013-03-11T16:46:21,,new,act
0180BAC30411,bthdpwd,,,Holcombe Green,en,,,,,Eastfield Avenue,en,,,N-Bound,en,N,E0035148,Weston,Bath,,,,,,0,U,372751,166706,-2.39308,51.39873,BCT,MKD,OTH,,,,1,2013-03-11T16:46:21,2013-03-11T16:46:21,,new,act
0180BAC30412,bthdtaj,,,Eastfield Avenue Loop,en,,,,,Eastfield Avenue,en,,,E-Bound,en,E,E0035148,Weston,Bath,,,,,,0,U,372855,166802,-2.39159,51.39959,BCT,MKD,OTH,,,,1,2013-03-11T16:46:21,2013-03-11T16:46:21,,new,act
0180BAC30413,bthdtat,,,Outside 68,en,,,,,Eastfield Avenue,en,,,NW-Bound,en,NW,E0035148,Weston,Bath,,,,,,0,U,372869,166920,-2.3914,51.40066,BCT,MKD,OTH,,,,1,2013-03-11T16:46:21,2013-03-11T16:46:21,,new,act
0180BAC30414,bthdptj,,,Haviland Park,en,,,,,,,,,W-Bound,en,W,E0035148,Weston,Bath,,,,,,0,U,372719,167005,-2.39356,51.40141,BCT,MKD,OTH,,,,1,2013-03-11T16:46:21,2013-03-11T16:46:21,,new,act
0180BAC30415,bthdpjp,,,Lansdown Lane,en,,,,,Eastfield Avenue,en,,,W-Bound,en,W,E0035137,Upper Weston,Bath,,,,,,0,U,372574,166986,-2.39564,51.40123,BCT,MKD,OTH,,,,1,2013-03-11T16:46:21,2013-03-11T16:46:21,,new,act
0180BAC30417,bthdptm,,,Southlands,en,,,,,Southlands,en,,,NW-Bound,en,NW,E0035148,Weston,Bath,,,,,,0,U,372723,166355,-2.39345,51.39557,BCT,MKD,OTH,,,,1,2013-03-11T16:46:21,2013-03-11T16:46:21,,new,act
0180BAC30418,bthdpad,,,Southlands Square,en,,,,,Southlands,en,,,W-Bound,en,W,E0035148,Weston,Bath,,,,,,0,U,372463,166500,-2.3972,51.39686,BCT,MKD,OTH,,,,1,2013-03-11T16:46:21,2013-03-11T16:46:21,,new,act
0180BAC30421,bthdwjp,,,Ascension Church,en,,,,,Lymore Avenue,en,,,W-Bound,en,W,E0035107,South Twerton,Bath,,,,,,0,U,373417,163962,-2.3833,51.37408,BCT,MKD,OTH,,,,1,2013-03-11T16:46:21,2013-03-11T16:46:21,,new,act
0180BAC30422,bthdwdj,,,Dartmouth Avenue Top,en,,,,,Lymore Avenue,en,,,SE-Bound,en,SE,E0035107,South Twerton,Bath,,,,,,0,U,373227,164026,-2.38603,51.37465,BCT,MKD,OTH,,,,1,2013-03-11T16:46:18,2013-03-11T16:46:18,,new,act
0180BAC30423,bthdwam,,,Dartmouth Avenue Top,en,,,,,Dartmouth Avenue,en,,,NW-Bound,en,NW,E0035107,South Twerton,Bath,,,,,,0,U,373178,164049,-2.38674,51.37485,BCT,MKD,OTH,,,,1,2013-03-11T16:46:18,2013-03-11T16:46:18,,new,act
0180BAC30424,bthdtmd,,,Lymore Avenue,en,,,,,The Hollow,en,,,S-Bound,en,S,E0035107,South Twerton,Bath,,,,,,0,U,373032,164297,-2.38885,51.37708,BCT,MKD,OTH,,,,1,2013-03-11T16:46:22,2013-03-11T16:46:22,,new,act
0180BAC30425,bthdtjw,,,Lymore Avenue,en,,,,,The Hollow,en,,,N-Bound,en,N,E0035107,South Twerton,Bath,,,,,,0,U,373020,164306,-2.38903,51.37716,BCT,MKD,OTH,,,,1,2013-03-11T16:46:22,2013-03-11T16:46:22,,new,act
0180BAC30426,bthdtag,,,Twerton Arch,en,,,,,Shophouse Road,en,,,S-Bound,en,S,E0035130,Twerton,Bath,,,,,,0,U,372845,164610,-2.39157,51.37988,BCT,MKD,OTH,,,,1,2013-03-11T16:46:21,2013-03-11T16:46:21,,new,act
0180BAC30427,bthdmpa,,,Pennard Court,en,,,,,Watery Lane,en,,,N-Bound,en,N,E0035130,Twerton,Bath,,,,,,0,U,372301,164647,-2.39938,51.38019,BCT,MKD,OTH,,,,1,2013-03-11T16:46:22,2013-03-11T16:46:22,,new,act
0180BAC30428,bthdmpd,,,Pennard Court,en,,,,,Watery Lane,en,,,S-Bound,en,S,E0035130,Twerton,Bath,,,,,,0,U,372317,164668,-2.39916,51.38038,BCT,MKD,OTH,,,,1,2013-03-11T16:46:22,2013-03-11T16:46:22,,new,act
0180BAC30430,bthdmgt,,,Poolemead Road,en,,,,,Shaws Way,en,,,E-Bound,en,E,E0035130,Twerton,Bath,,,,,,0,U,372166,164570,-2.40132,51.37949,BCT,MKD,OTH,,,,1,2013-03-11T16:46:22,2013-03-11T16:46:22,,new,act
0180BAC30431,bthdmgd,,,Poolemead Road,en,,,,,Shaws Way,en,,,W-Bound,en,W,E0035130,Twerton,Bath,,,,,,0,U,372158,164562,-2.40143,51.37942,BCT,MKD,OTH,,,,1,2013-03-11T16:46:22,2013-03-11T16:46:22,,new,act
0180BAC30438,bthdtjm,,,The Homestead,en,,,,,Combe Park,en,,,S-Bound,en,S,N0060728,Combe Park,Bath,,,,,,0,U,373006,165568,-2.38933,51.38851,BCT,MKD,OTH,,,,1,2013-03-11T16:46:22,2013-03-11T16:46:22,,new,act
0180BAC30440,bthdtjd,,,The Homestead,en,,,,,Combe Park,en,,,N-Bound,en,N,N0060728,Combe Park,Bath,,,,,,0,U,372997,165580,-2.38946,51.38861,BCT,MKD,OTH,,,,1,2013-03-11T16:46:22,2013-03-11T16:46:22,,new,act
0180BAC30441,bthdtma,,,RUH A&e Entrance,en,,,,,Combe Park,en,,,S-Bound,en,S,N0060728,Combe Park,Bath,,,,,,0,U,373023,165721,-2.38909,51.38988,BCT,MKD,OTH,,,,1,2013-03-11T16:46:22,2013-03-11T16:46:22,,new,act
0180BAC30442,bthdtjt,,,RUH A&e,en,,,,,Combe Park,en,,,N-Bound,en,N,N0060728,Combe Park,Bath,,,,,,0,U,373017,165768,-2.38918,51.3903,BCT,MKD,OTH,,,,1,2013-03-11T16:46:22,2013-03-11T16:46:22,,new,act
0180BAC30443,bthdtmg,,,RUH Main Entrance,en,,,,,Combe Park,en,,,S-Bound,en,S,N0060728,Combe Park,Bath,,,,,,0,U,373040,165839,-2.38886,51.39094,BCT,MKD,OTH,,,,1,2013-03-11T16:46:22,2013-03-11T16:46:22,,new,act
0180BAC30444,bthdtgp,,,RUH Reception,en,,,,,,,,,E-Bound,en,E,N0060728,Combe Park,Bath,,,,,,0,U,372952,165950,-2.39013,51.39194,BCT,MKD,OTH,,,,1,2013-03-11T16:46:22,2013-03-11T16:46:22,,new,act
0180BAC30445,bthdtmt,,,RUH Main Entrance,en,,,,,Combe Park,en,,,N-Bound,en,N,N0060728,Combe Park,Bath,,,,,,0,U,373055,165955,-2.38865,51.39199,BCT,MKD,OTH,,,,1,2013-03-11T16:46:22,2013-03-11T16:46:22,,new,act
0180BAC30446,bthdtja,,,Crown Road,en,,,,,Weston Lane,en,,,N-Bound,en,N,E0035148,Weston,Bath,,,,,,0,U,372985,166249,-2.38968,51.39463,BCT,MKD,OTH,,,,1,2013-03-11T16:46:20,2013-03-11T16:46:20,,new,act
0180BAC30447,bthdtgm,,,Crown Road,en,,,,,Crownhill Road,en,,,SE-Bound,en,SE,E0035148,Weston,Bath,,,,,,0,U,372947,166333,-2.39023,51.39538,BCT,MKD,OTH,,,,1,2013-03-11T16:46:20,2013-03-11T16:46:20,,new,act
0180BAC30448,bthdtwj,,,Lucklands Road Bottom,en,,,,,Lucklands Road,en,,,E-Bound,en,E,E0035149,Weston Park,Bath,,,,,,0,U,373141,166245,-2.38744,51.3946,BCT,MKD,OTH,,,,1,2013-03-11T16:46:20,2013-03-11T16:46:20,,new,act
0180BAC30449,bthdwgd,,,Lucklands Road Top,en,,,,,Lucklands Road,en,,,NE-Bound,en,NE,E0035148,Weston,Bath,,,,,,0,U,373301,166361,-2.38515,51.39565,BCT,MKD,OTH,,,,1,2013-03-11T16:46:15,2013-03-11T16:46:15,,new,act
0180BAC30450,bthdwag,,,Lynfield Park,en,,,,,,,,,NW-Bound,en,NW,E0035148,Weston,Bath,,,,,,0,U,373169,166463,-2.38705,51.39656,BCT,MKD,OTH,,,,1,2013-03-11T16:46:15,2013-03-11T16:46:15,,new,act
0180BAC30451,bthdtpd,,,Prospect Place,en,,,,,Purlewent Drive,en,,,NW-Bound,en,NW,E0035148,Weston,Bath,,,,,,0,U,373072,166561,-2.38845,51.39744,BCT,MKD,OTH,,,,1,2013-03-11T16:46:15,2013-03-11T16:46:15,,new,act
0180BAC30452,bthdtwa,,,Lucklands Road,en,,,,,Lucklands Road,en,,,NW-Bound,en,NW,E0035149,Weston Park,Bath,,,,,,0,U,373126,166213,-2.38765,51.39431,BCT,MKD,OTH,,,,1,2013-03-11T16:46:20,2013-03-11T16:46:20,,new,act
0180BAC30453,bthdwaw,,,Weston Park West,en,,,,,Weston Park,en,,,NW-Bound,en,NW,E0035149,Weston Park,Bath,,,,,,0,U,373253,166063,-2.38581,51.39297,BCT,MKD,OTH,,,,1,2013-03-11T16:46:20,2013-03-11T16:46:20,,new,act
0180BAC30454,bthdwja,,,Weston Park West,en,,,,,Weston Park West,en,,,SE-Bound,en,SE,E0035149,Weston Park,Bath,,,,,,0,U,373324,166018,-2.38479,51.39257,BCT,MKD,OTH,,,,1,2013-03-11T16:46:20,2013-03-11T16:46:20,,new,act
0180BAC30455,bthdwtd,,,Linden Gardens,en,,,,,Weston Lane,en,,,E-Bound,en,E,E0035149,Weston Park,Bath,,,,,,0,U,373485,165789,-2.38246,51.39051,BCT,MKD,OTH,,,,1,2013-03-11T16:46:20,2013-03-11T16:46:20,,new,act
0180BAC30456,bthjadj,,,Linden Gardens,en,,,,,Weston Lane,en,,,NW-Bound,en,NW,E0035149,Weston Park,Bath,,,,,,0,U,373530,165757,-2.38181,51.39023,BCT,MKD,OTH,,,,1,2013-03-11T16:46:20,2013-03-11T16:46:20,,new,act
0180BAC30457,bthjawa,,,Cranhill Road,en,,,,,Weston Road,en,,,E-Bound,en,E,E0035149,Weston Park,Bath,,,,,,0,U,373820,165638,-2.37765,51.38917,BCT,MKD,OTH,,,,1,2013-03-11T16:46:19,2013-03-11T16:46:19,,new,act
0180BAC30458,bthjawg,,,Cranhill Road,en,,,,,Cranhill Road,en,,,NW-Bound,en,NW,E0035149,Weston Park,Bath,,,,,,0,U,373827,165624,-2.37754,51.38905,BCT,MKD,OTH,,,,1,2013-03-11T16:46:19,2013-03-11T16:46:19,,new,act
0180BAC30459,bthjgda,,,Marlborough Buildings,en,,,,,Weston Road,en,,,W-Bound,en,W,N0077181,Lansdown,Bath,,,,,,0,U,374345,165546,-2.37009,51.38837,BCT,MKD,OTH,,,,1,2013-03-11T16:46:19,2013-03-11T16:46:19,,new,act
0180BAC30460,bthjgja,,,Park Place,en,,,,,Cavendish Road,en,,,N-Bound,en,N,N0077181,Lansdown,Bath,,,,,,0,U,374394,165751,-2.36941,51.39022,BCT,MKD,OTH,,,,1,2013-03-11T16:46:19,2013-03-11T16:46:19,,new,act
0180BAC30461,bthjgjg,,,Park Place,en,,,,,Cavendish Road,en,,,S-Bound,en,S,N0077181,Lansdown,Bath,,,,,,0,U,374407,165738,-2.36922,51.3901,BCT,CUS,OTH,,,,1,2013-03-11T16:46:19,2013-03-11T16:46:19,,new,act
0180BAC30462,bthjdtm,,,Sion Hill Place,en,,,,,Sion Hill,en,,,E-Bound,en,E,E0035101,Sion Hill,Bath,,,,,,0,U,374146,166063,-2.37299,51.39301,BCT,MKD,OTH,,,,1,2013-03-11T16:46:20,2013-03-11T16:46:20,,new,act
0180BAC30463,bthjdpt,,,Sion Hill Place,en,,,,,Sion Hill,en,,,W-Bound,en,W,E0035101,Sion Hill,Bath,,,,,,0,U,374116,166061,-2.37342,51.39299,BCT,MKD,OTH,,,,1,2013-03-11T16:46:20,2013-03-11T16:46:20,,new,act
0180BAC30464,bthjdag,,,Summerhill Road,en,,,,,Summerhill Road,en,,,NW-Bound,en,NW,E0035081,Primrose Hill,Bath,,,,,,0,U,373866,166183,-2.37703,51.39408,BCT,MKD,OTH,,,,1,2013-03-11T16:46:20,2013-03-11T16:46:20,,new,act
0180BAC30465,bthjgaw,,,Cavendish Crescent,en,,,,,Cavendish Road,en,,,S-Bound,en,S,E0035101,Sion Hill,Bath,,,,,,0,U,374343,165962,-2.37015,51.39211,BCT,MKD,OTH,,,,1,2013-03-11T16:46:19,2013-03-11T16:46:19,,new,act
0180BAC30466,bthjgat,,,Cavendish Crescent,en,,,,,Cavendish Road,en,,,N-Bound,en,N,E0035101,Sion Hill,Bath,,,,,,0,U,374335,165960,-2.37027,51.39209,BCT,CUS,OTH,,,,1,2013-03-11T16:46:20,2013-03-11T16:46:20,,new,act
0180BAC30469,bthjgdw,,,Marlborough Buildings,en,,,,,Cavendish Road,en,,,N-Bound,en,N,N0077181,Lansdown,Bath,,,,,,0,U,374395,165599,-2.36938,51.38885,BCT,MKD,OTH,,,,1,2013-03-11T16:46:19,2013-03-11T16:46:19,,new,act
0180BAC30470,bthjgjw,,,Marlborough Buildings,en,,,,,Crescent Lane,en,,,E-Bound,en,E,N0077181,Lansdown,Bath,,,,,,0,U,374435,165539,-2.3688,51.38831,BCT,MKD,OTH,,,,1,2013-03-11T16:46:19,2013-03-11T16:46:19,,new,act
0180BAC30471,bthjgwt,,,Northampton Street,en,,,,,Julian Road,en,,,W-Bound,en,W,N0077181,Lansdown,Bath,,,,,,0,U,374612,165513,-2.36626,51.38808,BCT,MKD,OTH,,,,1,2013-03-11T16:46:20,2013-03-11T16:46:20,,new,act
0180BAC30472,bthjmaj,,,Northampton Street,en,,,,,Julian Road,en,,,E-Bound,en,E,N0077181,Lansdown,Bath,,,,,,0,U,374625,165522,-2.36607,51.38817,BCT,MKD,OTH,,,,1,2013-03-11T16:46:20,2013-03-11T16:46:20,,new,act
0180BAC30473,bthjmjg,,,Morford Street,en,,,,,Julian Road,en,,,E-Bound,en,E,N0077181,Lansdown,Bath,,,,,,0,U,374793,165485,-2.36365,51.38784,BCT,MKD,OTH,,,,1,2013-03-11T16:46:16,2013-03-11T16:46:16,,new,act
0180BAC30474,bthjmjp,,,Queen Square,en,,,,,Queen Square,en,,,Sb,en,NE,N0078123,Bath City Centre,Bath,,,,,,0,U,374791,165037,-2.36365,51.38381,BCT,MKD,OTH,,,,1,2013-03-11T16:46:20,2013-03-11T16:46:20,,new,act
0180BAC30475,bthjmpj,,,Queen Square,en,,,,,Queen Square,en,,,Sa,en,S,N0078123,Bath City Centre,Bath,,,,,,0,U,374840,164984,-2.36294,51.38334,BCT,MKD,OTH,,,,1,2013-03-11T16:46:20,2013-03-11T16:46:20,,new,act
0180BAC30476,bthjmpa,,,Assembly Rooms,en,,,,,Bennett Street,en,,,W-Bound,en,W,N0078123,Bath City Centre,Bath,,,,,,0,U,374826,165325,-2.36317,51.3864,BCT,MKD,OTH,,,,1,2013-03-11T16:46:20,2013-03-11T16:46:20,,new,act
0180BAC30477,bthjmwa,,,Milsom Street,en,,,,,Milsom Street,en,,,Sc,en,S,N0078123,Bath City Centre,Bath,,,,,,0,U,374940,165058,-2.36151,51.38401,BCT,MKD,OTH,,,,1,2013-03-11T16:46:20,2013-03-11T16:46:20,,new,act
0180BAC30478,bthjpaj,,,Broad Street,en,,,,,Broad Street,en,,,Sd,en,NW,N0078123,Bath City Centre,Bath,,,,,,0,U,375048,164997,-2.35995,51.38346,BCT,MKD,OTH,,,,1,2013-03-11T16:46:20,2013-03-11T16:46:20,,new,act
0180BAC30479,bthjmwm,,,Lansdown Road,en,,,,,Lansdown Road,en,,,Ab,en,S,N0078123,Bath City Centre,Bath,,,,,,0,U,374964,165290,-2.36118,51.3861,BCT,MKD,OTH,,,,1,2013-03-11T16:46:20,2013-03-11T16:46:20,,new,act
0180BAC30480,bthjmwd,,,Alfred Street,en,,,,,Lansdown Road,en,,,Aa,en,N,N0078123,Bath City Centre,Bath,,,,,,0,U,374950,165303,-2.36138,51.38621,BCT,MKD,OTH,,,,1,2013-03-11T16:46:20,2013-03-11T16:46:20,,new,act
0180BAC30481,bthjmtp,,,Belvedere,en,,,,,Lansdown Road,en,,,N-Bound,en,N,N0077181,Lansdown,Bath,,,,,,0,U,374915,165555,-2.3619,51.38848,BCT,MKD,OTH,,,,1,2013-03-11T16:46:20,2013-03-11T16:46:20,,new,act
0180BAC30482,bthjmtw,,,Belvedere,en,,,,,Lansdown Road,en,,,S-Bound,en,S,N0077181,Lansdown,Bath,,,,,,0,U,374925,165564,-2.36176,51.38856,BCT,MKD,OTH,,,,1,2013-03-11T16:46:20,2013-03-11T16:46:20,,new,act
0180BAC30483,bthjmjt,,,Ballance Street,en,,,,,Lansdown Road,en,,,NW-Bound,en,NW,N0077181,Lansdown,Bath,,,,,,0,U,374806,165679,-2.36348,51.38959,BCT,MKD,OTH,,,,1,2013-03-11T16:46:20,2013-03-11T16:46:20,,new,act
0180BAC30484,bthjmja,,,Ballance Street,en,,,,,Lansdown Grove,en,,,SE-Bound,en,SE,N0077181,Lansdown,Bath,,,,,,0,U,374781,165727,-2.36384,51.39002,BCT,MKD,OTH,,,,1,2013-03-11T16:46:20,2013-03-11T16:46:20,,new,act
0180BAC30485,bthjmgj,,,Royal High School,en,,,,,Lansdown Road,en,,,N-Bound,en,N,N0077181,Lansdown,Bath,,,,,,0,U,374746,165812,-2.36435,51.39078,BCT,MKD,OTH,,,,1,2013-03-11T16:46:20,2013-03-11T16:46:20,,new,act
0180BAC30486,bthjmgw,,,St Stephen's Church,en,,,,,Lansdown Road,en,,,S-Bound,en,S,N0077181,Lansdown,Bath,,,,,,0,U,374778,166050,-2.36391,51.39292,BCT,MKD,OTH,,,,1,2013-03-11T16:46:20,2013-03-11T16:46:20,,new,act
0180BAC30487,bthjmgp,,,St Stephen's Church,en,,,,,Lansdown Road,en,,,N-Bound,en,N,N0077181,Lansdown,Bath,,,,,,0,U,374766,166041,-2.36408,51.39284,BCT,MKD,OTH,,,,1,2013-03-11T16:46:20,2013-03-11T16:46:20,,new,act
0180BAC30488,bthjmap,,,Sion Road,en,,,,,Lansdown Road,en,,,SE-Bound,en,SE,N0077181,Lansdown,Bath,,,,,,0,U,374636,166348,-2.36597,51.39559,BCT,MKD,OTH,,,,1,2013-03-11T16:46:19,2013-03-11T16:46:19,,new,act
0180BAC30490,bthjgwj,,,Sion Road,en,,,,,Lansdown Road,en,,,NW-Bound,en,NW,N0077181,Lansdown,Bath,,,,,,0,U,374605,166392,-2.36642,51.39599,BCT,MKD,OTH,,,,1,2013-03-11T16:46:19,2013-03-11T16:46:19,,new,act
0180BAC30491,bthjgpm,,,Hamilton Road,en,,,,,Lansdown Road,en,,,S-Bound,en,S,N0077181,Lansdown,Bath,,,,,,0,U,374534,166551,-2.36745,51.39741,BCT,MKD,OTH,,,,1,2013-03-11T16:46:19,2013-03-11T16:46:19,,new,act
0180BAC30492,bthjgpa,,,Hamilton Road,en,,,,,Lansdown Road,en,,,N-Bound,en,N,N0077181,Lansdown,Bath,,,,,,0,U,374501,166586,-2.36793,51.39773,BCT,MKD,OTH,,,,1,2013-03-11T16:46:19,2013-03-11T16:46:19,,new,act
0180BAC30493,bthjgdj,,,Kingswood School,en,,,,,Lansdown Road,en,,,N-Bound,en,N,N0077181,Lansdown,Bath,,,,,,0,U,374373,166845,-2.36979,51.40005,BCT,MKD,OTH,,,,1,2013-03-11T16:46:19,2013-03-11T16:46:19,,new,act
0180BAC30495,bthjgdt,,,Kingswood School,en,,,,,Lansdown Road,en,,,S-Bound,en,S,N0077181,Lansdown,Bath,,,,,,0,U,374388,166836,-2.36957,51.39997,BCT,MKD,OTH,,,,1,2013-03-11T16:46:19,2013-03-11T16:46:19,,new,act
0180BAC30496,bthjgad,,,Lansdown Park,en,,,,,Lansdown Road,en,,,S-Bound,en,S,N0060725,Ensleigh,Bath,,,,,,0,U,374271,167103,-2.37127,51.40237,BCT,MKD,OTH,,,,1,2013-03-11T16:46:19,2013-03-11T16:46:19,,new,act
0180BAC30497,bthjdwp,,,Lansdown Park,en,,,,,Lansdown Park,en,,,NW-Bound,en,NW,N0060725,Ensleigh,Bath,,,,,,0,U,374252,167121,-2.37155,51.40253,BCT,MKD,OTH,,,,1,2013-03-11T16:46:19,2013-03-11T16:46:19,,new,act
0180BAC30498,bthjdpj,,,Hamilton House,en,,,,,Granville Road,en,,,SE-Bound,en,SE,N0060725,Ensleigh,Bath,,,,,,0,U,374108,167310,-2.37363,51.40422,BCT,MKD,OTH,,,,1,2013-03-11T16:46:19,2013-03-11T16:46:19,,new,act
0180BAC30499,bthjdpa,,,Hamilton House,en,,,,,Lansdown Road,en,,,NW-Bound,en,NW,N0060725,Ensleigh,Bath,,,,,,0,U,374100,167301,-2.37374,51.40414,BCT,MKD,OTH,,,,1,2013-03-11T16:46:19,2013-03-11T16:46:19,,new,act
0180BAC30500,bthjata,,,Lansdown Cemetery,en,,,,,Lansdown Road,en,,,NW-Bound,en,NW,N0060725,Ensleigh,Bath,,,,,,0,U,373788,167576,-2.37825,51.4066,BCT,MKD,OTH,,,,1,2013-03-11T16:46:19,2013-03-11T16:46:19,,new,act
0180BAC30505,bthjdtg,,,MOD Ensleigh,en,,,,,,,,,S-Bound,en,S,N0060725,Ensleigh,Bath,,,,,,0,U,374160,167446,-2.37289,51.40545,BCT,MKD,OTH,,,,1,2013-03-11T16:46:19,2013-03-11T16:46:19,,new,act
0180BAC30506,bthjmwj,,,St Stephen's Road,en,,,,,Camden Crescent,en,,,SW-Bound,en,SW,E0035014,Walcot,Bath,,,,,,0,U,374968,165717,-2.36115,51.38994,BCT,MKD,OTH,,,,1,2013-03-11T16:46:19,2013-03-11T16:46:19,,new,act
0180BAC30507,bthjmwt,,,St Stephen's Road,en,,,,,Camden Crescent,en,,,NE-Bound,en,NE,E0035014,Walcot,Bath,,,,,,0,U,374986,165761,-2.3609,51.39033,BCT,MKD,OTH,,,,1,2013-03-11T16:46:19,2013-03-11T16:46:19,,new,act
0180BAC30508,bthjpgm,,,Gay's Hill,en,,,,,Camden Road,en,,,SW-Bound,en,SW,E0035014,Walcot,Bath,,,,,,0,U,375113,165955,-2.35909,51.39208,BCT,MKD,OTH,,,,1,2013-03-11T16:46:19,2013-03-11T16:46:19,,new,act
0180BAC30509,bthjpmd,,,Gay's Hill,en,,,,,Camden Road,en,,,NE-Bound,en,NE,E0035014,Walcot,Bath,,,,,,0,U,375172,166007,-2.35824,51.39255,BCT,MKD,OTH,,,,1,2013-03-11T16:46:19,2013-03-11T16:46:19,,new,act
0180BAC30510,bthjtdj,,,Bennett Lane,en,,,,,Camden Road,en,,,SW-Bound,en,SW,E0035014,Walcot,Bath,,,,,,0,U,375322,166138,-2.3561,51.39374,BCT,MKD,OTH,,,,1,2013-03-11T16:46:19,2013-03-11T16:46:19,,new,act
0180BAC30511,bthjtdg,,,Bennett Lane,en,,,,,Camden Road,en,,,NE-Bound,en,NE,E0035014,Walcot,Bath,,,,,,0,U,375310,166141,-2.35627,51.39376,BCT,MKD,OTH,,,,1,2013-03-11T16:46:19,2013-03-11T16:46:19,,new,act
0180BAC30512,bthjtjp,,,Claremont Po,en,,,,,Camden Road,en,,,E-Bound,en,E,E0035007,Fairfield Park,Bath,,,,,,0,U,375509,166279,-2.35342,51.39501,BCT,MKD,OTH,,,,1,2013-03-11T16:46:19,2013-03-11T16:46:19,,new,act
0180BAC30513,bthjtma,,,Claremont Po,en,,,,,Camden Road,en,,,SW-Bound,en,SW,E0035007,Fairfield Park,Bath,,,,,,0,U,375549,166294,-2.35284,51.39515,BCT,MKD,OTH,,,,1,2013-03-11T16:46:19,2013-03-11T16:46:19,,new,act
0180BAC30514,bthjtmp,,,New Tynings Terrace,en,,,,,Fairfield Road,en,,,N-Bound,en,N,E0035007,Fairfield Park,Bath,,,,,,0,U,375548,166342,-2.35286,51.39558,BCT,MKD,OTH,,,,1,2013-03-11T16:46:19,2013-03-11T16:46:19,,new,act
0180BAC30515,bthjtgw,,,Midsummer Blds,en,,,,,Midsummer Buildings,en,,,NW-Bound,en,NW,E0035007,Fairfield Park,Bath,,,,,,0,U,375460,166462,-2.35413,51.39666,BCT,MKD,OTH,,,,1,2013-03-11T16:46:19,2013-03-11T16:46:19,,new,act
0180BAC30516,bthjtap,,,Marshfield Way,en,,,,,Marshfield Way,en,,,NW-Bound,en,NW,E0035007,Fairfield Park,Bath,,,,,,0,U,375254,166377,-2.35709,51.39588,BCT,MKD,OTH,,,,1,2013-03-11T16:46:19,2013-03-11T16:46:19,,new,act
0180BAC30517,bthjpgw,,,Solsbury Way,en,,,,,Solsbury Way,en,,,NW-Bound,en,NW,E0035007,Fairfield Park,Bath,,,,,,0,U,375118,166477,-2.35905,51.39678,BCT,MKD,OTH,,,,1,2013-03-11T16:46:19,2013-03-11T16:46:19,,new,act
0180BAC30519,bthjmwg,,,Fairfield Park Terminus,en,,,,,Solsbury Way,en,,,NW-Bound,en,NW,E0035007,Fairfield Park,Bath,,,,,,0,U,374962,166653,-2.36131,51.39835,BCT,MKD,OTH,,,,1,2013-03-11T16:46:19,2013-03-11T16:46:19,,new,act
0180BAC30520,bthjpdj,,,Fairfield Avenue,en,,,,,Fairfield Avenue,en,,,NE-Bound,en,NE,E0035007,Fairfield Park,Bath,,,,,,0,U,375087,166736,-2.35952,51.3991,BCT,MKD,OTH,,,,1,2013-03-11T16:46:19,2013-03-11T16:46:19,,new,act
0180BAC30521,bthjpwp,,,Ullswater Drive,en,,,,,Fairfield Avenue,en,,,E-Bound,en,E,E0035007,Fairfield Park,Bath,,,,,,0,U,375231,166779,-2.35745,51.3995,BCT,MKD,OTH,,,,1,2013-03-11T16:46:19,2013-03-11T16:46:19,,new,act
0180BAC30522,bthjtgd,,,Whitewells Road,en,,,,,Fairfield Avenue,en,,,SE-Bound,en,SE,E0035007,Fairfield Park,Bath,,,,,,0,U,375376,166788,-2.35536,51.39958,BCT,MKD,OTH,,,,1,2013-03-11T16:46:19,2013-03-11T16:46:19,,new,act
0180BAC30523,bthjtjm,,,Opposite 87,en,,,,,Bay Tree Road,en,,,W-Bound,en,W,E0035007,Fairfield Park,Bath,,,,,,0,U,375510,166759,-2.35344,51.39933,BCT,MKD,OTH,,,,1,2013-03-11T16:46:19,2013-03-11T16:46:19,,new,act
0180BAC30524,bthjtpt,,,St Marks School,en,,,,,Bay Tree Road,en,,,SE-Bound,en,SE,E0035007,Fairfield Park,Bath,,,,,,0,U,375644,166650,-2.3515,51.39835,BCT,MKD,OTH,,,,1,2013-03-11T16:46:19,2013-03-11T16:46:19,,new,act
0180BAC30525,bthjwda,,,Harwarden Terrace,en,,,,,Bay Tree Road,en,,,S-Bound,en,S,E0035007,Fairfield Park,Bath,,,,,,0,U,375728,166473,-2.35028,51.39677,BCT,MKD,OTH,,,,1,2013-03-11T16:46:19,2013-03-11T16:46:19,,new,act
0180BAC30526,bthjtwg,,,Eastbourne Villas,en,,,,,Claremont Road,en,,,W-Bound,en,W,E0035007,Fairfield Park,Bath,,,,,,0,U,375666,166356,-2.35117,51.39571,BCT,MKD,OTH,,,,1,2013-03-11T16:46:19,2013-03-11T16:46:19,,new,act
0180BAC30527,bthjwgw,,,Dowding Road,en,,,,,Dowding Road,en,,,NE-Bound,en,NE,E0035033,Lambridge,Bath,,,,,,0,U,375860,166343,-2.34838,51.3956,BCT,MKD,OTH,,,,1,2013-03-11T16:46:19,2013-03-11T16:46:19,,new,act
0180BAC30528,bthjwjd,,,Dowding Road,en,,,,,Dowding Road,en,,,SW-Bound,en,SW,E0035033,Lambridge,Bath,,,,,,0,U,375869,166339,-2.34825,51.39557,BCT,MKD,OTH,,,,1,2013-03-11T16:46:19,2013-03-11T16:46:19,,new,act
0180BAC30529,bthjwmt,,,St Saviours Church,en,,,,,St Saviour's Road,en,,,NW-Bound,en,NW,E0035033,Lambridge,Bath,,,,,,0,U,375973,166316,-2.34675,51.39536,BCT,MKD,OTH,,,,1,2013-03-11T16:46:19,2013-03-11T16:46:19,,new,act
0180BAC30530,bthjwpj,,,St Saviours Church,en,,,,,St Saviour's Road,en,,,N-Bound,en,N,E0035033,Lambridge,Bath,,,,,,0,U,376015,166349,-2.34615,51.39566,BCT,MKD,OTH,,,,1,2013-03-11T16:46:19,2013-03-11T16:46:19,,new,act
0180BAC30531,bthmadg,,,Somerfields,en,,,,,St Saviour's Road,en,,,N-Bound,en,N,E0035036,Larkhall,Bath,,,,,,0,U,376093,166579,-2.34504,51.39773,BCT,MKD,OTH,,,,1,2013-03-11T16:46:19,2013-03-11T16:46:19,,new,act
0180BAC30532,bthmadt,,,Otago Terrace,en,,,,,St Saviour's Road,en,,,N-Bound,en,N,E0035036,Larkhall,Bath,,,,,,0,U,376142,166760,-2.34435,51.39936,BCT,MKD,OTH,,,,1,2013-03-11T16:46:20,2013-03-11T16:46:20,,new,act
0180BAC30533,bthmaga,,,Bladuds Head,en,,,,,St Saviour's Road,en,,,N-Bound,en,N,E0035036,Larkhall,Bath,,,,,,0,U,376159,166943,-2.34412,51.40101,BCT,MKD,OTH,,,,1,2013-03-11T16:46:21,2013-03-11T16:46:21,,new,act
0180BAC30534,bthjwmd,,,Valley View Close,en,,,,,Hill View Road,en,,,SW-Bound,en,SW,E0035036,Larkhall,Bath,,,,,,0,U,375948,167020,-2.34716,51.40169,BCT,MKD,OTH,,,,1,2013-03-11T16:46:21,2013-03-11T16:46:21,,new,act
0180BAC30535,bthjwgm,,,Hill View Road,en,,,,,Hill View Road,en,,,SW-Bound,en,SW,E0035036,Larkhall,Bath,,,,,,0,U,375831,166911,-2.34883,51.40071,BCT,MKD,OTH,,,,1,2013-03-11T16:46:21,2013-03-11T16:46:21,,new,act
0180BAC30536,bthjwjm,,,Spring Vale,en,,,,,Charlcombe Lane,en,,,SE-Bound,en,SE,E0035036,Larkhall,Bath,,,,,,0,U,375892,166717,-2.34794,51.39897,BCT,MKD,OTH,,,,1,2013-03-11T16:46:21,2013-03-11T16:46:21,,new,act
0180BAC30537,bthjwtj,,,Larkhall Square,en,,,,,Upper Lambridge Street,en,,,E-Bound,en,E,E0035036,Larkhall,Bath,,,,,,0,U,376068,166542,-2.3454,51.3974,BCT,MKD,OTH,,,,1,2013-03-11T16:46:21,2013-03-11T16:46:21,,new,act
0180BAC30538,bthjwpm,,,St Saviours Way,en,,,,,St Saviours Way,en,,,SE-Bound,en,SE,E0035033,Lambridge,Bath,,,,,,0,U,376021,166293,-2.34606,51.39516,BCT,MKD,OTH,,,,1,2013-03-11T16:46:21,2013-03-11T16:46:21,,new,act
0180BAC30539,bthmaja,,,Lambridge,en,,,,,London Road,en,,,NE-Bound,en,NE,N0060726,Grosvenor,Bath,,,,,,0,U,376291,166406,-2.34219,51.39619,BCT,MKD,OTH,,,,1,2013-03-11T16:46:20,2013-03-11T16:46:20,,new,act
0180BAC30541,bthmapt,,,Bailbrook House,en,,,,,London Road West,en,,,NE-Bound,en,NE,E0034968,Bailbrook,Bath,,,,,,0,U,376818,166780,-2.33464,51.39957,BCT,MKD,OTH,,,,1,2013-03-11T16:46:21,2013-03-11T16:46:21,,new,act
0180BAC30542,bthmawt,,,Clarence Gardens,en,,,,,London Road West,en,,,NE-Bound,en,NE,E0034968,Bailbrook,Bath,,,,,,0,U,377076,166954,-2.33094,51.40115,BCT,MKD,OTH,,,,1,2013-03-11T16:46:21,2013-03-11T16:46:21,,new,act
0180BAC30543,bthmdgj,,,Bailbrook Lane,en,,,,,London Road West,en,,,NE-Bound,en,NE,E0034968,Bailbrook,Bath,,,,,,0,U,377418,167208,-2.32604,51.40345,BCT,MKD,OTH,,,,1,2013-03-11T16:46:21,2013-03-11T16:46:21,,new,act
0180BAC30571,bthmdgp,,,Bailbrook Lane,en,,,,,London Road West,en,,,SW-Bound,en,SW,E0034968,Bailbrook,Bath,,,,,,0,U,377459,167224,-2.32545,51.40359,BCT,MKD,OTH,,,,1,2013-03-11T16:46:21,2013-03-11T16:46:21,,new,act
0180BAC30572,bthmdaj,,,Clarence Gardens,en,,,,,,,,,SW-Bound,en,SW,E0034968,Bailbrook,Bath,,,,,,0,U,377188,167015,-2.32933,51.4017,BCT,MKD,OTH,,,,1,2013-03-11T16:46:21,2013-03-11T16:46:21,,new,act
0180BAC30573,bthmatw,,,Bailbrook House,en,,,,,London Road West,en,,,SW-Bound,en,SW,E0034968,Bailbrook,Bath,,,,,,0,U,376918,166835,-2.3332,51.40007,BCT,MKD,OTH,,,,1,2013-03-11T16:46:21,2013-03-11T16:46:21,,new,act
0180BAC30574,bthmagm,,,Lambridge,en,,,,,London Road,en,,,SW-Bound,en,SW,N0060726,Grosvenor,Bath,,,,,,0,U,376187,166324,-2.34368,51.39545,BCT,MKD,OTH,,,,1,2013-03-11T16:46:20,2013-03-11T16:46:20,,new,act
0180BAC30575,bthjwma,,,Balustrade,en,,,,,London Road,en,,,NE-Bound,en,NE,E0035014,Walcot,Bath,,,,,,0,U,375947,166163,-2.34711,51.39399,BCT,MKD,OTH,,,,1,2013-03-11T16:46:20,2013-03-11T16:46:20,,new,act
0180BAC30576,bthjwjg,,,Balustrade,en,,,,,London Road,en,,,SW-Bound,en,SW,E0035014,Walcot,Bath,,,,,,0,U,375884,166104,-2.34802,51.39345,BCT,MKD,OTH,,,,1,2013-03-11T16:46:20,2013-03-11T16:46:20,,new,act
0180BAC30577,bthjwgd,,,Morrisons,en,,,,,London Road,en,,,E-Bound,en,E,E0035014,Walcot,Bath,,,,,,0,U,375666,165995,-2.35114,51.39247,BCT,MKD,OTH,,,,1,2013-03-11T16:46:20,2013-03-11T16:46:20,,new,act
0180BAC30578,bthjtpd,,,Morrisons,en,,,,,London Road,en,,,SW-Bound,en,SW,E0035014,Walcot,Bath,,,,,,0,U,375600,165938,-2.35209,51.39195,BCT,MKD,OTH,,,,1,2013-03-11T16:46:20,2013-03-11T16:46:20,,new,act
0180BAC30579,bthjtjg,,,Snow Hill,en,,,,,London Road,en,,,SW-Bound,en,SW,E0035014,Walcot,Bath,,,,,,0,U,375504,165874,-2.35346,51.39137,BCT,MKD,OTH,,,,1,2013-03-11T16:46:20,2013-03-11T16:46:20,,new,act
0180BAC30580,bthjtja,,,Snow Hill,en,,,,,London Road,en,,,NE-Bound,en,NE,E0035014,Walcot,Bath,,,,,,0,U,375479,165880,-2.35382,51.39142,BCT,MKD,OTH,,,,1,2013-03-11T16:46:20,2013-03-11T16:46:20,,new,act
0180BAC30581,bthjpja,,,Walcot Gate,en,,,,,London Street,en,,,S-Bound,en,S,E0035014,Walcot,Bath,,,,,,0,U,375119,165584,-2.35897,51.38875,BCT,MKD,OTH,,,,1,2013-03-11T16:46:20,2013-03-11T16:46:20,,new,act
0180BAC30582,bthjpga,,,Walcot Cemetery,en,,,,,London Street,en,,,N-Bound,en,N,N0078123,Bath City Centre,Bath,,,,,,0,U,375101,165534,-2.35923,51.3883,BCT,MKD,OTH,,,,1,2013-03-11T16:46:20,2013-03-11T16:46:20,,new,act
0180BAC30583,bthjpda,,,Hilton Hotel,en,,,,,Walcot Street,en,,,Se,en,S,N0078123,Bath City Centre,Bath,,,,,,0,U,375079,165154,-2.35952,51.38488,BCT,MKD,OTH,,,,1,2013-03-11T16:46:20,2013-03-11T16:46:20,,new,act
0180BAC30584,bthjpam,,,Hilton Hotel,en,,,,,Walcot Street,en,,,Sf,en,N,N0078123,Bath City Centre,Bath,,,,,,0,U,375064,165194,-2.35974,51.38524,BCT,MKD,OTH,,,,1,2013-03-11T16:46:20,2013-03-11T16:46:20,,new,act
0180BAC30587,bthjpta,,,Dorchester Street,en,,,,,Dorchester Street,en,,,Bh,en,W,N0078123,Bath City Centre,Bath,,,,,,0,U,375192,164373,-2.35784,51.37786,BCT,MKD,OTH,,,,1,2013-03-11T16:46:22,2013-03-11T16:46:22,,new,act
0180BAC30588,bthjpmp,,,Dorchester Street,en,,,,,Dorchester Street,en,,,Bj,en,W,N0078123,Bath City Centre,Bath,,,,,,0,U,375140,164377,-2.35859,51.37789,BCT,MKD,OTH,,,,1,2013-03-11T16:46:22,2013-03-11T16:46:22,,new,act
0180BAC30592,bthjpad,,,St James's Parade,en,,,,,St James's Parade,en,,,Wh,en,SE,N0078123,Bath City Centre,Bath,,,,,,0,U,375040,164462,-2.36003,51.37865,BCT,MKD,OTH,,,,1,2013-03-11T16:46:19,2013-03-11T16:46:19,,new,act
0180BAC30597,bthjmpg,,,Avon Street,en,,,,,Avon Street,en,,,Wm,en,N,N0078123,Bath City Centre,Bath,,,,,,0,U,374828,164640,-2.36309,51.38024,BCT,MKD,OTH,,,,1,2013-03-11T16:46:20,2013-03-11T16:46:20,,new,act
0180BAC30601,bthjtam,,,Manvers Street,en,,,,,Manvers Street,en,,,Be,en,S,N0078123,Bath City Centre,Bath,,,,,,0,U,375251,164473,-2.357,51.37876,BCT,MKD,OTH,,,,1,2013-03-11T16:46:20,2013-03-11T16:46:20,,new,act
0180BAC30602,bthjptp,,,Terrace Walk,en,,,,,Terrace Walk,en,,,Cb,en,SW,N0078123,Bath City Centre,Bath,,,,,,0,U,375211,164737,-2.35759,51.38113,BCT,MKD,OTH,,,,1,2013-03-11T16:46:20,2013-03-11T16:46:20,,new,act
0180BAC30603,bthjpwg,,,Terrace Walk,en,,,,,,,,,Ca,en,W,N0078123,Bath City Centre,Bath,,,,,,0,U,375218,164716,-2.35749,51.38095,BCT,MKD,OTH,,,,1,2013-03-11T16:46:20,2013-03-11T16:46:20,,new,act
0180BAC30604,bthjpmg,,,Orange Grove,en,,,,,,,,,NW-Bound,en,NW,N0078123,Bath City Centre,Bath,,,,,,0,U,375172,164773,-2.35816,51.38146,BCT,MKD,OTH,,,,1,2013-03-11T16:46:20,2013-03-11T16:46:20,,new,act
0180BAC30605,bthjpjg,,,Orange Grove,en,,,,,Orange Grove,en,,,E-Bound,en,E,N0078123,Bath City Centre,Bath,,,,,,0,U,375143,164812,-2.35858,51.38181,BCT,MKD,OTH,,,,1,2013-03-11T16:46:20,2013-03-11T16:46:20,,new,act
0180BAC30606,bthjpgj,,,Rebecca Fountain,en,,,,,High Street,en,,,Ce,en,W,N0078123,Bath City Centre,Bath,,,,,,0,U,375109,164795,-2.35906,51.38165,BCT,MKD,OTH,,,,1,2013-03-11T16:46:20,2013-03-11T16:46:20,,new,act
0180BAC30607,bthjpdw,,,High Street,en,,,,,High Street,en,,,Cc,en,N,N0078123,Bath City Centre,Bath,,,,,,0,U,375099,164826,-2.35921,51.38193,BCT,MKD,OTH,,,,1,2013-03-11T16:46:22,2013-03-11T16:46:22,,new,act
0180BAC30608,bthjpdt,,,High Street,en,,,,,High Street,en,,,Cf,en,N,N0078123,Bath City Centre,Bath,,,,,,0,U,375098,164841,-2.35922,51.38206,BCT,MKD,OTH,,,,1,2013-03-11T16:46:22,2013-03-11T16:46:22,,new,act
0180BAC30609,bthjpdp,,,High Street,en,,,,,High Street,en,,,Cg,en,N,N0078123,Bath City Centre,Bath,,,,,,0,U,375097,164854,-2.35924,51.38218,BCT,MKD,OTH,,,,1,2013-03-11T16:46:22,2013-03-11T16:46:22,,new,act
0180BAC30611,bthjptg,,,Grand Parade,en,,,,,Grand Parade,en,,,Ci,en,SE,N0078123,Bath City Centre,Bath,,,,,,0,U,375203,164891,-2.35772,51.38252,BCT,MKD,OTH,,,,1,2013-03-11T16:46:20,2013-03-11T16:46:20,,new,act
0180BAC30612,bthjpwt,,,Grand Parade,en,,,,,Grand Parade,en,,,Cl,en,SE,N0078123,Bath City Centre,Bath,,,,,,0,U,375231,164858,-2.35731,51.38222,BCT,MKD,OTH,,,,1,2013-03-11T16:46:20,2013-03-11T16:46:20,,new,act
0180BAC30614,bthjpwm,,,Grand Parade,en,,,,,Grand Parade,en,,,Cm,en,S,N0078123,Bath City Centre,Bath,,,,,,0,U,375236,164843,-2.35724,51.38209,BCT,MKD,OTH,,,,1,2013-03-11T16:46:20,2013-03-11T16:46:20,,new,act
0180BAC30616,bthjgpt,,,Royal Avenue,en,,,,,Royal Avenue,en,,,E-Bound,en,E,N0078123,Bath City Centre,Bath,,,,,,0,U,374545,165238,-2.3672,51.38561,BCT,MKD,OTH,,,,1,2013-03-11T16:46:20,2013-03-11T16:46:20,,new,act
0180BAC30617,bthmajw,,,North Road View Point,en,,,,,North Road,en,,,N-Bound,en,N,E0034971,Bathwick,Bath,,,,,,0,U,376389,164759,-2.34067,51.38138,BCT,MKD,OTH,,,,1,2013-03-11T16:46:20,2013-03-11T16:46:20,,new,act
0180BAC30618,bthjwtp,,,King Edwards School,en,,,,,North Road,en,,,NW-Bound,en,NW,E0034971,Bathwick,Bath,,,,,,0,U,376088,165346,-2.34503,51.38665,BCT,MKD,OTH,,,,1,2013-03-11T16:46:19,2013-03-11T16:46:19,,new,act
0180BAC30637,bthjwmg,,,Balustrade,en,,,,,St Saviour's Road,en,,,N-Bound,en,N,E0035033,Lambridge,Bath,,,,,,0,U,375954,166230,-2.34702,51.39459,BCT,MKD,OTH,,,,1,2013-03-11T16:46:14,2013-03-11T16:46:14,,new,act
0180BAC30640,bthmajt,,,Elm Grove,en,,,,,Elm Grove,en,,,S-Bound,en,S,E0035036,Larkhall,Bath,,,,,,0,U,376347,166823,-2.34141,51.39994,BCT,MKD,OTH,,,,1,2013-03-11T16:46:14,2013-03-11T16:46:14,,new,act
0180BAC30641,bthmajp,,,Elm Grove,en,,,,,Gloucester Road,en,,,N-Bound,en,N,E0035036,Larkhall,Bath,,,,,,0,U,376341,166870,-2.3415,51.40036,BCT,MKD,OTH,,,,1,2013-03-11T16:46:14,2013-03-11T16:46:14,,new,act
0180BAC30642,bthmajm,,,Bailbrook Lane,en,,,,,Gloucester Road,en,,,SE-Bound,en,SE,E0035042,Lower Swainswick,Bath,,,,,,0,U,376327,167082,-2.34171,51.40227,BCT,MKD,OTH,,,,1,2013-03-11T16:46:14,2013-03-11T16:46:14,,new,act
0180BAC30643,bthmajg,,,Bailbrook Lane,en,,,,,Ferndale Road,en,,,NW-Bound,en,NW,E0035042,Lower Swainswick,Bath,,,,,,0,U,376319,167076,-2.34183,51.40221,BCT,MKD,OTH,,,,1,2013-03-11T16:46:14,2013-03-11T16:46:14,,new,act
0180BAC30644,bthmagd,,,Innox Lane,en,,,,,Gloucester Road,en,,,SW-Bound,en,,E0035042,Lower Swainswick,Bath,,,,,,0,U,376160,167777,-2.34416,51.40851,BCT,HAR,OTH,,,,1,2013-03-11T16:46:14,2013-03-11T16:46:14,,new,act
0180BAC30645,bthmadw,,,Innox Lane,en,,,,,Gloucester Road,en,,,N-Bound,en,,E0035042,Lower Swainswick,Bath,,,,,,0,U,376145,167781,-2.34438,51.40854,BCT,HAR,OTH,,,,1,2013-03-11T16:46:13,2013-03-11T16:46:13,,new,act
0180BAC30646,bthdpdp,,,Penn Lea Road,en,,,,,Newbridge Hill,en,,,NW-Bound,en,NW,N0060729,Newbridge,Bath,,,,,,0,U,372524,165536,-2.39625,51.38819,BCT,MKD,OTH,,,,1,2013-03-11T16:46:13,2013-03-11T16:46:13,,new,act
0180BAC30647,bthdmtd,,,Partis College,en,,,,,Kelston Road,en,,,NW-Bound,en,NW,N0060729,Newbridge,Bath,,,,,,0,U,372374,165627,-2.39841,51.38901,BCT,MKD,OTH,,,,1,2013-03-11T16:46:13,2013-03-11T16:46:13,,new,act
0180BAC30648,bthdmtj,,,Partis College,en,,,,,Kelston Road,en,,,SE-Bound,en,SE,N0060729,Newbridge,Bath,,,,,,0,U,372387,165634,-2.39823,51.38907,BCT,MKD,OTH,,,,1,2013-03-11T16:46:13,2013-03-11T16:46:13,,new,act
0180BAC30649,bthdmdw,,,Penn Hill Road,en,,,,,Kelston Road,en,,,NW-Bound,en,NW,N0060729,Newbridge,Bath,,,,,,0,U,372135,165830,-2.40186,51.39082,BCT,MKD,OTH,,,,1,2013-03-11T16:46:14,2013-03-11T16:46:14,,new,act
0180BAC30650,bthdmga,,,Penn Hill Road,en,,,,,Kelston Road,en,,,SE-Bound,en,SE,N0060729,Newbridge,Bath,,,,,,0,U,372145,165835,-2.40172,51.39086,BCT,MKD,OTH,,,,1,2013-03-11T16:46:14,2013-03-11T16:46:14,,new,act
0180BAC30651,bthdjwt,,,Oldfield School,en,,,,,Kelston Road,en,,,NW-Bound,en,NW,N0060729,Newbridge,Bath,,,,,,0,U,371954,165965,-2.40448,51.39202,BCT,MKD,OTH,,,,1,2013-03-11T16:46:14,2013-03-11T16:46:14,,new,act
0180BAC30652,bthdjtj,,,Oldfield School,en,,,,,Kelston Road,en,,,SE-Bound,en,SE,N0060729,Newbridge,Bath,,,,,,0,U,371850,166051,-2.40598,51.39279,BCT,MKD,OTH,,,,1,2013-03-11T16:46:14,2013-03-11T16:46:14,,new,act
0180BAC30661,bthdmap,,,Old Newbridge Hill,en,,,,,Newbridge Road,en,,,W-Bound,en,W,N0060729,Newbridge,Bath,,,,,,0,U,372011,165632,-2.40363,51.38903,BCT,MKD,OTH,,,,1,2013-03-11T16:46:14,2013-03-11T16:46:14,,new,act
0180BAC30662,bthdjtp,,,P&r Newbridge,en,,,,,,,,,SE-Bound,en,SE,N0060729,Newbridge,Bath,,,,,,0,U,371853,165787,-2.40591,51.39042,BCT,MKD,OTH,,,,1,2013-03-11T16:46:14,2013-03-11T16:46:14,,new,act
0180BAC30789,bthjmtm,,,Cross Keys,en,,,,,Midford Road,en,,,SE-Bound,en,SE,E0035066,Odd Down,Bath,,,,,,0,U,374905,161811,-2.36178,51.35481,BCT,MKD,OTH,,,,1,2013-03-11T16:46:14,2013-03-11T16:46:14,,new,act
0180BAC30800,bthdwgt,,,P&r Odd Down,en,,,,,,,,,SW-Bound,en,SW,E0035066,Odd Down,Bath,,,,,,0,U,373328,161492,-2.38439,51.35187,BCT,MKD,OTH,,,,1,2013-03-11T16:46:14,2013-03-11T16:46:14,,new,act
0180BAC30801,bthjdaw,,,St Gregory's School,en,,,,,Sulis Manor Road,en,,,W-Bound,en,W,E0035066,Odd Down,Bath,,,,,,0,U,373407,161633,-2.38327,51.35314,BCT,MKD,OTH,,,,1,2013-03-11T16:46:14,2013-03-11T16:46:14,,new,act
0180BAC30802,bthjamd,,,St Gregory's School,en,,,,,,,,,E-Bound,en,E,E0035066,Odd Down,Bath,,,,,,0,U,373420,161650,-2.38308,51.3533,BCT,MKD,OTH,,,,1,2013-03-11T16:46:14,2013-03-11T16:46:14,,new,act
0180BAC31197,bthjptw,,,Dorchester Street (obsolete),en,,,,,Dorchester Street,en,,,W-Bound,en,W,N0078123,Bath City Centre,Bath,,,,,,0,U,375212,164356,-2.35755,51.37771,BCT,MKD,OTH,,,,1,2013-03-11T16:46:22,2013-03-11T16:46:22,,new,act
0180BAC49598,bthmtma,,,Ambury,en,,,,,Ambury,en,,,Wr,en,N,N0078123,Bath City Centre,Bath,,,,,,0,U,374939,164415,-2.36148,51.37823,BCT,MKD,OTH,,,,1,2013-03-11T16:46:16,2013-03-11T16:46:16,,new,act
0180BAC49599,bthmtmd,,,Ambury,en,,,,,Ambury,en,,,Wq,en,N,N0078123,Bath City Centre,Bath,,,,,,0,U,374944,164429,-2.36141,51.37835,BCT,MKD,OTH,,,,1,2013-03-11T16:46:16,2013-03-11T16:46:16,,new,act
0180BAC49600,bthmtmg,,,Ambury,en,,,,,Ambury,en,,,Wp,en,N,N0078123,Bath City Centre,Bath,,,,,,0,U,374949,164446,-2.36134,51.37851,BCT,MKD,OTH,,,,1,2013-03-11T16:46:16,2013-03-11T16:46:16,,new,act
0180BAC49601,bthmtmj,,,Ambury,en,,,,,Ambury,en,,,Wn,en,N,N0078123,Bath City Centre,Bath,,,,,,0,U,374955,164477,-2.36125,51.37878,BCT,MKD,OTH,,,,1,2013-03-11T16:46:16,2013-03-11T16:46:16,,new,act
0180BAC49603,bthmtmt,,,Hadley Arms,en,,,,,North Road,en,,,E-Bound,en,E,E0034996,Combe Down,Bath,,,,,,0,U,376052,162657,-2.34537,51.36247,BCT,MKD,OTH,,,,1,2013-03-11T16:46:15,2013-03-11T16:46:15,,new,act
0180BAC49604,bthmtmw,,,Green Park Road,en,,,,,Green Park Road,en,,,Ww,en,NW,N0078123,Bath City Centre,Bath,,,,,,0,U,374863,164427,-2.36257,51.37833,BCT,MKD,OTH,,,,1,2013-03-11T16:46:15,2013-03-11T16:46:15,,new,act
0180BAC49605,bthmtpa,,,Corn Street,en,,,,,Corn Street,en,,,Wt,en,E,N0078123,Bath City Centre,Bath,,,,,,0,U,374872,164525,-2.36245,51.37921,BCT,MKD,OTH,,,,1,2013-03-11T16:46:15,2013-03-11T16:46:15,,new,act
0180BAC49606,bthmtpd,,,Corn Street,en,,,,,Corn Street,en,,,Wu,en,E,N0078123,Bath City Centre,Bath,,,,,,0,U,374848,164527,-2.36279,51.37923,BCT,MKD,OTH,,,,1,2013-03-11T16:46:15,2013-03-11T16:46:15,,new,act
0180BAC56452,bthmpmp,,,Whiteway Road,en,,,,,Newton Road,en,,,W-Bound,en,W,E0035130,Twerton,Bath,,,,,,0,U,371517,164430,-2.41063,51.3782,BCT,CUS,OTH,,,,1,2013-03-11T16:46:15,2013-03-11T16:46:15,,new,act
0180BAC56453,bthmpmt,,,Whiteway Road,en,,,,,Newton Road,en,,,E-Bound,en,E,E0035130,Twerton,Bath,,,,,,0,U,371517,164439,-2.41063,51.37828,BCT,CUS,OTH,,,,1,2013-03-11T16:46:15,2013-03-11T16:46:15,,new,act
0180BAC56454,bthmpmw,,,Fosseway School,en,,,,,Frome Road,en,,,NW-Bound,en,NW,E0035066,Odd Down,Bath,,,,,,0,U,373971,162190,-2.37522,51.35818,BCT,CUS,OTH,,,,1,2013-03-11T16:46:15,2013-03-11T16:46:15,,new,act
0180BAC56455,bthmpta,,,P&r Odd Down,en,,,,,,,,,NE-Bound,en,NE,E0035066,Odd Down,Bath,,,,,,0,U,373292,161491,-2.38491,51.35186,BCT,MKD,OTH,,,,1,2013-03-11T16:46:14,2013-03-11T16:46:14,,new,act
0180BAC56458,bthmptj,,,Prospect Place,en,,,,,Purlewent Drive,en,,,SE-Bound,en,SE,E0035148,Weston,Bath,,,,,,0,U,373077,166568,-2.38838,51.3975,BCT,CUS,OTH,,,,1,2013-03-11T16:46:15,2013-03-11T16:46:15,,new,act
0180BAC56459,bthmptm,,,Lynfield Park,en,,,,,Purlewent Drive,en,,,SE-Bound,en,SE,E0035148,Weston,Bath,,,,,,0,U,373183,166474,-2.38685,51.39666,BCT,CUS,OTH,,,,1,2013-03-11T16:46:15,2013-03-11T16:46:15,,new,act
0180BAC56460,bthmptp,,,Lucklands Road Top,en,,,,,Lucklands Road,en,,,SW-Bound,en,SW,E0035148,Weston,Bath,,,,,,0,U,373301,166350,-2.38514,51.39555,BCT,MKD,OTH,,,,1,2013-03-11T16:46:15,2013-03-11T16:46:15,,new,act
0180BAC56470,bthmtag,,,Ivy Bank Park,en,,,,,Entry Hill,en,,,SW-Bound,en,SW,N0060724,Fox Hill,Bath,,,,,,0,U,374705,162826,-2.36473,51.36393,BCT,MKD,OTH,,,,1,2013-03-11T16:46:15,2013-03-11T16:46:15,,new,act
0180BAC56471,bthmtaj,,,Sedgemoor Road,en,,,,,Hawthorn Grove,en,,,W-Bound,en,W,N0060724,Fox Hill,Bath,,,,,,0,U,374943,162384,-2.36128,51.35996,BCT,MKD,OTH,,,,1,2013-03-11T16:46:16,2013-03-11T16:46:16,,new,act
0180BAC56472,bthmtam,,,Milsom Street,en,,,,,Milsom Street,en,,,Sg,en,S,N0078123,Bath City Centre,Bath,,,,,,0,U,374935,165075,-2.36158,51.38416,BCT,MKD,OTH,,,,1,2013-03-11T16:46:20,2013-03-11T16:46:20,,new,act
0180BAC56473,bthmtap,,,Entry Hill Gardens,en,,,,,Entry Hill,en,,,N-Bound,en,N,N0078121,Bloomfield,Bath,,,,,,0,U,374641,163221,-2.36567,51.36748,BCT,MKD,OTH,,,,1,2013-03-11T16:46:16,2013-03-11T16:46:16,,new,act
0180BAC56474,bthmtat,,,Opposite 24,en,,,,,Kelston View,en,,,E-Bound,en,E,E0035155,Whiteway,Bath,,,,,,0,U,372357,164205,-2.39855,51.37622,BCT,MKD,OTH,,,,1,2013-03-11T16:46:16,2013-03-11T16:46:16,,new,act
0180BAC56481,bthmtdt,,,Henrietta Court,en,,,,,Bathwick Street,en,,,SE-Bound,en,SE,E0034971,Bathwick,Bath,,,,,,0,U,375428,165529,-2.35453,51.38826,BCT,MKD,OTH,,,,1,2013-03-11T16:46:16,2013-03-11T16:46:16,,new,act
0180BAC56482,bthmtdw,,,Combe Road,en,,,,,North Road,en,,,SW-Bound,en,SW,E0034996,Combe Down,Bath,,,,,,0,U,375651,162433,-2.35111,51.36044,BCT,MKD,OTH,,,,1,2013-03-11T16:46:16,2013-03-11T16:46:16,,new,act
0180BAC56483,bthmtga,,,Recycling Centre,en,,,,,A367,en,,,SW-Bound,en,SW,E0035066,Odd Down,Bath,,,,,,0,U,372871,161288,-2.39094,51.35001,BCT,MKD,OTH,,,,1,2013-03-11T16:46:16,2013-03-11T16:46:16,,new,act
0180BAC56484,bthmtgd,,,Ryans Depot,en,,,,,Locksbrook Road,en,,,NE-Bound,en,,E0035039,Locksbrook,Bath,,,,,,0,U,373296,164975,-2.38511,51.38319,BCT,HAR,OTH,,,,1,2013-03-11T16:46:16,2013-03-11T16:46:16,,new,act
0180BAC56485,bthmtgj,,,Ryans Depot,en,,,,,Locksbrook Road,en,,,SW-Bound,en,,E0035039,Locksbrook,Bath,,,,,,0,U,373302,164967,-2.38503,51.38312,BCT,HAR,OTH,,,,1,2013-03-11T16:46:16,2013-03-11T16:46:16,,new,act
0180BAY38419,bthjpwa,,,Rossiter Road,en,,,,,Rossiter Road,en,,,E-Bound,en,E,E0035160,Widcombe,Bath,,,,,,0,U,375214,164267,-2.35752,51.37691,BCT,MKD,OTH,,,,1,2013-03-11T16:46:16,2013-03-11T16:46:16,,new,act
0180BAY38422,bthjtdm,,,Claverton Buildings,en,,,,,,,,,N-Bound,en,N,E0035160,Widcombe,Bath,,,,,,0,U,375330,164248,-2.35585,51.37674,BCT,MKD,OTH,,,,1,2013-03-11T16:46:16,2013-03-11T16:46:16,,new,act
0180BAY38424,bthjgtw,,,Green Park Road,en,,,,,Green Park Road,en,,,Ga,en,N,N0078123,Bath City Centre,Bath,,,,,,0,U,374593,164663,-2.36647,51.38044,BCT,MKD,OTH,,,,1,2013-03-11T16:46:16,2013-03-11T16:46:16,,new,act
0180BAY38425,bthjgwm,,,Green Park Road,en,,,,,Green Park Road,en,,,Gb,en,S,N0078123,Bath City Centre,Bath,,,,,,0,U,374605,164675,-2.3663,51.38055,BCT,MKD,OTH,,,,1,2013-03-11T16:46:16,2013-03-11T16:46:16,,new,act
0180BAY38427,bthjmdg,,,Lynbrook Lane,en,,,,,Entry Hill,en,,,S-Bound,en,S,N0078121,Bloomfield,Bath,,,,,,0,U,374658,163099,-2.36542,51.36638,BCT,MKD,OTH,,,,1,2013-03-11T16:46:16,2013-03-11T16:46:16,,new,act
0180BAY38428,bthjmda,,,Ivy Bank Park,en,,,,,Entry Hill,en,,,N-Bound,en,N,N0060724,Fox Hill,Bath,,,,,,0,U,374652,162715,-2.36548,51.36293,BCT,MKD,OTH,,,,1,2013-03-11T16:46:15,2013-03-11T16:46:15,,new,act
0180BAZ02390,bthjmgt,,,Morford Street,en,,,,,Julian Road,en,,,W-Bound,en,W,N0077181,Lansdown,Bath,,,,,,0,U,374812,165465,-2.36338,51.38766,BCT,MKD,OTH,,,,1,2013-03-11T16:46:16,2013-03-11T16:46:16,,new,act
0180BAZ02391,bthmatm,,,Copseland,en,,,,,Widcombe Hill,en,,,E-Bound,en,E,E0035160,Widcombe,Bath,,,,,,0,U,376894,164046,-2.33336,51.37499,BCT,MKD,OTH,,,,1,2013-03-11T16:46:16,2013-03-11T16:46:16,,new,act
0180BAZ02392,bthjtmj,,,Widcombe Hill,en,,,,,Widcombe Hill,en,,,E-Bound,en,E,E0035160,Widcombe,Bath,,,,,,0,U,375540,164211,-2.35283,51.37642,BCT,MKD,OTH,,,,1,2013-03-11T16:46:16,2013-03-11T16:46:16,,new,act
0180BAZ02395,bthjtgm,,,The Pavilion,en,,,,,,,,,E-Bound,en,E,N0078123,Bath City Centre,Bath,,,,,,0,U,375400,164715,-2.35488,51.38094,BCT,MKD,OTH,,,,1,2013-03-11T16:46:16,2013-03-11T16:46:16,,new,act
0180BAZ02396,bthjmtj,,,Green Park Road,en,,,,,Green Park Road,en,,,Wx,en,NW,N0078123,Bath City Centre,Bath,,,,,,0,U,374906,164403,-2.36195,51.37812,BCT,MKD,OTH,,,,1,2013-03-11T16:46:15,2013-03-11T16:46:15,,new,act
0180BAZ02397,bthdpaj,,,East Lea Road,en,,,,,Penn Lea Road,en,,,NW-Bound,en,NW,N0060729,Newbridge,Bath,,,,,,0,U,372494,166034,-2.39672,51.39267,BCT,MKD,OTH,,,,1,2013-03-11T16:46:16,2013-03-11T16:46:16,,new,act
0180BAZ02398,bthdtwp,,,Kingsway Post Office,en,,,,,Englishcombe Lane,en,,,E-Bound,en,E,E0035105,Southdown,Bath,,,,,,0,U,373156,163304,-2.387,51.36816,BCT,MKD,OTH,,,,1,2013-03-11T16:46:16,2013-03-11T16:46:16,,new,act
0180BAZ02406,bthdwpw,,,Stirtingale Road,en,,,,,,,,,E-Bound,en,E,E0035125,The Oval,Bath,,,,,,0,U,373463,163370,-2.38259,51.36876,BCT,MKD,OTH,,,,1,2013-03-11T16:46:16,2013-03-11T16:46:16,,new,act
0180BAZ02407,bthdwjg,,,Stirtingale Road,en,,,,,Englishcombe Lane,en,,,W-Bound,en,,E0035125,The Oval,Bath,,,,,,0,U,373344,163365,-2.3843,51.36871,BCT,HAR,OTH,,,,1,2013-03-11T16:46:16,2013-03-11T16:46:16,,new,act
0180BAZ02412,bthjatg,,,Englishcombe Lodge,en,,,,,Englishcombe Lane,en,,,W-Bound,en,,N0078121,Bloomfield,Bath,,,,,,0,U,373801,163232,-2.37774,51.36754,BCT,HAR,OTH,,,,1,2013-03-11T16:46:16,2013-03-11T16:46:16,,new,act
0180BAZ02413,bthjtpw,,,University Accomodation,en,,,,,Pulteney Road,en,,,SW-Bound,en,,E0035160,Widcombe,Bath,,,,,,0,U,375660,164431,-2.35112,51.3784,BCT,HAR,OTH,,,,1,2013-03-11T16:46:16,2013-03-11T16:46:16,,new,act
0180BAZ02414,bthjtpj,,,University Accomodation,en,,,,,Pulteney Road,en,,,N-Bound,en,N,E0035160,Widcombe,Bath,,,,,,0,U,375634,164402,-2.35149,51.37814,BCT,MKD,OTH,,,,1,2013-03-11T16:46:16,2013-03-11T16:46:16,,new,act
0180BAZ02415,bthjgjt,,,Sainsbury's Car Park,en,,,,,Midland Bridge Road,en,,,SW-Bound,en,SW,E0035029,Kingsmead,Bath,,,,,,0,U,374431,164768,-2.3688,51.38138,BCT,MKD,OTH,,,,1,2013-03-11T16:46:16,2013-03-11T16:46:16,,new,act
0180BAZ02451,bthmjap,,,Twerton Bridge,en,,,,,Lower Bristol Road,en,,,E-Bound,en,E,E0035130,Twerton,Bath,,,,,,0,U,372985,164667,-2.38956,51.3804,BCT,MKD,OTH,,,,1,2013-03-11T16:46:15,2013-03-11T16:46:15,,new,act
0180BAZ02452,bthmjat,,,Twerton Bridge,en,,,,,Lower Bristol Road,en,,,W-Bound,en,W,E0035130,Twerton,Bath,,,,,,0,U,373053,164662,-2.38858,51.38036,BCT,MKD,OTH,,,,1,2013-03-11T16:46:15,2013-03-11T16:46:15,,new,act
0180BAZ02457,bthmjdm,,,Lansdown Royal School,en,,,,,Lansdown Road,en,,,S-Bound,en,S,N0077181,Lansdown,Bath,,,,,,0,U,374567,166490,-2.36697,51.39687,BCT,MKD,OTH,,,,1,2013-03-11T16:46:16,2013-03-11T16:46:16,,new,act
0180OLDFLDP0,,,,Oldfield Park Rail Station,en,,,,,,,,,Entrance,en,,E0035068,Oldfield Park,Bath,,,,,,0,U,373599,164537,-2.38073,51.37926,RSE,,,,,,1,2013-03-11T16:46:13,2013-03-11T16:46:13,,new,act
9100OLDFLBR,,,,Oldfield Park - Lower Bristol Road,,,,,,0,,,,,,,E0035068,Oldfield Park,Bath,,,,,,0,U,373608,164845,-2.38063,51.38203,BCQ,MKD,,,,,110,2008-11-06T15:34:00,2009-08-21T13:15:00,2,rev,act
9100OLDFLDP,,,,Oldfield Park Rail Station,,,,,,0,,,,,,,E0035068,Oldfield Park,Bath,,,,,,1,U,373614,164533,-2.38051,51.37923,RLY,,,,,,110,2006-09-08T14:30:00,2009-06-18T15:39:00,2,rev,act
